{"type":"FeatureCollection","features":[{"type":"Feature","properties":{"type":"damaged","subtype":"ruined","desc":"Mrkonjić Grad, crkva Rođenja Presvete Bogorodice, iz 1884 godine, hrvatska vojska oštetila i oskrnavila u oktobru 1995 godine","object":"crkva","time0":"1.10.1995","koor":"","date0":"ne"},"geometry":{"type":"Point","coordinates":[17.08577871322632,44.417244997763056]}},{"type":"Feature","properties":{"type":"damaged","subtype":"burned","desc":"Mrkonjić Grad, parohijski dom podignut 1964 godine, opljačkan i spaljen od hrvatske vojske u oktobru 1995","object":"dom","time0":"1.10.1995","koor":"","date0":"ne"},"geometry":{"type":"Point","coordinates":[17.085403203964233,44.41732162971843]}},{"type":"Feature","properties":{"type":"damaged","desc":"Jezero, crkva Svetog velikomučenika kneza Lazara, iz 1922 godine, opljačkana i spaljena od strane hrvatske vojske","object":"crkva","time0":"1.10.1995","koor":"","date0":"ne","subtype":"burned"},"geometry":{"type":"Point","coordinates":[17.16699868440628,44.35063304499716]}},{"type":"Feature","properties":{"type":"damaged","subtype":"burned","desc":"Jezero, parohijski dom opljačkan i spaljen od hrvatske vojske u oktobru 1995 godine","object":"dom","time0":"1.10.1995","koor":"","date0":"ne"},"geometry":{"type":"Point","coordinates":[17.167237401008606,44.35041439472152]}},{"type":"Feature","properties":{"subtype":"mined","type":"destroyed","desc":"Jajce, crkva Uspenja Presvete Bogorodice, podignuta početkom 20. og vijeka, uništena minirawemu noći između 10 i 11 oktobra 1992 godine, pre miniranja opljačkana ","object":"crkva","time0":"10.10.1992","koor":""},"geometry":{"type":"Point","coordinates":[17.27126955986023,44.34383532511804]}},{"type":"Feature","properties":{"type":"damaged","subtype":"robbed","desc":"Oborci, sa crkve u izgradnji u avgustu 1995 godine skinut bakarni pokrivač","object":"crkva","time0":"1.8.1995","koor":"","date0":"ne"},"geometry":{"type":"Point","coordinates":[17.451363801956177,44.20582538747281]}}]}