{"type":"FeatureCollection","features":[{"type":"Feature","properties":{"type":"damaged","subtype":"ruined","desc":"Sarajevo, crkva Rođenj Presvete Bogorodice teško oštećena u periodu 91-95","object":"crkva","time0":"1.1.1992","koor":" ","date0":"ne"},"geometry":{"type":"Point","coordinates":[18.425198793411255,43.85818847383808]}},{"type":"Feature","properties":{"type":"damaged","subtype":"ruined","desc":"Sarajevo, crkva Svetih arhangela Mihaila i Gavrila iz 15og vijeka nekoliko puta granatirana i teško oštećena","object":"crkva","time0":"1.1.1992","koor":" ","date0":"ne"},"geometry":{"type":"Point","coordinates":[18.43002676963806,43.86024624134914]}},{"type":"Feature","properties":{"desc":"Sarajevo, zgrada Mitropolije","object":"dom","subtype":"robbed","type":"damaged","time0":"1.1.1992","date0":"ne"},"geometry":{"type":"Point","coordinates":[18.425536751747128,43.85811111277209]}},{"type":"Feature","properties":{"subtype":"burned","type":"damaged","desc":"Sarajevo, zgrada Mitropolije","object":"dom","time0":"1.1.1992","date0":"ne"},"geometry":{"type":"Point","coordinates":[18.425504565238953,43.858085970404034]}},{"type":"Feature","properties":{"desc":"Sarajevo, crkva Svetog cara LAzara u izgradnji oštetili muslimani 92e godine (da li je to sada crkva Svetog Vasilija Ostroškog?)","object":"crkva","time0":"1.1.1992","koor":"ne","date0":"ne","subtype":"ruined","type":"damaged"},"geometry":{"type":"Point","coordinates":[18.359076976776123,43.825300977520826]}},{"type":"Feature","properties":{"type":"damaged","subtype":"robbed","desc":"Sarajevo, crkva Preobraženja Gospodnjeg opljačkana od strane muslimana","object":"crkva","time0":"1.1.1992","date0":"ne"},"geometry":{"type":"Point","coordinates":[18.390912115573883,43.8532971230033]}},{"type":"Feature","properties":{"type":"damaged","subtype":"ruined","desc":"Sarajevo, crkva Preobraženja Gospodnjeg oštećena od strane muslimana","object":"crkva","time0":"1.1.1992","date0":"ne"},"geometry":{"type":"Point","coordinates":[18.390932232141495,43.8532681102356]}},{"type":"Feature","properties":{"koor":"ne","date0":"ne","object":"crkva","time0":"1.1.1992","desc":"Blagaj, crkva velikomučenika Georgija sagrađena 1853, minirana i srušena do temalja od strane Hrvata i muslimana 1995 godine, parohijski dom spaljen iste godine (možda promašeno dosta u prostoru)","type":"destroyed","subtype":"mined"},"geometry":{"type":"Point","coordinates":[17.205898761749268,44.05625842772745]}},{"type":"Feature","properties":{"desc":"Blažuj, crkva Svetog Save Srpskog podignuta 1895, oštećena granatiranjem 1992","object":"crkva","time0":"1.1.1992","koor":"","date0":"ne","subtype":"mined","type":"damaged"},"geometry":{"type":"Point","coordinates":[18.274083137512207,43.8306454618328]}},{"type":"Feature","properties":{"type":"damaged","desc":"Bilješevo, crkva Svetog Jovana Krstitelja podignutu 1905 godine muslimani su spalili tokom 1992","object":"crkva","time0":"1.1.1992","koor":"","date0":"ne","subtype":"burned"},"geometry":{"type":"Point","coordinates":[17.99743741750717,44.13594332424759]}},{"type":"Feature","properties":{"type":"destroyed","subtype":"mined","desc":"Bugojno, crkva Rođenja Presvete Bogorodice sagrađena 1853 potpuno uništena od strane muslimana i hrvata","time0":"15.12.1992","object":"crkva","date0":""},"geometry":{"type":"Point","coordinates":[17.426118850708008,44.05460067774051]}},{"type":"Feature","properties":{"desc":"Bugojno, parohijski dom uništen od strane Hrvata 1992 godine","koor":"ne","date0":"ne","time0":"1.1.1992","object":"dom","subtype":"mined","type":"destroyed"},"geometry":{"type":"Point","coordinates":[17.426529228687286,44.05494186961202]}},{"type":"Feature","properties":{"type":"damaged","subtype":"ruined","desc":"Visoko, crkva Svetog velikomučenika Prokopija, znatno oštećena tokom 1992","object":"crkva","time0":"1.1.1992","date0":"ne"},"geometry":{"type":"Point","coordinates":[18.182576894760132,43.98177971693705]}},{"type":"Feature","properties":{"type":"damaged","subtype":"ruined","desc":"Visoko, crkva Svetog velikomučenika Prokopija, prekopan oltarski deo tokom 1995","object":"crkva","time0":"1.1.1995","koor":"","date0":"ne"},"geometry":{"type":"Point","coordinates":[18.182453513145447,43.981770066875704]}},{"type":"Feature","properties":{"desc":"Vitovlje, crkva Svetog Ilije zapaljena od strane muslimana","object":"crkva","time0":"1.1.1995","date0":"ne","subtype":"burned","type":"damaged"},"geometry":{"type":"Point","coordinates":[17.496301531791687,44.33197962745258]}},{"type":"Feature","properties":{"desc":"Donje Vukovsko, crkva Uspenja Presvete Bogorodice podignuta 1864 oštećena i opljačkana","object":"crkva","time0":"1.1.1995","subtype":"robbed","type":"damaged","date0":"ne"},"geometry":{"type":"Point","coordinates":[17.36211061477661,43.912741691059615]}},{"type":"Feature","properties":{"desc":"Goražde, crkva Svetog velikomučenika Georgija poznata i kao Donja Sopotnica, koju je sagradio Herceg Stjepan 1446 godine, muslimani su opljačkali i zapalili 1993","object":"crkva","time0":"1.1.1993","koor":"","date0":"ne","subtype":"burned","type":"damaged"},"geometry":{"type":"Point","coordinates":[19.001812040805817,43.68336395008893]}},{"type":"Feature","properties":{"type":"destroyed","subtype":"ruined","desc":"Goražde, srušena kapela u toku 1992 godine","object":"kapela","time0":"1.1.1992","koor":"ne","date0":"ne"},"geometry":{"type":"Point","coordinates":[19.0028715133667,43.68349584865767]}},{"type":"Feature","properties":{"desc":"Goražde, srušen parohijski dom u toku 1992 godine","object":"dom","time0":"1.1.1992","koor":"ne","date0":"ne","subtype":"ruined","type":"destroyed"},"geometry":{"type":"Point","coordinates":[18.999234437942505,43.68326696566219]}},{"type":"Feature","properties":{"desc":"Donja Zimča (Golo brdo?), crkva Začeća Svetog Jovana Krstitelja podignuta 1986 godine, spaljena i srušena 1992.","object":"crkva","time0":"1.1.1992","koor":"","date0":"ne","subtype":"mined","type":"destroyed"},"geometry":{"type":"Point","coordinates":[18.13377410173416,44.01949946344306]}},{"type":"Feature","properties":{"type":"damaged","subtype":"mined","desc":"Donji Malovan, crkva Svetog Lazara Kosovskog podignuta 1971 godine, granatirana u periodu 91-95 godine","object":"crkva","time0":"1.1.1992","koor":"","date0":"ne"},"geometry":{"type":"Point","coordinates":[17.180471420288086,43.89057073303237]}},{"type":"Feature","properties":{"desc":"Zavidovići, crkva Svetog Save Srpskog, sagrađena 1912, oštećena 1992 godine","object":"crkva","time0":"1.1.1992","koor":"","date0":"ne","subtype":"ruined","type":"damaged"},"geometry":{"type":"Point","coordinates":[18.139264583587646,44.444289838463824]}},{"type":"Feature","properties":{"type":"damaged","subtype":"burned","desc":"Čardak, crkva Svetog NIkole sagrađena 1984 spaljena od strane muslimana","object":"crkva","time0":"1.1.1992","koor":"","date0":"ne"},"geometry":{"type":"Point","coordinates":[18.18438470363617,44.38626213717311]}},{"type":"Feature","properties":{"desc":"Zenica, crkva Rođenja Presvete Bogorodice sagrađena 1886 oštećena od strane hrvatske vojske u junu i 1992","object":"crkva","time0":"1.1.1992","koor":"","date0":"ne","type":"damaged","subtype":"ruined"},"geometry":{"type":"Point","coordinates":[17.90199637413025,44.20157411350373]}},{"type":"Feature","properties":{"desc":"Zenica, crkva Rođenja Presvete Bogorodice sagrađena 1886 oštećena od strane hrvatske vojske u decembru i 1992","type":"damaged","subtype":"ruined","object":"crkva","time0":"1.1.1992","koor":"","date0":"ne"},"geometry":{"type":"Point","coordinates":[17.901960164308548,44.201593342027806]}},{"type":"Feature","properties":{"desc":"Jabuka, crkva Preobraženja Gospodnjeg, sagrađena 1937, Hrvati minirali i srušili do temelja 23.7.1992","time0":"23.7.1992","object":"crkva","date0":"","koor":"ne","subtype":"mined","type":"destroyed"},"geometry":{"type":"Point","coordinates":[18.655595183372498,43.634250385896465]}},{"type":"Feature","properties":{"type":"damaged","subtype":"ruined","desc":"Kakanj, crkva Svetih apostola Petra i Pavla, oštećena fasada i polupani prozori ","object":"crkva","time0":"1.1.1992","date0":"ne"},"geometry":{"type":"Point","coordinates":[18.117855191230774,44.128287128878846]}},{"type":"Feature","properties":{"desc":"Kiseljak, crkva Svetog proroka Ilije, podigmuta 1937, oštetili uslimani 1992 godine","object":"crkva","time0":"1.1.1992","koor":"","date0":"ne","type":"damaged","subtype":"ruined"},"geometry":{"type":"Point","coordinates":[18.075116872787476,43.944756337958175]}},{"type":"Feature","properties":{"type":"destroyed","subtype":"mined","desc":"Stog, crkva Svetog velikomučenika Georgija podignuta 1912, muslimani palili uništavali i konačno sravnili sa zemljom","object":"crkva","time0":"1.1.1995","date0":"ne"},"geometry":{"type":"Point","coordinates":[18.29451084136963,44.40974799127458]}},{"type":"Feature","properties":{"koor":"ne","date0":"ne","time0":"1.1.1995","object":"dom","desc":"Stog, parohijski dom , muslimani palili uništavali i konačno sravnili sa zemljom","type":"destroyed","subtype":"mined"},"geometry":{"type":"Point","coordinates":[18.294317722320557,44.409508485065125]}},{"type":"Feature","properties":{"koor":"ne","date0":"ne","time0":"1.1.1995","object":"dom","desc":"Stog, Svetosavski dom , muslimani palili uništavali i konačno sravnili sa zemljom","type":"destroyed","subtype":"mined"},"geometry":{"type":"Point","coordinates":[18.294827342033386,44.40943184287096]}},{"type":"Feature","properties":{"subtype":"mined","desc":"Pazarić, crkva Svetih apostola Petra i Pavla podignuta 1896 zapaljena i sravnjena sa zemljom od strane muslimana 1992 godine","object":"crkva","time0":"1.1.1992","date0":"ne","type":"destroyed"},"geometry":{"type":"Point","coordinates":[18.11967372894287,43.78622449790742]}},{"type":"Feature","properties":{"desc":"Pazarić, parohijski dom spaljen od strane muslimana tokom 1992","object":"dom","time0":"1.1.1992","koor":"ne","date0":"ne","subtype":"burned","type":"damaged"},"geometry":{"type":"Point","coordinates":[18.119209706783295,43.78640651529002]}},{"type":"Feature","properties":{"type":"destroyed","subtype":"mined","desc":"Trnovo, crkva velikomučenika Georgija iz 1886 godine, porušena od strane muslimana u julu 1992 godine","object":"crkva","time0":"1.6.1992","koor":"","date0":"ne"},"geometry":{"type":"Point","coordinates":[18.446688652038574,43.66518633013268]}},{"type":"Feature","properties":{"type":"damaged","subtype":"burned","desc":"Trnovo, parohijski dom spaljen od strane muslimana u julu 1992","object":"dom","time0":"1.6.1992","koor":"ne","date0":"ne"},"geometry":{"type":"Point","coordinates":[18.446636348962784,43.6653522233818]}},{"type":"Feature","properties":{"desc":"Ravno, crkva Svetog proroka Ilije zapaljena od strane Hrvata","object":"crkva","time0":"1.1.1995","koor":"ne","date0":"ne","type":"damaged","subtype":"burned"},"geometry":{"type":"Point","coordinates":[18.02981436252594,44.50595195453105]}},{"type":"Feature","properties":{"type":"damaged","subtype":"ruined","desc":"Turbe, crka Svetog Jovana Krstitelja, podignnuta 1970 godine teško oštetili muslimani tokom 1992","object":"crkva","time0":"1.1.1992","koor":"","date0":"ne"},"geometry":{"type":"Point","coordinates":[17.571816444396973,44.23848900476839]}},{"type":"Feature","properties":{"object":"dom","time0":"1.1.1992","koor":"ne","date0":"ne","desc":"Turbe, parohijski dom zapaljen tokom 1992 od strane muslimana","subtype":"burned","type":"damaged"},"geometry":{"type":"Point","coordinates":[17.57109761238098,44.23835064598509]}},{"type":"Feature","properties":{"type":"damaged","subtype":"mined","desc":"Hadžići, crkva Rođenja Presvete Bogorodice podignuta 1937, uništen krov sa kupolom granatiranjem tokom 1995","object":"crkva","time0":"1.1.1995","koor":"","date0":"ne"},"geometry":{"type":"Point","coordinates":[18.203077018260956,43.8218254514597]}}]}