{"type":"FeatureCollection","features":[{"type":"Feature","properties":{"type":"damaged","subtype":"ruined","desc":"Karlovac, saborna crkva Svetog NIkole građena između 1758 i 1787 godine, oštećena u toku ratnih dejstava","object":"crkva","time0":"1.1.1991","koor":"","date0":"ne"},"geometry":{"type":"Point","coordinates":[15.556603074073792,45.49301021040164]}},{"type":"Feature","properties":{"type":"damaged","subtype":"mined","desc":"Karlovac, saborna crkva Svetog NIkole, teško oštećena na pravoslavni Božić","object":"crkva","time0":"7.1.1992","koor":"","date0":""},"geometry":{"type":"Point","coordinates":[15.55655613541603,45.492954743927996]}},{"type":"Feature","properties":{"subtype":"mined","type":"destroyed","desc":"Karlovac, saborna crkva Svetog NIkole, uništena do temelja između 22 i 25 decembra 1993 godine","object":"crkva","time0":"23.12.1993","koor":"","date0":"ne"},"geometry":{"type":"Point","coordinates":[15.556651689112186,45.49303841367238]}},{"type":"Feature","properties":{"type":"destroyed","object":"dom","time0":"25.12.1993","koor":"ne","date0":"","desc":"Karlovac, episkopska zgrada posle proslave rimokatoličkog Božića uništena eksplozijom","subtype":"mined"},"geometry":{"type":"Point","coordinates":[15.556190013885498,45.49323583617209]}},{"type":"Feature","properties":{"type":"damaged","subtype":"ruined","desc":"Blatuša, crkva Prenos moštiju Svetog Nikole, sagrađena 1930 godine, oštećena od strane Hrvata","object":"crkva","time0":"1.1.1991","koor":"","date0":"ne"},"geometry":{"type":"Point","coordinates":[15.882625579833984,45.32848461000842]}},{"type":"Feature","properties":{"desc":"Brđani, crkva Svetog Georgija, podignuta 1888.","subtype":"ruined","type":"damaged","object":"crkva","time0":"1.1.1992","koor":"ne","date0":"ne"},"geometry":{"type":"Point","coordinates":[16.485886573791504,45.38096957259093]}},{"type":"Feature","properties":{"subtype":"ruined","desc":"Brđani, parohijski dom, oštećen","object":"dom","time0":"1.1.1992","koor":"ne","date0":"ne","type":"damaged"},"geometry":{"type":"Point","coordinates":[16.486079692840576,45.38085653514952]}},{"type":"Feature","properties":{"type":"damaged","subtype":"burned","desc":"Brlog, crkva Svetog Save, sagrađena 1740, spaljane i znatno oštećena","object":"crkva","time0":"1.1.1992","koor":"","date0":"ne"},"geometry":{"type":"Point","coordinates":[15.156090259552,44.943599685316954]}},{"type":"Feature","properties":{"type":"damaged","subtype":"ruined","desc":"Buvača, crkva Svetih apostola Petra i Pavla, oštećena","object":"crkva","time0":"1.1.1991","koor":"","date0":"ne"},"geometry":{"type":"Point","coordinates":[15.7670921087265,45.19087268865067]}},{"type":"Feature","properties":{"subtype":"ruined","desc":"Buvača, crkva Svetih apostola Petra i Pavla, teško oštećena","object":"crkva","time0":"1.1.1995","koor":"","date0":"ne","type":"damaged"},"geometry":{"type":"Point","coordinates":[15.76718330383301,45.190884030325925]}},{"type":"Feature","properties":{"type":"damaged","subtype":"mined","desc":"Blinja, crkva Svetog proroka Ilije, podignuta 1873 godine, oštećena granatiranjem","object":"crkva","time0":"1.1.1991","koor":"","date0":"ne"},"geometry":{"type":"Point","coordinates":[16.370508670806885,45.35523642318183]}},{"type":"Feature","properties":{"date0":"ne","koor":"ne","time0":"1.1.1995","object":"crkva","subtype":"burned","type":"destroyed","desc":"Buzeta, crkva brvnara, stara skoro 300 godina, spaljena od strane muslimana u avgustu 1995 godine"},"geometry":{"type":"Point","coordinates":[16.109304428100586,45.245539753625415]}},{"type":"Feature","properties":{"type":"damaged","subtype":"burned","desc":"Buzeta, parohijski dom, spaljen u avgustu 1995 od strane muslimana","object":"dom","time0":"1.1.1995","koor":"ne","date0":"ne"},"geometry":{"type":"Point","coordinates":[16.109604835510254,45.245222490968736]}},{"type":"Feature","properties":{"subtype":"mined","type":"destroyed","desc":"Velika Popina, crkva Svetog proroka Ilije, srušena u periodu 91-95 godine","object":"crkva","time0":"1.1.1992","koor":"","date0":"ne"},"geometry":{"type":"Point","coordinates":[16.03148818016052,44.288945188935145]}},{"type":"Feature","properties":{"date0":"ne","koor":"ne","time0":"1.1.1995","desc":"Veljun, crkva Preobraženja Gospodnjeg, opljačkana i znatno oštećena od strane Hrvata","object":"crkva","subtype":"ruined","type":"destroyed"},"geometry":{"type":"Point","coordinates":[15.567455291748047,45.25609905671118]}},{"type":"Feature","properties":{"type":"damaged","time0":"1.8.1995","koor":"","date0":"ne","desc":"Vlahović, crkva Svetog proroka Ilije, sagrađena u 18om vijeku, opljačkana od strane Hrvata","object":"crkva","subtype":"robbed"},"geometry":{"type":"Point","coordinates":[16.189422011375427,45.31045818787728]}},{"type":"Feature","properties":{"type":"damaged","subtype":"ruined","desc":"Glavice, crkva Svete Petke, podignuta 1784 godine, stradala u jesen 1991 godine od strane Hrvata","object":"crkva","time0":"1.10.1991","koor":"","date0":"ne"},"geometry":{"type":"Point","coordinates":[15.257678925991057,44.91846408170393]}},{"type":"Feature","properties":{"type":"damaged","time0":"1.8.1995","koor":"","date0":"ne","subtype":"mined","desc":"Glina, crkva Rođenja Presvete Bogorodice, podignuta sredinom 18 vijeka, Hravti oštetili granatama u avgustu 1995 godine","object":"crkva"},"geometry":{"type":"Point","coordinates":[16.091039925813675,45.33989408860958]}},{"type":"Feature","properties":{"type":"damaged","subtype":"robbed","desc":"Glina, parohijski dom, opljačkan od strane Hrvata i oštećen","object":"dom","time0":"1.8.1995","koor":"ne","date0":"ne"},"geometry":{"type":"Point","coordinates":[16.090899109840393,45.33995795391332]}},{"type":"Feature","properties":{"subtype":"mined","time0":"8.10.1995","koor":"","date0":"ne","desc":"Glinska poljana, crkva Vaznesenja Gospodnjeg, podignuta 1806 godine, uništena od strane Hravata","object":"crkva","type":"destroyed"},"geometry":{"type":"Point","coordinates":[16.15161895751953,45.41863612691861]}},{"type":"Feature","properties":{"type":"destroyed","subtype":"mined","desc":"Gospić, crkva Svetog Georgija, uništena od strane Hrvata u vremenu 91-93","object":"crkva","time0":"1.1.1992","koor":"ne","date0":"ne"},"geometry":{"type":"Point","coordinates":[15.377511978149416,44.54505363619728]}},{"type":"Feature","properties":{"type":"destroyed","subtype":"mined","desc":"Gospić, parohijski dom, uništen od strane Hrvata","object":"dom","time0":"1.1.1992","koor":"ne","date0":"ne"},"geometry":{"type":"Point","coordinates":[15.377281308174133,44.54497334861026]}},{"type":"Feature","properties":{"type":"damaged","subtype":"ruined","desc":"Gornje Dubrave, crkva Svete Petke, oštećena od strane Hrvata","object":"crkva","time0":"1.1.1992","koor":"","date0":"ne"},"geometry":{"type":"Point","coordinates":[15.305888950824738,45.3088321708627]}},{"type":"Feature","properties":{"subtype":"ruined","object":"crkva","time0":"1.1.1992","date0":"ne","desc":"Dvor na Uni, crkva Svetog velikomučenika Georgija","type":"damaged"},"geometry":{"type":"Point","coordinates":[16.37757897377014,45.07073989318766]}},{"type":"Feature","properties":{"subtype":"ruined","desc":"Dvor na Uni, parohijski dom, teško oštećen","date0":"ne","koor":"ne","time0":"1.1.1992","object":"dom","type":"damaged"},"geometry":{"type":"Point","coordinates":[16.378061771392822,45.07082324079139]}},{"type":"Feature","properties":{"time0":"1.8.1995","koor":"ne","date0":"ne","desc":"Dvor na Uni, parohijski dom, potpuno uništen","object":"dom","subtype":"mined","type":"destroyed"},"geometry":{"type":"Point","coordinates":[16.3781476020813,45.07080050963878]}},{"type":"Feature","properties":{"type":"damaged","subtype":"burned","desc":"Dragotina, crkva Uspenja Presvete Boogorodice, spaljena od strane Hrvata","object":"crkva","time0":"1.1.1942","koor":"","date0":"ne"},"geometry":{"type":"Point","coordinates":[16.181557774543762,45.2606001369832]}},{"type":"Feature","properties":{"subtype":"ruined","desc":"Dragotina, crkva Uspenja Presvete Boogorodice, oštećena","object":"crkva","time0":"1.8.1995","koor":"","date0":"ne","type":"damaged"},"geometry":{"type":"Point","coordinates":[16.18162214756012,45.26057370550635]}},{"type":"Feature","properties":{"date0":"ne","object":"crkva","time0":"1.8.1995","subtype":"ruined","desc":"Donji Budački, crkva Svetih apostola Petra i Pavla, oštećena","type":"damaged"},"geometry":{"type":"Point","coordinates":[15.598880052566527,45.36689844256823]}},{"type":"Feature","properties":{"koor":"ne","date0":"ne","object":"dom","time0":"1.8.1995","subtype":"ruined","type":"damaged","desc":"Donji Budački, parohijski dom"},"geometry":{"type":"Point","coordinates":[15.597753524780275,45.36677783928531]}},{"type":"Feature","properties":{"time0":"1.1.1942","koor":"","date0":"ne","object":"crkva","subtype":"burned","type":"damaged","desc":"Donji Budački, crkva Svetih apostola Petra i Pavla, od strane Hrvata spaljena"},"geometry":{"type":"Point","coordinates":[15.59884786605835,45.36689844256823]}},{"type":"Feature","properties":{"type":"destroyed","date0":"ne","subtype":"ruined","desc":"Dubica, crkva Silaska Svetoga Duha, od strane Hrvata uništena u vremenu 41-45","object":"crkva","time0":"1.1.1942"},"geometry":{"type":"Point","coordinates":[16.79617926478386,45.189936047505164]}},{"type":"Feature","properties":{"type":"damaged","subtype":"ruined","desc":"Dubica, crkva Silaska Svetoga Duha, oštećen krov, zvonik, opljačkana","object":"crkva","time0":"1.1.1993","date0":"ne"},"geometry":{"type":"Point","coordinates":[16.796202063560486,45.18992754110727]}},{"type":"Feature","properties":{"object":"dom","time0":"1.1.1993","desc":"Dubica, parohijski dom, ikone i knjige velikim delom uništene","subtype":"ruined","type":"damaged","date0":"ne","koor":"ne"},"geometry":{"type":"Point","coordinates":[16.79595395922661,45.18995022483213]}},{"type":"Feature","properties":{"type":"destroyed","subtype":"mined","desc":"Živaja, crkva Svetog proroka Ilije, podignuta 1885 godine, srušena od stane Hrvata tokom drugog svjetskog rata","object":"crkva","time0":"1.1.1942","koor":"ne","date0":"ne"},"geometry":{"type":"Point","coordinates":[16.721556186676025,45.24789650646126]}},{"type":"Feature","properties":{"type":"destroyed","subtype":"mined","desc":"Živaja, crkva Svetog proroka Ilije, srušena od strane Hrvata u vremenu 91-96","object":"crkva","time0":"1.1.1995","koor":"ne","date0":"ne"},"geometry":{"type":"Point","coordinates":[16.721577644348145,45.24789461807666]}},{"type":"Feature","properties":{"subtype":"ruined","type":"damaged","time0":"1.1.1942","koor":"ne","date0":"ne","object":"crkva","desc":"Jošavica, crkva Svetog velikomučenika Georgija, sagrađena 1777 godine, oštećena od strane Hrvata"},"geometry":{"type":"Point","coordinates":[16.357440948486328,45.327590779470306]}},{"type":"Feature","properties":{"subtype":"mined","type":"damaged","time0":"1.1.1995","koor":"ne","date0":"ne","object":"crkva","desc":"Jošavica, crkva Svetog velikomučenika Georgija, sagrađena 1777 godine, oštećena od strane Hrvata granatiranjem"},"geometry":{"type":"Point","coordinates":[16.357499957084656,45.327590779470306]}},{"type":"Feature","properties":{"type":"damaged","subtype":"robbed","time0":"1.1.1996","date0":"ne","koor":"ne","object":"crkva","desc":"Jošavica, crkva Svetog velikomučenika Georgija, sagrađena 1777 godine, opljačkana od strane Hrvata"},"geometry":{"type":"Point","coordinates":[16.357465088367462,45.327592665203596]}},{"type":"Feature","properties":{"type":"damaged","subtype":"ruined","desc":"Komogovina, crkva Preobraženja Gospodnjeg, podignuta 1688 godine, oštećena od strane Hrvata tokom drugog svjetskog rata","object":"crkva","time0":"1.1.1942","koor":"","date0":"ne"},"geometry":{"type":"Point","coordinates":[16.375902593135834,45.302267265930794]}},{"type":"Feature","properties":{"type":"damaged","time0":"1.1.1991","date0":"ne","subtype":"ruined","desc":"Komogovina, crkva Preobraženja Gospodnjeg, podignuta 1688 godine, oštećena tokom ratnih dejstava od strane Hrvata","object":"crkva"},"geometry":{"type":"Point","coordinates":[16.37590795755386,45.302267737574844]}},{"type":"Feature","properties":{"type":"damaged","time0":"1.1.1994","date0":"ne","subtype":"ruined","desc":"Komogovina, crkva Preobraženja Gospodnjeg, podignuta 1688 godine, oštećena od strane hrvata tokom 1994 godine","object":"crkva"},"geometry":{"type":"Point","coordinates":[16.37591265141964,45.302267737574844]}},{"type":"Feature","properties":{"time0":"26.4.1942","koor":"","date0":"","object":"crkva","desc":"Kolarić, crkva Svete Petke, podignuta 1804 godine, uništena požarom kada je ubijeno u njoj i 106 Srba iz tog kraja","subtype":"burned","type":"destroyed"},"geometry":{"type":"Point","coordinates":[15.681706666946411,45.32287625000771]}},{"type":"Feature","properties":{"time0":"1.1.1995","object":"crkva","date0":"ne","desc":"Kolarić, crkva Vaznesenja Gospodnjeg, oštećena tokom 91-95","type":"damaged","subtype":"ruined"},"geometry":{"type":"Point","coordinates":[15.678831338882446,45.324731935628236]}},{"type":"Feature","properties":{"time0":"1.3.1997","object":"crkva","koor":"","date0":"ne","desc":"Kolarić, crkva Vaznesenja Gospodnjeg, oštećena ubacivanjem bombe kada je oštećen ikonostas, ikone i popucala sva stakla","type":"damaged","subtype":"ruined"},"geometry":{"type":"Point","coordinates":[15.6789493560791,45.32467913240609]}},{"type":"Feature","properties":{"koor":"","date0":"ne","time0":"1.1.1992","object":"crkva","subtype":"ruined","type":"damaged","desc":"Kosinj, crkva Svetog Nikolaja, sagrađena 1873 godine, provaljena, obesvećena, opljačkana i demolirana."},"geometry":{"type":"Point","coordinates":[15.273595154285431,44.73732190623891]}},{"type":"Feature","properties":{"date0":"ne","desc":"Kostajnica, crkva Arhangela Gavrila i Mihaila, podignuta 1743, Hrvati potpuno uništili 1941 godine ","object":"crkva","subtype":"ruined","type":"destroyed","time0":"1.1.1942"},"geometry":{"type":"Point","coordinates":[16.54838338494301,45.22313864041743]}},{"type":"Feature","properties":{"date0":"ne","type":"damaged","subtype":"ruined","desc":"Kostajnica, crkva Arhangela Gavrila i Mihaila, oštećena","object":"crkva","time0":"1.1.1995"},"geometry":{"type":"Point","coordinates":[16.548404842615124,45.223139112719295]}},{"type":"Feature","properties":{"subtype":"robbed","type":"damaged","desc":"Kostajnica, parohijski dom razvaljen posle pljačke","object":"dom","time0":"1.1.1995","koor":"ne","date0":"ne"},"geometry":{"type":"Point","coordinates":[16.54815338551998,45.223222237786544]}},{"type":"Feature","properties":{"type":"destroyed","subtype":"mined","desc":"Kukuruzari, crkva Uspenja Presvete Bogorodice, podignuta 1838 godine, Hrvati minirali 1945","object":"crkva","time0":"1.1.1945","koor":"","date0":"ne"},"geometry":{"type":"Point","coordinates":[16.48160845041275,45.2661202700659]}},{"type":"Feature","properties":{"desc":"Kukuruzari, crkva Uspenja Presvete Bogorodice, podignuta 1838 godine, oštećena ","object":"crkva","time0":"1.1.1995","date0":"ne","type":"damaged","subtype":"ruined"},"geometry":{"type":"Point","coordinates":[16.481600403785706,45.266094785048686]}},{"type":"Feature","properties":{"type":"damaged","desc":"Ličko Petrovo Selo, crkva Svetih apostola Petra i Pavla, podignuta 1892 godine, spaljena od strane Hrvata 41 godine","object":"crkva","time0":"1.1.1942","koor":"","date0":"ne","subtype":"burned"},"geometry":{"type":"Point","coordinates":[15.710041522979735,44.87984773447413]}},{"type":"Feature","properties":{"desc":"Ličko Petrovo Selo, crkva Svetih apostola Petra i Pavla, podignuta 1892 godine, opljačkana i izlomljena od strane Hravata","object":"crkva","time0":"1.1.1992","koor":"","date0":"ne","type":"damaged","subtype":"robbed"},"geometry":{"type":"Point","coordinates":[15.710132718086244,44.87982492749404]}},{"type":"Feature","properties":{"type":"damaged","subtype":"ruined","desc":"Majske Poljane, crkva Vaskrsenja Hristovog, brvnara podignuta 1820 godine, neznatno oštećena 1995 godine","object":"crkva","time0":"1.1.1995","koor":"ne","date0":"ne"},"geometry":{"type":"Point","coordinates":[16.159330308437347,45.33067009826652]}},{"type":"Feature","properties":{"type":"destroyed","subtype":"mined","desc":"Medak, crkva Rođenja Svetog Jovana Preteče, sagrašena 1724 godine, stradla od Hrvata tokom drugog svjetskog rata ","object":"crkva","time0":"1.1.1945","koor":"","date0":"ne"},"geometry":{"type":"Point","coordinates":[15.514476299285889,44.43798560198326]}},{"type":"Feature","properties":{"desc":"Medak, crkva Rođenja Svetog Jovana Preteče, podignuta 1724 godine, granatirana i opljaškkana od strane hrvatske vojske ","subtype":"mined","type":"damaged","object":"crkva","time0":"1.1.1995","koor":"","date0":"ne"},"geometry":{"type":"Point","coordinates":[15.51450580358505,44.43797028101745]}},{"type":"Feature","properties":{"object":"dom","time0":"1.8.1995","koor":"ne","date0":"ne","desc":"Meminska, parohijski dom opljačkan i izlomljen od strane Hrvata","subtype":"robbed","type":"damaged"},"geometry":{"type":"Point","coordinates":[16.5923810005188,45.298060044980645]}},{"type":"Feature","properties":{"type":"destroyed","subtype":"mined","desc":"Munjava, crkva Svetih arhangela  Mihaila i Gavrila, podignuta 1838 godine, Hrvati srušili do temelja","object":"crkva","time0":"1.1.1942","koor":"","date0":"ne"},"geometry":{"type":"Point","coordinates":[15.293137729167938,45.169438556683914]}},{"type":"Feature","properties":{"date0":"ne","object":"crkva","time0":"1.1.1992","desc":"Munjava, crkva Svetih arhangela  Mihaila i Gavrila, podignuta 1838 godine, Hrvati opljačkali u periodu 91-93 godine","subtype":"robbed","type":"damaged"},"geometry":{"type":"Point","coordinates":[15.293081402778627,45.16945557560157]}},{"type":"Feature","properties":{"type":"damaged","desc":"Obljaj, crkva Vaznesenja Gospodnjeg, podignuta 1873, obnovljena 1982 godine, provaljena i potpuno opljačkana","object":"crkva","time0":"1.1.1992","koor":"","date0":"ne","subtype":"robbed"},"geometry":{"type":"Point","coordinates":[16.027134954929352,45.24263522340244]}},{"type":"Feature","properties":{"object":"crkva","time0":"1.1.1992","date0":"ne","subtype":"ruined","type":"damaged","desc":"Otočac, crkva Svetog Georgija, podignuta 1863 godine, oštećena u vremenu 91-93 godine"},"geometry":{"type":"Point","coordinates":[15.235218107700346,44.868880335309015]}},{"type":"Feature","properties":{"object":"dom","time0":"1.1.1992","koor":"ne","date0":"ne","type":"destroyed","desc":"Otočac, parohijski dom, srušen ","subtype":"mined"},"geometry":{"type":"Point","coordinates":[15.235462188720703,44.86831955423194]}},{"type":"Feature","properties":{"type":"damaged","subtype":"mined","desc":"Peroj, crkva Svetog Spiridona, podignuta 1787 godinem oštećena ručnom bombom 1992 godine","object":"crkva","time0":"1.1.1992","koor":"","date0":"ne"},"geometry":{"type":"Point","coordinates":[13.798665851354599,44.95092448078803]}},{"type":"Feature","properties":{"type":"damaged","subtype":"ruined","desc":"Petrinja, crkva Svetog NIkole, sagrađena 1878 godine oštećena u vremenu 91-93","object":"crkva","time0":"1.1.1992","koor":"","date0":"ne"},"geometry":{"type":"Point","coordinates":[16.304651051759716,45.43426884414072]}},{"type":"Feature","properties":{"type":"destroyed","subtype":"mined","desc":"Petrinja, crkva Svetog Spiridona, sagrađena 1785 godine, srušena od strane Hrvata","object":"crkva","time0":"1.1.1942","koor":"","date0":"ne"},"geometry":{"type":"Point","coordinates":[16.279965341091152,45.44037618335499]}},{"type":"Feature","properties":{"desc":"Petrinja, crkva Svetog Spiridona, obnovljena 1976 godine, srušena miniranjem od strane Hrvata","type":"destroyed","time0":"12.8.1991","object":"crkva","subtype":"mined"},"geometry":{"type":"Point","coordinates":[16.279976069927216,45.440370537429885]}},{"type":"Feature","properties":{"desc":"Petrinja, crkva Svetog Spiridona, obnovljena 1994 godine, srušena od strane Hrvata buldožerom ","type":"destroyed","time0":"1.4.1997","object":"crkva","date0":"ne","subtype":"ruined"},"geometry":{"type":"Point","coordinates":[16.279988139867783,45.440363009528824]}},{"type":"Feature","properties":{"type":"damaged","subtype":"ruined","desc":"Petrinja, parohijski dom, izlomljen","object":"dom","time0":"1.1.1992","koor":"ne","date0":"ne"},"geometry":{"type":"Point","coordinates":[16.280185282230377,45.44038277026694]}},{"type":"Feature","properties":{"object":"kapela","time0":"1.8.1992","koor":"ne","date0":"ne","desc":"Petrinja, kapela u parohijskom domu granatirana kada je ranjen nadležni sveštenik","subtype":"mined","type":"damaged"},"geometry":{"type":"Point","coordinates":[16.28019869327545,45.44038088829218]}},{"type":"Feature","properties":{"type":"damaged","date0":"ne","object":"crkva","subtype":"ruined","time0":"1.1.1992","desc":"Plaški, crkva Vavedenja Presvete Bogorodice, izlomljena"},"geometry":{"type":"Point","coordinates":[15.3653347492218,45.08258539936616]}},{"type":"Feature","properties":{"koor":"ne","date0":"ne","object":"dom","subtype":"burned","type":"damaged","time0":"1.1.1992","desc":"Plaški, parohijski dom, potpuno spaljen"},"geometry":{"type":"Point","coordinates":[15.365028977394104,45.082047537053654]}},{"type":"Feature","properties":{"type":"damaged","subtype":"burned","object":"crkva","time0":"1.1.1942.","desc":"Primišlje, crkva Sošestvija Svetoga Duha, iz 1807 godine, Hrvati spalili","koor":"ne","date0":"ne"},"geometry":{"type":"Point","coordinates":[15.473706722259521,45.18140538218992]}},{"type":"Feature","properties":{"type":"destroyed","subtype":"ruined","object":"crkva","koor":"ne","date0":"ne","time0":"1.1.1958","desc":"Primišlje, crkva Sošestvija Svetoga Duha, iz 1807 godine, komunisti srušili do temelja"},"geometry":{"type":"Point","coordinates":[15.47374427318573,45.181397819814244]}},{"type":"Feature","properties":{"desc":"Pula, crkva Svetog Nikole, podignuta u šestom vijeku, izlomljena tokom drugog svjetskog rata","subtype":"ruined","type":"damaged","object":"crkva","time0":"1.1.1942","koor":"","date0":"ne"},"geometry":{"type":"Point","coordinates":[13.845935761928558,44.871262168285675]}},{"type":"Feature","properties":{"object":"crkva","time0":"1.3.1990","koor":"","date0":"ne","desc":"Pula, crkva Svetog Nikole, iz šestog vijeka, opljaškana i mnoge vredne dragocenosti nestale među njima u 14 italo-kritskih ikona iz 16og vijeka","subtype":"robbed","type":"damaged"},"geometry":{"type":"Point","coordinates":[13.845900893211363,44.87124125876823]}},{"type":"Feature","properties":{"object":"crkva","desc":"Pula, crkva Svetog Nikole, iz šestog vijeka,  kamenovana","time0":"1.1.1992","koor":"","date0":"ne","subtype":"ruined","type":"damaged"},"geometry":{"type":"Point","coordinates":[13.845962584018707,44.871245060499234]}},{"type":"Feature","properties":{"type":"damaged","subtype":"ruined","desc":"Rijeka, crkva Svetog Georgija, sagrađena 1939 godine, Hrvati provalili i znatno oštetili","object":"crkva","time0":"1.1.1992","koor":"","date0":"ne"},"geometry":{"type":"Point","coordinates":[14.458088278770447,45.32556923728723]}},{"type":"Feature","properties":{"desc":"Rujevac, crkva Preobraženja Gospodnjeg, podignuta 1885 godine, oprema uništena početkom drugog svjetskog rata","type":"damaged","subtype":"ruined","object":"crkva","time0":"1.1.1942","koor":"","date0":"ne"},"geometry":{"type":"Point","coordinates":[16.26699149608612,45.12802404230435]}},{"type":"Feature","properties":{"desc":"Rujevac, crkva Preobraženja Gospodnjeg, obnovljena u periodu 1970-1972, opljačkana i oštećena","object":"crkva","time0":"1.1.1992","koor":"","date0":"ne","subtype":"robbed","type":"damaged"},"geometry":{"type":"Point","coordinates":[16.266900300979614,45.12799376444685]}},{"type":"Feature","properties":{"type":"destroyed","subtype":"burned","desc":"Sadilovac, crkva Rođenja Presvete Bogorodice, sagrađena 1826 godine, Hrvati spalili zajedno sa 463 osobe, od novorođenčadi do staraca","time0":"31.7.1942","object":"crkva"},"geometry":{"type":"Point","coordinates":[15.713915973901749,44.94169073774143]}},{"type":"Feature","properties":{"object":"crkva","desc":"Sadilovac, crkva Rođenja Presvete Bogorodice, obnovljena 1989 godine, izlomljena potpuno od strane Hrvata","time0":"1.1.1995","subtype":"ruined","type":"damaged","date0":"ne"},"geometry":{"type":"Point","coordinates":[15.713949501514433,44.941682194322695]}},{"type":"Feature","properties":{"koor":"ne","date0":"ne","time0":"1.11.1991","object":"crkva","desc":"Slana, crkva porušena tokom jeseni 1991","subtype":"mined","type":"destroyed"},"geometry":{"type":"Point","coordinates":[16.121267080307007,45.454450659098015]}},{"type":"Feature","properties":{"desc":"Slabinja, crkva Svete Petke, sagrađena 1828 godine, porušena tokom drug svejtskog rata","object":"crkva","time0":"1.1.1942","subtype":"mined","type":"destroyed","date0":"ne"},"geometry":{"type":"Point","coordinates":[16.66749894618988,45.21049607551582]}},{"type":"Feature","properties":{"type":"damaged","subtype":"ruined","desc":"Slabinja, crkva Svete Petke, ostali samo zidovi","object":"crkva","time0":"1.1.1992","koor":"","date0":"ne"},"geometry":{"type":"Point","coordinates":[16.667508333921432,45.21049607551582]}},{"type":"Feature","properties":{"object":"crkva","time0":"1.1.1942","date0":"ne","subtype":"mined","desc":"Selište, crkva Svetog arhangela Mihaila, podignuta 1828 godine, srušena od strane Hrvata","type":"destroyed"},"geometry":{"type":"Point","coordinates":[16.060453355312347,45.31640161882233]}},{"type":"Feature","properties":{"object":"crkva","time0":"1.1.1995","date0":"ne","desc":"Selište, crkva Svetog arhangela Mihaila, podignuta 1828 godine, lomljena i opljačkana od strane Hrvata","subtype":"ruined","type":"damaged"},"geometry":{"type":"Point","coordinates":[16.06048822402954,45.31640161882233]}},{"type":"Feature","properties":{"type":"destroyed","subtype":"mined","desc":"Smiljan, crkva Svetih apostola Petra i Pavla, Hrvati su srušili 1941 godine","object":"crkva","time0":"1.1.1942","date0":"ne"},"geometry":{"type":"Point","coordinates":[15.308372676372528,44.559436708313356]}},{"type":"Feature","properties":{"type":"damaged","subtype":"ruined","desc":"Smiljan, parohijski dom i rodnu kuću Nikoel Tesle, Hrvati su oskrnavili u jesen 1991 godine","object":"dom","time0":"1.1.1992","koor":"","date0":"ne"},"geometry":{"type":"Point","coordinates":[15.308632850646973,44.55945199739553]}},{"type":"Feature","properties":{"desc":"Slunj, crkva Svetog arhangela Mihaila, sagrađena krajem 19og vijeka, pred kraj rata spaljena","object":"crkva","time0":"1.1.1945","date0":"ne","subtype":"burned","type":"damaged"},"geometry":{"type":"Point","coordinates":[15.584886968135836,45.11497468920505]}},{"type":"Feature","properties":{"type":"damaged","time0":"1.11.1991","koor":"","date0":"ne","object":"crkva","subtype":"ruined","desc":"Slunj, crkva Setog arhangela Mihaila, oštećena"},"geometry":{"type":"Point","coordinates":[15.584908425807953,45.114971850007265]}},{"type":"Feature","properties":{"koor":"ne","date0":"ne","object":"dom","subtype":"ruined","type":"damaged","desc":"Slunj, parohijski dom, u vremenu 91-93, izlomljen a tokom 95 godine i useljen","time0":"1.1.1992"},"geometry":{"type":"Point","coordinates":[15.585131049156189,45.11504093711296]}},{"type":"Feature","properties":{"type":"damaged","subtype":"mined","desc":"Staro Selo, crkva Svetog Jovana Krstitelja, podignuta 1740 godine,ozbiljna oštećenja uzrokovana minama pretrpela je 1946 godine","object":"crkva","time0":"1.1.1946","koor":"","date0":"ne"},"geometry":{"type":"Point","coordinates":[15.246397554874418,44.88994463681335]}},{"type":"Feature","properties":{"object":"crkva","time0":"1.1.1992","koor":"","date0":"ne","subtype":"burned","type":"destroyed","desc":"Staro Selo, crkva Svetog Jovana Krstitelja, Hravti spalili i potpuno uništili a tenkovima i buldožerima preorali pravoslavno groblje u neposrednoj blizini"},"geometry":{"type":"Point","coordinates":[15.24644248187542,44.88994178644166]}},{"type":"Feature","properties":{"type":"damaged","subtype":"ruined","desc":"Topusko, parohijski dom, opljačkan i izlomljen od strane Hrvata u leto 1991 godine","object":"dom","time0":"1.1.1992","koor":"ne","date0":"ne"},"geometry":{"type":"Point","coordinates":[15.97483992576599,45.296075184837996]}},{"type":"Feature","properties":{"type":"damaged","subtype":"ruined","desc":"Trebinja, crkva Rođenja Presvete Bogorodice, podignuta 1843 godine, Hrvati oštetili","object":"crkva","time0":"1.1.1992","date0":"ne"},"geometry":{"type":"Point","coordinates":[15.68173348903656,45.438705905866215]}},{"type":"Feature","properties":{"time0":"1.1.1992","koor":"ne","date0":"ne","desc":"Trebinja, parohijski dom opljačkan","object":"dom","subtype":"robbed","type":"damaged"},"geometry":{"type":"Point","coordinates":[15.68196952342987,45.43966573333922]}},{"type":"Feature","properties":{"type":"damaged","subtype":"robbed","desc":"Cvijanović Brdo, crkva Svetog Georgija, podignuta 1853 godine, oštećena i pokradena od strane Hrvata","object":"crkva","time0":"1.1.1992","koor":"","date0":"ne"},"geometry":{"type":"Point","coordinates":[15.607661604881287,45.18182887362511]}},{"type":"Feature","properties":{"type":"damaged","subtype":"robbed","desc":"Škare, crkva Svetog Nikole, podignut 1848 godine, Hrvati opljaškali i dragocenosti odneli u Zagreb","object":"crkva","date0":"ne","time0":"1.1.1942"},"geometry":{"type":"Point","coordinates":[15.306004285812378,44.892317997272315]}},{"type":"Feature","properties":{"desc":"Škare, crkva Svetog Nikole, potpuno uništena od strane Hrvata","object":"crkva","date0":"ne","time0":"1.1.1942","subtype":"burned","type":"destroyed"},"geometry":{"type":"Point","coordinates":[15.306079387664795,44.89230279591569]}},{"type":"Feature","properties":{"desc":"Škare, crkva Svetog Nikole, minirana od strane komunista posle rata","object":"crkva","time0":"1.1.1946","date0":"ne","type":"destroyed","subtype":"min ed"},"geometry":{"type":"Point","coordinates":[15.306133031845091,44.892279993873224]}},{"type":"Feature","properties":{"desc":"Škare, crkva Svetog Nikole, oštećena fasada crkve tokom 91-93 godine","object":"crkva","time0":"1.1.1992","koor":"","date0":"ne","type":"damaged","subtype":"ruined"},"geometry":{"type":"Point","coordinates":[15.306100845336914,44.892241990449016]}},{"type":"Feature","properties":{"desc":"Švica, crkva Vaskrsenja Hristovog, delimično pokradena u vremenu 91-95","date0":"ne","time0":"1.1.1992","object":"crkva","subtype":"robbed","type":"damaged"},"geometry":{"type":"Point","coordinates":[15.160572230815886,44.870636780342785]}},{"type":"Feature","properties":{"date0":"ne","koor":"ne","time0":"1.1.1992","object":"dom","desc":"Švica, parohijski dom je spaljen 1991  godine","subtype":"burned","type":"damaged"},"geometry":{"type":"Point","coordinates":[15.159896314144135,44.87088959756352]}}]}