{"type":"FeatureCollection","features":[{"type":"Feature","properties":{"type":"damaged","subtype":"ruined","desc":"Zagreb, crkva Preobraženja Gospodnjeg, iz 1794 godine, oštećena","object":"crkva","time0":"1.1.1991","koor":"","date0":"ne"},"geometry":{"type":"Point","coordinates":[15.974015146493912,45.812619981512505]}},{"type":"Feature","properties":{"type":"damaged","subtype":"ruined","desc":"Zagreb,  crkva Preobraženja Gospodnjeg, iz 1794 godine, oštećena","object":"crkva","time0":"24.8.1997","koor":"","date0":""},"geometry":{"type":"Point","coordinates":[15.9739950299263,45.81257885208064]}},{"type":"Feature","properties":{"type":"destroyed","subtype":"mined","desc":"Zagreb, mitropolijska rezidencija, miniranjem potpuno uništena ","object":"dom","time0":"11.4.1992","koor":"ne","date0":""},"geometry":{"type":"Point","coordinates":[15.974821150302887,45.81207875314983]}},{"type":"Feature","properties":{"type":"damaged","subtype":"ruined","desc":"Zagreb, ženski manastir Svete Petke, iz 1866 godine, provaljen u periodu 1991-1992 godine","object":"crkva","time0":"1.1.1992","koor":"","date0":"ne"},"geometry":{"type":"Point","coordinates":[15.937981009483337,45.82637046493933]}},{"type":"Feature","properties":{"type":"damaged","subtype":"ruined","desc":"Bjelovar, crkva Svete Trojice,podignuta u vremenu 1784-1792, izlomljena, oštećena","object":"crkva","time0":"1.1.1992","koor":"","date0":"ne"},"geometry":{"type":"Point","coordinates":[16.84041291475296,45.89848892618166]}},{"type":"Feature","properties":{"type":"damaged","subtype":"mined","desc":"Bjelovar, parohijski dom, miniran","object":"dom","time0":"1.1.1993","koor":"ne","date0":"ne"},"geometry":{"type":"Point","coordinates":[16.839948892593384,45.89849079281598]}},{"type":"Feature","properties":{"type":"destroyed","subtype":"mined","desc":"Bolč, crkva Svetih arhangela Mihaila i Gavrila, iz 1795 godine, miniranjem srušena","object":"crkva","time0":"1.1.1992","koor":"","date0":"ne"},"geometry":{"type":"Point","coordinates":[16.676622480154037,45.879750356138565]}},{"type":"Feature","properties":{"type":"damaged","subtype":"mined","desc":"Varaždin, crkva Svetog Georgija, iz 1884 godine","object":"crkva","time0":"1.10.1992","koor":"","date0":"ne"},"geometry":{"type":"Point","coordinates":[16.339051723480225,46.31012402957944]}},{"type":"Feature","properties":{"type":"damaged","subtype":"mined","desc":"Velika Mučna, crkva Svetog arhangela Mihaila, podignuta 1740 godine","object":"crkva","time0":"24.12.1992","koor":"","date0":""},"geometry":{"type":"Point","coordinates":[16.746543645858765,46.11961081750117]}},{"type":"Feature","properties":{"type":"damaged","subtype":"ruined","desc":"Velika Barna, crkva Svetog Marka, oštećena","object":"crkva","time0":"1.1.1992","koor":"ne","date0":"ne"},"geometry":{"type":"Point","coordinates":[17.13366150856018,45.735579043334525]}},{"type":"Feature","properties":{"type":"damaged","subtype":"burned","desc":"Velika Pisanica, crkva Svetog četverodnevnog Lazara, iz 1713 godine, teško  oštećena od strane Hrvata","object":"crkva","time0":"1.1.1942","koor":"","date0":"ne"},"geometry":{"type":"Point","coordinates":[17.06485480070114,45.80179721974926]}},{"type":"Feature","properties":{"type":"damaged","subtype":"ruined","desc":"Velika Pisanica, obnovljena 1966/67 godine, opljačkana i oštećena","object":"crkva","time0":"1.1.1992","koor":"","date0":"ne"},"geometry":{"type":"Point","coordinates":[17.064916491508484,45.80178413057229]}},{"type":"Feature","properties":{"type":"damaged","subtype":"mined","desc":"Velika Pisanica, parohijski dom","object":"dom","time0":"1.1.1992","koor":"ne","date0":"ne"},"geometry":{"type":"Point","coordinates":[17.064532935619354,45.80153169584325]}},{"type":"Feature","properties":{"type":"damaged","subtype":"ruined","desc":"Velika Peratovica, crkva Svete Petke iz 1790 godine, znatno oštećena","time0":"1.1.1942","object":"crkva","koor":"","date0":"ne"},"geometry":{"type":"Point","coordinates":[17.25153386592865,45.755333726985896]}},{"type":"Feature","properties":{"type":"damaged","subtype":"ruined","date0":"ne","desc":"Velika Peratovica, crkva Svete Petke iz 1790 godine, izlomljena","object":"crkva","time0":"1.1.1992"},"geometry":{"type":"Point","coordinates":[17.2515606880188,45.755326241221404]}},{"type":"Feature","properties":{"type":"damaged","subtype":"ruined","time0":"1.1.1942","date0":"ne","desc":"Veliki Grđevac, crkva Svete Trojice, iz 1752 godine, obnovljena 1833,","object":"crkva"},"geometry":{"type":"Point","coordinates":[17.049842476844788,45.74898169475693]}},{"type":"Feature","properties":{"type":"damaged","subtype":"ruined","time0":"1.1.1992","date0":"ne","desc":"Veliki Grđevac, crkva Svete Trojice, obojena ","object":"crkva"},"geometry":{"type":"Point","coordinates":[17.04976737499237,45.748959234904305]}},{"type":"Feature","properties":{"date0":"ne","time0":"1.1.1942","object":"crkva","desc":"Veliki Zdenci, crkva Vozdviženja časnoga Krsta, iz 1744, obnovljena 1847 godine, teško oštećena","type":"damaged","subtype":"ruined"},"geometry":{"type":"Point","coordinates":[17.109092473983765,45.674290224469864]}},{"type":"Feature","properties":{"date0":"ne","object":"crkva","time0":"1.1.1995","desc":"Veliki Zdenci, crkva Vozdviženja časnoga Krsta, porušen zvonik","type":"damaged","subtype":"ruined"},"geometry":{"type":"Point","coordinates":[17.10916757583618,45.67424524468458]}},{"type":"Feature","properties":{"object":"dom","time0":"1.1.1992","koor":"ne","date0":"ne","desc":"Veliki Zdenci, parohijski dom","subtype":"mined","type":"damaged"},"geometry":{"type":"Point","coordinates":[17.108663320541382,45.67426773458173]}},{"type":"Feature","properties":{"time0":"1.1.1996","type":"destroyed","subtype":"mined","desc":"Veliki Zdenci, crkva Vozdviženja časnoga Krsta, nema traga od nje","object":"crkva","date0":"ne"},"geometry":{"type":"Point","coordinates":[17.10919976234436,45.67428272784149]}},{"type":"Feature","properties":{"desc":"Grabovnica, crkva Svetog Lazara Kosovskog (Svetog Vida, proroka Amosa), iz 1752","type":"damaged","subtype":"ruined","object":"crkva","time0":"1.1.1992","koor":"","date0":"ne"},"geometry":{"type":"Point","coordinates":[16.65328323841095,45.73727327118619]}},{"type":"Feature","properties":{"subtype":"burned","desc":"Glogovac, crkva Svetog Georgija, iz 1760 godine, ulazna vrata zapaljena ","object":"crkva","time0":"1.5.1991","date0":"ne","type":"damaged"},"geometry":{"type":"Point","coordinates":[16.87340140342712,46.11528989744348]}},{"type":"Feature","properties":{"object":"dom","desc":"Graberje Ivanićko, parohijski dom","subtype":"burned","type":"damaged","time0":"1.1.1992","date0":"ne"},"geometry":{"type":"Point","coordinates":[16.474336981773376,45.709693089351696]}},{"type":"Feature","properties":{"type":"damaged","subtype":"ruined","desc":"Grubišno polje, crkva Svetog Georgija, građena 1773-1775, obnovljena 1820, Hrvati zapečatili","time0":"1.1.1992","date0":"ne","object":"crkva"},"geometry":{"type":"Point","coordinates":[17.176287174224854,45.70346324068869]}},{"type":"Feature","properties":{"subtype":"ruined","type":"damaged","desc":"Grubišno polje, parohijski dom, zapečaćen pa useljen od strane Hrvata","object":"dom","time0":"1.1.1992","date0":"ne"},"geometry":{"type":"Point","coordinates":[17.176501750946045,45.70300992935405]}},{"type":"Feature","properties":{"type":"destroyed","subtype":"burned","desc":"Donja Rašenica, crkva Uspenja Presvete Bogorodice, crkva-brvnara iz 1709, spalili Hrvati","object":"crkva","time0":"1.1.1992","koor":"","date0":"ne"},"geometry":{"type":"Point","coordinates":[17.223955392837524,45.67881425651064]}},{"type":"Feature","properties":{"subtype":"ruined","desc":"Javorovac, crkva Svetih 318 Bogonosnih Otaca, iz 1927 godine","object":"crkva","time0":"1.1.1992","date0":"ne","type":"damaged"},"geometry":{"type":"Point","coordinates":[16.899370551109314,46.05071094070598]}},{"type":"Feature","properties":{"type":"damaged","subtype":"ruined","desc":"Kabal, crkva Svetog Nikole, iz 1760 godine, oštećem mitraljskom vatrom","object":"crkva","time0":"1.1.1992","koor":"ne","date0":"ne"},"geometry":{"type":"Point","coordinates":[16.637871265411373,45.85757777311891]}},{"type":"Feature","properties":{"object":"crkva","time0":"1.1.19992","koor":"ne","date0":"ne","desc":"Križ, crkva Svetog Jovana Krstitelja, iz 1746 godine","subtype":"ruined","type":"damaged"},"geometry":{"type":"Point","coordinates":[16.517493724822998,45.66183694028842]}},{"type":"Feature","properties":{"type":"damaged","subtype":"ruined","desc":"Križevci, crkva Svetog Save, iz 1902 godine, polupana stakla i oluci","object":"crkva","time0":"1.1.1992","koor":"ne","date0":"ne"},"geometry":{"type":"Point","coordinates":[16.543732434511185,46.02460639686837]}},{"type":"Feature","properties":{"type":"damaged","subtype":"ruined","desc":"Koprivnica, crkva Svete Trojice, građena 1791-1795, ikonostas izlomljen i polomljeni prozori","object":"crkva","time0":"1.1.1992","koor":"","date0":"ne"},"geometry":{"type":"Point","coordinates":[16.829638481140137,46.161757329454886]}},{"type":"Feature","properties":{"desc":"Kupinovac, crkva Rođenja Presvete Bogorodice, iz 1740 godine, znatno oštećena, vrata zapaljena, zvonik oštećen","object":"crkva","time0":"1.1.1992","koor":"","date0":"ne","subtype":"ruined","type":"damaged"},"geometry":{"type":"Point","coordinates":[16.890650689601898,45.949926322873935]}},{"type":"Feature","properties":{"date0":"ne","time0":"1.1.1992","object":"crkva","type":"damaged","subtype":"ruined","desc":"Mali Grđevac, "},"geometry":{"type":"Point","coordinates":[17.152208983898163,45.77015637778624]}},{"type":"Feature","properties":{"koor":"ne","date0":"ne","time0":"1.1.1992","object":"dom","type":"damaged","subtype":"ruined","desc":"Mali Grđevac, "},"geometry":{"type":"Point","coordinates":[17.151999771595,45.76986263882799]}}]}