{"type":"FeatureCollection","features":[{"type":"Feature","properties":{"type":"damaged","subtype":"ruined","desc":"Tuzla, crkva Uspenja Presvete Bogorodice osvećena 28.8.1882, oštećen krov i fasada tokom 1992 od strane muslimanske vojske","object":"crkva","time0":"1.1.1992","koor":"","date0":"ne"},"geometry":{"type":"Point","coordinates":[18.68004083633423,44.537838780951034]}},{"type":"Feature","properties":{"desc":"Tuzla, eparhijski dvor je granatiran od strane muslimanske vojske 1992 godine i odnnijet je dio crkvenih dragocjenosti","object":"dom","time0":"1.1.1992","koor":"","date0":"ne","subtype":"mined","type":"damaged"},"geometry":{"type":"Point","coordinates":[18.679336756467816,44.537969742172855]}},{"type":"Feature","properties":{"type":"damaged","subtype":"mined","desc":"Tuzla, crkva Svetog velikomučenika Georgija, osvećena 14.10.1900, oštećena granatama","object":"crkva","time0":"1.1.1992","date0":"ne"},"geometry":{"type":"Point","coordinates":[18.689058423042297,44.53815614632362]}},{"type":"Feature","properties":{"type":"damaged","desc":"Ajdinovići, crkva Svetog velikomučenika Prokopija u periodu 91-95 zapaljena granatama","object":"crkva","time0":"1.1.1992","koor":"","date0":"ne","subtype":"burned"},"geometry":{"type":"Point","coordinates":[18.554052114486694,44.0761246844085]}},{"type":"Feature","properties":{"type":"damaged","subtype":"mined","desc":"Boljanić, crkva Svete Trojice (Silazak Svetog Duha), osvećena je 1905 godine a u periodu 92-95 oštečena gelerima od granata","object":"crkva","time0":"1.1.1992","date0":"ne"},"geometry":{"type":"Point","coordinates":[18.22208046913147,44.68167612394233]}},{"type":"Feature","properties":{"desc":"Blatnica, crkva Svetog velikomučenika Kneza Lazara Srbskog, osvećena 28.6.1973 oćtećena gelerima granata između 91-95","object":"crkva","time0":"1.1.1992","koor":"","date0":"ne","type":"damaged","subtype":"ruined"},"geometry":{"type":"Point","coordinates":[17.816235423088074,44.48524696714878]}},{"type":"Feature","properties":{"desc":"Bijela, crkva Vaznesenja Gospodnjeg, osvećena 14.10.1936, zapaljena pa srušena.","object":"crkva","time0":"1.1.1992","koor":"","date0":"ne","type":"destroyed","subtype":"mined"},"geometry":{"type":"Point","coordinates":[18.563319146633148,44.78771182464668]}},{"type":"Feature","properties":{"type":"destoyed","object":"dom","time0":"1.1.1992","subtype":"mined","desc":"Bijela, parohijski dom srušen","date0":"ne"},"geometry":{"type":"Point","coordinates":[18.56351226568222,44.78758428181005]}},{"type":"Feature","properties":{"desc":"Brod, crkva Pokrova Presvete Bogorodice, osvećena 1890 godine uništena do temelja","subtype":"mined","type":"destroyed","object":"crkva","time0":"1.1.1992","date0":"ne"},"geometry":{"type":"Point","coordinates":[17.99525946378708,45.14587571731588]}},{"type":"Feature","properties":{"type":"demaged","subtype":"mined","desc":"Brod, parohijski dom posle plaške granatiran","object":"dom","time0":"1.1.1992","koor":"","date0":"ne"},"geometry":{"type":"Point","coordinates":[17.995570600032806,45.14574896836692]}},{"type":"Feature","properties":{"type":"destroyed","subtype":"mined","desc":"Lužani, crkva Svih Svetih, podignuta 1982 godine na temeljima stare iz 1883 godine, minirana i srušena do temelja za pravoslavni Vaskrs","object":"crkva","time0":"1.1.1992","date0":"ne"},"geometry":{"type":"Point","coordinates":[17.996034622192383,45.02370489563228]}},{"type":"Feature","properties":{"desc":"Lužani, stari hram Crkva Svetih apostola Petra i Pavla sagrađena 1928 godin , Hrvati porušili za Vasrks 1992 godine","object":"crkva","time0":"1.1.1992","date0":"ne","subtype":"mined","type":"destroyed"},"geometry":{"type":"Point","coordinates":[17.995828092098236,45.0238243323781]}},{"type":"Feature","properties":{"desc":"Lužani - Polje, crkva Svetih apostola Petra i Pavla, podignuta 1935 na Božić 1993 goodine","object":"crkva","time0":"1.1.1993","date0":"ne","subtype":"mined","type":"destroyed"},"geometry":{"type":"Point","coordinates":[17.95565128326416,44.98642846396161]}},{"type":"Feature","properties":{"desc":"Lužani, parohijski dom uništen, ostali samo zidovi","object":"dom","time0":"1.1.1992","koor":"ne","date0":"ne","type":"damaged","subtype":"ruined"},"geometry":{"type":"Point","coordinates":[17.995718121528625,45.023701103985466]}},{"type":"Feature","properties":{"desc":"Miloševac, crkva Svetog Nikole sagrađena 1906 godine oštećena granatama u periodu 1991-1993","time0":"1.1.1992","object":"crkva","date0":"ne","subtype":"mined","type":"damaged"},"geometry":{"type":"Point","coordinates":[18.3940851688385,44.992225578138196]}},{"type":"Feature","properties":{"desc":"Šamac, crkva Svetog velikomučenika Dimitrija sagrađena 1937 godine, u periodu 91-92 oštećena gelerima granata","object":"crkva","time0":"1.1.1992","koor":"","date0":"ne","type":"damaged","subtype":"mined"},"geometry":{"type":"Point","coordinates":[18.4654238820076,45.06040005913832]}},{"type":"Feature","properties":{"type":"damaged","subtype":"mined","desc":"Šamac, parohijski dom oštećen gelerima granata u vremenu 91-95","object":"dom","time0":"1.1.1992","koor":"","date0":"ne"},"geometry":{"type":"Point","coordinates":[18.465584814548492,45.06070319557684]}},{"type":"Feature","properties":{"desc":"Šamac, crkva Svetog kneza Lazara u proleđe 1992 srušena. Prva crkva koja je srušena u bivšoj Bosni i Hercegovini","object":"crkva","time0":"1.1.1992","date0":"ne","type":"destroyed","subtype":"mined"},"geometry":{"type":"Point","coordinates":[18.46041351556778,45.05215413161462]}},{"type":"Feature","properties":{"type":"destroyed","subtype":"mined","desc":"Bukvik, crkva Svetog proroka Ilije, sagrađena 1903 godine srušena u periodu 91-93","object":"crkva","time0":"1.1.1992","date0":"ne"},"geometry":{"type":"Point","coordinates":[18.669966459274292,44.841066616279136]}},{"type":"Feature","properties":{"type":"destroyed","subtype":"mined","desc":"Bukvik, parohijski dom podignut 1971, srušen u periodu 91-93","object":"dom","time0":"1.1.1992","koor":"","date0":"ne"},"geometry":{"type":"Point","coordinates":[18.670006692409515,44.841338581889126]}},{"type":"Feature","properties":{"type":"damaged","subtype":"mined","desc":"Brčko, crkva Uspenja Presvete Bogorodice osvećena 26.9.1971 godine, oštećena fasada od metaka i gelera granata tokom 92-95 godine","object":"crkva","time0":"1.1.1992","date0":"ne"},"geometry":{"type":"Point","coordinates":[18.807896375656124,44.86449659257454]}},{"type":"Feature","properties":{"koor":"ne","date0":"ne","time0":"1.1.1992","object":"dom","desc":"Brčko, parohijski dom sagrađen 1973. godine, oštećen krov tokom 92-95","subtype":"mined","type":"damaged"},"geometry":{"type":"Point","coordinates":[18.80881905555725,44.8642646593327]}},{"type":"Feature","properties":{"type":"damaged","subtype":"mined","desc":"Vinska, crkva Rođenja Presvete Bogorodice, osvećena 21.9.1933, teško oštećena granatamau vremenu 91-95","object":"crkva","time0":"1.1.1992","koor":"","date0":"ne"},"geometry":{"type":"Point","coordinates":[18.094768077135086,45.064623931113545]}},{"type":"Feature","properties":{"type":"destroyed","subtype":"mined","desc":"Vinska, parohijski dom sagrađen 1971. godine sapqen i porušen","object":"dom","time0":"1.1.1992","koor":"","date0":"ne"},"geometry":{"type":"Point","coordinates":[18.094557523727413,45.06471202379798]}},{"type":"Feature","properties":{"type":"destroyed","subtype":"ruined","desc":"Vinksa, crkva Svetog proroka Ilije, osvećena 1974. godine uništena u razdoblju 91-95","object":"crkva","time0":"1.1.1992","date0":"ne"},"geometry":{"type":"Point","coordinates":[18.09345781803131,45.06775255905524]}},{"type":"Feature","properties":{"type":"damaged","desc":"Visočnik, crkva Uspenja Presvete Bogorodice osvećena 9.8.1939 godine, teško oštećena od strane muslimana","object":"crkva","time0":"16.11.1993","koor":"ne","subtype":"ruined"},"geometry":{"type":"Point","coordinates":[19.381942749023438,44.081912936473316]}},{"type":"Feature","properties":{"type":"damaged","subtype":"ruined","desc":"Visočnik, oštećen je parohijski dom u periodu 92-95 godine","object":"dom","time0":"1.1.1992","koor":"ne","date0":"ne"},"geometry":{"type":"Point","coordinates":[19.381513595581055,44.08182045221025]}},{"type":"Feature","properties":{"desc":"Vučilovac, crkva Svetog velikomučenika Pantelejmona uništena u periodu 1991-1995","object":"crkva","time0":"1.1.1992","date0":"ne","subtype":"mined","type":"damaged"},"geometry":{"type":"Point","coordinates":[18.7638920545578,44.94912397950689]}},{"type":"Feature","properties":{"desc":"Vučilovac, uništen Svetosavski dom","object":"dom","time0":"1.1.1992","date0":"ne","type":"damaged","subtype":"mined"},"geometry":{"type":"Point","coordinates":[18.764095902442932,44.94895313301437]}},{"type":"Feature","properties":{"subtype":"mined","type":"destroyed","desc":"Gnionica, crkva Svetog velikomučenima Lazara Srbskog, osvećena 27.7.1991, porušena do temelja u vremenu 1991-1993","object":"crkva","time0":"1.1.1992","date0":"ne"},"geometry":{"type":"Point","coordinates":[18.268595337867733,45.008337185368134]}},{"type":"Feature","properties":{"subtype":"mined","type":"damaged","desc":"Gornje Krečane, crkva Svetog jevangeliste Marka iz 1991 godine, granatirawem oštećena","object":"crkva","time0":"1.1.1992","date0":"ne"},"geometry":{"type":"Point","coordinates":[18.3546781539917,44.87491361387959]}},{"type":"Feature","properties":{"type":"damaged","desc":"Gornja Jasenica, crkva Svetih apostola Petra i Pavla iz 1900. godine oštećena 1993 godine","subtype":"ruined","object":"crkva","time0":"1.1.1993","date0":"ne"},"geometry":{"type":"Point","coordinates":[18.584704399108887,44.666028031365244]}},{"type":"Feature","properties":{"koor":"ne","date0":"ne","desc":"Gornja Jasenica, parohijski dom sagrađen 1976 godine zapaljen u razdoblju 1991-1995","object":"dom","time0":"1.1.1992","subtype":"burned","type":"damaged"},"geometry":{"type":"Point","coordinates":[18.585047721862793,44.665860159588895]}},{"type":"Feature","properties":{"koor":"ne","date0":"ne","time0":"1.1.1992","object":"crkva","desc":"Grk, hrvatska vojska razorila crkvu","subtype":"mined","type":"destroyed"},"geometry":{"type":"Point","coordinates":[18.037405014038086,45.03371396774147]}},{"type":"Feature","properties":{"type":"damaged","subtype":"burned","desc":"Gradačac, crkva Svetog proroka Ilije iz 1887 godine, muslimani granatirali i zapalili","time0":"1.1.1992","object":"crkva","date0":"ne"},"geometry":{"type":"Point","coordinates":[18.419893383979797,44.882173998953064]}},{"type":"Feature","properties":{"subtype":"ruined","koor":"ne","date0":"ne","time0":"1.1.1992","object":"dom","type":"destroyed","desc":"Gradačac, razrušen parohijski dom"},"geometry":{"type":"Point","coordinates":[18.4200382232666,44.8819307338688]}},{"type":"Feature","properties":{"type":"damaged","desc":"Gračanica, crkva Vaznesenja Gospodnjeg, osvećena 1925 godine, oštećena od starne muslimana granatiranjem","object":"crkva","time0":"1.1.1993","koor":"","date0":"ne","subtype":"mined"},"geometry":{"type":"Point","coordinates":[18.310770392417904,44.70760709628317]}},{"type":"Feature","properties":{"object":"dom","time0":"1.1.1993","koor":"ne","date0":"ne","desc":"Gračanica, parohijski dom podignut 1926 miniran i dignut u vazduh","subtype":"mined","type":"destroyed"},"geometry":{"type":"Point","coordinates":[18.31118881702423,44.70762997142565]}},{"type":"Feature","properties":{"type":"destroyed","time0":"4.6.1992","object":"crkva","subtype":"mined","desc":"Derventa, crkva Uspenja Presvete Bogorodice iz 1885 godine, muslimani i hrvati porušili do temelja"},"geometry":{"type":"Point","coordinates":[17.90614441037178,44.97722794598078]}},{"type":"Feature","properties":{"koor":"","time0":"4.6.1992","object":"dom","type":"destroyed","subtype":"mined","desc":"Derventa, parohijski dom iz 1936. godine uništen"},"geometry":{"type":"Point","coordinates":[17.906715720891953,44.97712169361958]}},{"type":"Feature","properties":{"desc":"Dubnica, crkva Cetih Joakima i ane, osvećena 1912 godine, spaljena od strane muslimana ","object":"crkva","time0":"1.1.1992","subtype":"burned","type":"destroyed","koor":"","date0":"ne"},"geometry":{"type":"Point","coordinates":[18.864437341690063,44.4560998329985]}},{"type":"Feature","properties":{"desc":"Dubnica, parohijski dom, spaljen","object":"dom","time0":"1.1.1992","subtype":"burned","type":"destroyed","koor":"ne","date0":"ne"},"geometry":{"type":"Point","coordinates":[18.864142298698425,44.4560079356459]}},{"type":"Feature","properties":{"desc":"Dubnica, svetosavski dom, spaljen","object":"dom","time0":"1.1.1992","subtype":"burned","type":"destroyed","date0":"ne","koor":"ne"},"geometry":{"type":"Point","coordinates":[18.864839673042297,44.455732242720444]}},{"type":"Feature","properties":{"desc":"Drinjača, crkva Svetog mučenika đakona Avakima Srbskog, oštećena granatiranjem u periodu 1991-1995","object":"crkva","time0":"1.1.1992","date0":"ne","subtype":"mined","type":"damaged"},"geometry":{"type":"Point","coordinates":[19.14346218109131,44.28195597713221]}},{"type":"Feature","properties":{"date0":"ne","type":"damaged","subtype":"mined","desc":"Drinjača, parohijski dom. oštećen granatiranjem","object":"dom","time0":"1.1.1992"},"geometry":{"type":"Point","coordinates":[19.143510460853577,44.281829241989755]}},{"type":"Feature","properties":{"desc":"Donja Dubica, crkva Uspenja Presvete Bogorodice podignuta 1968 godine na temeljima stare crkve koja je osvećena 1911 godine, zapaljena","subtype":"burned","type":"damaged","object":"crkva","time0":"21.6.1992","date0":""},"geometry":{"type":"Point","coordinates":[18.388385474681854,45.0696772005861]}},{"type":"Feature","properties":{"desc":"Donja Dubica, parohijski dom znatno oštećen","type":"damaged","subtype":"ruined","object":"dom","time0":"21.6.1992"},"geometry":{"type":"Point","coordinates":[18.388162851333618,45.06953891649528]}},{"type":"Feature","properties":{"desc":"Donja Jasenica, crkva Svetih apostola Petra i Pavla, opljačaka i oštećena","time0":"1.1.1992","object":"crkva","type":"damaged","subtype":"ruined","date0":"ne"},"geometry":{"type":"Point","coordinates":[18.617963790893555,44.66480713463005]}},{"type":"Feature","properties":{"type":"destroyed","subtype":"mined","desc":"Donji Klakar, crkva Svetih vrača Kozme i Damjana, iz 1972 godine, razrušena od strane Hrvata u periodu 1991-1995","object":"crkva","time0":"1.1.1992","date0":"ne"},"geometry":{"type":"Point","coordinates":[18.14503937959671,45.059072870996694]}},{"type":"Feature","properties":{"type":"damaged","subtype":"burned","desc":"Donji Klakar, Svetosavski dom je zapaljen","time0":"1.1.1992","object":"dom","date0":"ne"},"geometry":{"type":"Point","coordinates":[18.145290166139603,45.05912828953328]}},{"type":"Feature","properties":{"type":"damaged","subtype":"ruined","desc":"Erići, kapela na pravoslavnom groblju oštećena","object":"kapela","time0":"1.1.1992","koor":"ne","date0":"ne"},"geometry":{"type":"Point","coordinates":[17.92764902114868,44.84560808349495]}},{"type":"Feature","properties":{"type":"damaged","subtype":"robbed","desc":"Živinice, kapela Presvete Bogorodice u parohijskom domu opljačkana i oskrnavljena","object":"kapela","time0":"1.1.1992","koor":"ne","date0":"ne"},"geometry":{"type":"Point","coordinates":[18.650150299072266,44.45182645311108]}},{"type":"Feature","properties":{"type":"damaged","subtype":"mined","desc":"Žlijebac, crkva Pokrova Presvete Bogorodice iz 1912 godine, ošteđena granatiranjem","object":"crkva","time0":"1.1.1992","koor":"","date0":"ne"},"geometry":{"type":"Point","coordinates":[19.582207202911377,44.04408637823786]}},{"type":"Feature","properties":{"desc":"Zovik, crkva Uspenja Presvete Bogorodice, osvećena 1973, srušena","object":"crkva","subtype":"mined","type":"destroyed","time0":"1.1.1992","date0":"ne"},"geometry":{"type":"Point","coordinates":[18.70332509279251,44.75852953585861]}},{"type":"Feature","properties":{"object":"dom","type":"destroyed","subtype":"mined","desc":"Zovik, svetosavski dom, srušen","time0":"1.1.1992","date0":"ne","koor":"ne"},"geometry":{"type":"Point","coordinates":[18.703024685382843,44.75858095961683]}},{"type":"Feature","properties":{"koor":"ne","date0":"ne","desc":"Zolje, kapela na groblju oštećena","object":"kapela","time0":"1.1.1992","subtype":"ruined","type":"damaged"},"geometry":{"type":"Point","coordinates":[18.898045420646667,44.45565183203869]}},{"type":"Feature","properties":{"type":"destroyed","subtype":"mined","desc":"Zborište, crkva Uspenja Presvete Bogorodice iz 1969 godine, potpuno uništena u periodu 1991-1995","object":"crkva","time0":"1.1.1992","koor":"ne","date0":"ne"},"geometry":{"type":"Point","coordinates":[18.003673553466797,45.06106316801011]}},{"type":"Feature","properties":{"type":"destroyed","subtype":"mined","desc":"Jeginov lug, neosvećena crkva srušena u periodu 91-93 van ratnih dejstava","object":"crkva","time0":"1.1.1992","koor":"","date0":"ne"},"geometry":{"type":"Point","coordinates":[18.78038763999939,44.43977812725249]}},{"type":"Feature","properties":{"type":"damaged","subtype":"burned","desc":"Karna, crkva Pokrova Presvete Bogorodice iz 1896, zapaljena u periodu 91-95","object":"crkva","time0":"1.1.1992","date0":"ne"},"geometry":{"type":"Point","coordinates":[19.363888800144196,44.00583051431148]}},{"type":"Feature","properties":{"type":"damaged","subtype":"ruined","time0":"1.4.1992","date0":"ne","object":"crkva","desc":"Kladanj, crkva Svetog velikomučenika Dimitrija, opljačkana i oštećena od strane muslimana u aprilu 1992"},"geometry":{"type":"Point","coordinates":[18.702748417854306,44.240466346828605]}},{"type":"Feature","properties":{"type":"destroyed","subtype":"mined","desc":"Kladanj, Svetosavsko-parohijski dom, razoren u aprilu 1992 od strane muslimana","object":"dom","time0":"1.4.1992","date0":"ne"},"geometry":{"type":"Point","coordinates":[18.70244801044464,44.240345286979526]}},{"type":"Feature","properties":{"type":"damaged","subtype":"mined","desc":"Kozluk, crkva Svetih apostola Petra i Pavla iz 1903 godine oštećena gelerima granata","date0":"ne","time0":"1.1.1992","object":"crkva"},"geometry":{"type":"Point","coordinates":[19.114054441452026,44.498915915089384]}},{"type":"Feature","properties":{"type":"damaged","subtype":"mined","desc":"Kozluk, parohijski dom iz 1960 godine, oštećen od gelera granata","time0":"1.1.1992","date0":"ne","object":"dom"},"geometry":{"type":"Point","coordinates":[19.11367893218994,44.49896183000785]}},{"type":"Feature","properties":{"type":"destroyed","subtype":"mined","desc":"Kostreš, crkva Svete velikomučenice Marine, iz 1940 godine, potpuno razorena u periodu 91-93","object":"crkva","time0":"1.1.1992","koor":"","date0":"ne"},"geometry":{"type":"Point","coordinates":[17.941306829452515,45.034813342456346]}},{"type":"Feature","properties":{"desc":"Kostreš, grobljanska kapela do temelja srušena miniranjem van ratnih dejstava u periodu 91-93","type":"destroyed","subtype":"mined","object":"kapela","time0":"1.1.1992","koor":"","date0":"ne"},"geometry":{"type":"Point","coordinates":[17.931009829044342,45.03066404008293]}},{"type":"Feature","properties":{"desc":"Kravica, crkva Svetih apostola Petra i Pavla iz 1909 godin, oštećena od strane muslimana","object":"crkva","time0":"7.1.1993","type":"damaged","subtype":"ruined"},"geometry":{"type":"Point","coordinates":[19.199783205986023,44.21711640425712]}},{"type":"Feature","properties":{"time0":"7.1.1993","object":"dom","desc":"Kravica, parohijski dom podignut 1939 zapaljen od strane muslimana","type":"damaged","subtype":"burned"},"geometry":{"type":"Point","coordinates":[19.199134111404415,44.217708483659514]}},{"type":"Feature","properties":{"desc":"Krnjići, crkva Svetog proroka Ilije osvećena 1921 godine, oštećena ","subtype":"ruined","type":"damaged","object":"crkva","time0":"1.1.1992","date0":"ne"},"geometry":{"type":"Point","coordinates":[19.47135418653488,44.01721187973962]}},{"type":"Feature","properties":{"type":"destroyed","subtype":"mined","desc":"Liješće, crkva Svete Trojice iz 1869 godine, Hrvati srušili do temelja 1992 godine","object":"crkva","time0":"1.1.1992","date0":"ne"},"geometry":{"type":"Point","coordinates":[18.07313472032547,45.09646579796388]}},{"type":"Feature","properties":{"type":"damaged","subtype":"burned","desc":"Liješće, parohijski dom iz 1940 godine spaljen od strane Hrvata","time0":"1.1.1992","object":"dom","date0":"ne"},"geometry":{"type":"Point","coordinates":[18.072874546051025,45.09633988590844]}},{"type":"Feature","properties":{"type":"damaged","subtype":"mined","desc":"Lončari, crkva Vozdviženja časnog Krsta iz 1980 godine oštećena granatama u peiodu 91-93","object":"crkva","time0":"1.1.1992","koor":"ne","date0":"ne"},"geometry":{"type":"Point","coordinates":[18.687915802001953,44.94116958687162]}},{"type":"Feature","properties":{"type":"damaged","subtype":"ruined","desc":"Lupljanica, oštećena crkva sagrađena sredinom 20og vijeka","object":"crkva","time0":"1.1.1992","koor":"ne","date0":"ne"},"geometry":{"type":"Point","coordinates":[17.859518229961395,44.92621652275457]}},{"type":"Feature","properties":{"desc":"Maglaj, crkva Svetog proroka Ilije, iz 1909 godinezapaljena i razrušena od strane muslimana 1992 godine","object":"crkva","time0":"1.1.1992","koor":"","date0":"ne","subtype":"mined","type":"destroyed"},"geometry":{"type":"Point","coordinates":[18.09747040271759,44.54987642312605]}},{"type":"Feature","properties":{"koor":"ne","date0":"ne","time0":"1.1.1992","object":"dom","desc":"Maglaj, parohijski dom opljačkan potpm razoren","subtype":"mined","type":"destroyed"},"geometry":{"type":"Point","coordinates":[18.0975803732872,44.55011726526705]}},{"type":"Feature","properties":{"type":"damaged","subtype":"ruined","desc":"Mala Brusnica, crkva Uspenja Presvete Bogorodice osvećena 1937 godine, od strane Hrvata prilično oštećena u periodu 91-93","object":"crkva","time0":"1.1.1992","koor":"","date0":"ne"},"geometry":{"type":"Point","coordinates":[18.205681443214417,45.077656383661164]}},{"type":"Feature","properties":{"object":"crkva","time0":"1.1.1992","koor":"ne","date0":"ne","desc":"Mali Prnjavor, oštećena crkva ","type":"damaged","subtype":"mined"},"geometry":{"type":"Point","coordinates":[17.984584271907806,44.8004684915242]}},{"type":"Feature","properties":{"type":"damaged","date0":"ne","time0":"1.1.1992","object":"crkva","desc":"Mačkovac, crkva Rođenja Presvete Bogorodice, oštećena gelerima granata u periodu 91-95","subtype":"mined"},"geometry":{"type":"Point","coordinates":[18.831124305725098,44.64807062724558]}},{"type":"Feature","properties":{"koor":"ne","date0":"ne","time0":"1.1.1992","object":"dom","desc":"Mačkovac, parohijski dom oštećen gelerima granata","subtype":"mined","type":"damaged"},"geometry":{"type":"Point","coordinates":[18.830795735120773,44.648003839439994]}},{"type":"Feature","properties":{"type":"damaged","subtype":"ruined","desc":"Mladikovine, oštečen deo crkve u izgradnji","object":"crkva","time0":"1.1.1992","koor":"ne","date0":"ne"},"geometry":{"type":"Point","coordinates":[17.802751958370205,44.50330253962673]}},{"type":"Feature","properties":{"desc":"Modriča, crkva Uspenja Presvete Bogorodice, sagrađena 1868 godine, obnovljena 1984. Zapaljena izvan ratnih dejstava tokom 1992","object":"crkva","time0":"1.1.1992","date0":"ne","subtype":"burned","type":"damaged"},"geometry":{"type":"Point","coordinates":[18.302916884422302,44.95344812473031]}},{"type":"Feature","properties":{"koor":"ne","date0":"ne","time0":"1.1.1992","object":"dom","desc":"Modriča, parohijsko-svetosavski dom posle pljačke spaljen tokom 1992 godine","subtype":"burned","type":"damaged"},"geometry":{"type":"Point","coordinates":[18.302796185016632,44.953601874554465]}},{"type":"Feature","properties":{"type":"damaged","subtype":"ruined","desc":"Mionica, crkva je demolirana i oškrnavljena","object":"crkva","time0":"1.1.1992","koor":"ne","date0":"ne"},"geometry":{"type":"Point","coordinates":[18.492436408996582,44.85796027991251]}},{"type":"Feature","properties":{"type":"damaged","subtype":"mined","desc":"Novi Grad, crkva Svetih apostola Petra i Pavla iz 1939 godine, oštećena granatam tokom 1992 godine, a unutrašnjost teško oštećena","object":"crkva","time0":"1.1.1992","date0":"ne"},"geometry":{"type":"Point","coordinates":[18.317905068397522,45.08958472319488]}},{"type":"Feature","properties":{"object":"dom","time0":"1.1.1992","date0":"ne","desc":"Novi Grad, parohijski dom iz 1937 godine oštećen i opljačkan u periodu 91-93 godine","subtype":"ruined","type":"damged"},"geometry":{"type":"Point","coordinates":[18.31784069538116,45.08936127318739]}},{"type":"Feature","properties":{"time0":"1.1.1992","koor":"ne","date0":"ne","object":"crkva","desc":"Orašje, crkva Svetog velikomučenika GEorgija iz 1991 godine, Hrvati potpuno uništili u periodu 91-93","subtype":"mined","type":"destoyed"},"geometry":{"type":"Point","coordinates":[18.692303895950317,45.03382769713964]}},{"type":"Feature","properties":{"date0":"ne","type":"damaged","subtype":"mined","desc":"Obudovac, crkva Rođenja Presvete Bogorodice, osvećena 14.10.1882 godine oštećena u granatama u vremenu 91-93","object":"crkva","time0":"1.1.1992","koor":""},"geometry":{"type":"Point","coordinates":[18.600057363510132,44.96902601294297]}},{"type":"Feature","properties":{"type":"damaged","subtype":"mined","desc":"Obudovac, Svetosavsko-parohijski dom je oštećen granatama u vremenu 91-93","object":"dom","time0":"1.1.1992","koor":"ne","date0":"ne"},"geometry":{"type":"Point","coordinates":[18.599789142608643,44.9687299813985]}},{"type":"Feature","properties":{"type":"damaged","subtype":"mined","desc":"Osmaci, crkva Presvete Trojice iz 1989 godine oštećena granatama u vremenu 91-95","object":"crkva","time0":"1.1.1992","koor":"","date0":"ne"},"geometry":{"type":"Point","coordinates":[18.902047276496887,44.3929897710737]}},{"type":"Feature","properties":{"type":"damaged","subtype":"ruined","desc":"Olovo, crkva Sabor Srbskih Svetitelja iz 1940 godine, znatno oštećena","object":"crkva","time0":"1.1.1992","koor":"","date0":"ne"},"geometry":{"type":"Point","coordinates":[18.582424521446228,44.12646774617108]}},{"type":"Feature","properties":{"type":"damaged","subtype":"burned","desc":"Olovo, parohijski dom spaljen u vremenu 91-93","object":"dom","time0":"1.1.1992","koor":"ne","date0":"ne"},"geometry":{"type":"Point","coordinates":[18.582478165626522,44.12677001786778]}},{"type":"Feature","properties":{"type":"damaged","subtype":"mined","desc":"Pelagićevo, crkva Svetog proroka Ilije, osvećena 1936, oštećena gelerima granata tokokm 1992 godine","object":"crkva","time0":"1.1.1992","koor":"","date0":"ne"},"geometry":{"type":"Point","coordinates":[18.610544800758362,44.905537855713035]}},{"type":"Feature","properties":{"type":"damaged","subtype":"mined","desc":"Pelagićevo, Svetosavski dom stradao od granata tokom 1992","object":"dom","time0":"1.1.1992","koor":"ne","date0":"ne"},"geometry":{"type":"Point","coordinates":[18.61029803752899,44.90554165517791]}},{"type":"Feature","properties":{"type":"damaged","subtype":"ruined","desc":"Podgajevi, crkva Silaske Svetog Duha oštećena u vremenu 91-95 godine","object":"crkva","time0":"1.1.1992","koor":"","date0":"ne"},"geometry":{"type":"Point","coordinates":[18.66997718811035,44.365930784826624]}},{"type":"Feature","properties":{"type":"damaged","subtype":"burned","desc":"Podgajevi, Svetosavski dom je spaljen","object":"dom","time0":"1.1.1992","koor":"ne","date0":"ne"},"geometry":{"type":"Point","coordinates":[18.67014616727829,44.3656930167481]}},{"type":"Feature","properties":{"desc":"Požarnica, crkva Vaznesenja Gospodnjeg iz 1896 godine uništena tokom 91-93","time0":"1.1.1992","date0":"ne","object":"crkva","type":"destroyed","subtype":"mined"},"geometry":{"type":"Point","coordinates":[18.78136396408081,44.53231711137484]}},{"type":"Feature","properties":{"desc":"Požarnica, parohijski dom iz 1975 spaljen tokom 91-93","time0":"1.1.1992","koor":"ne","date0":"ne","object":"dom","subtype":"burned","type":"damaged"},"geometry":{"type":"Point","coordinates":[18.780848979949948,44.53238594427353]}},{"type":"Feature","properties":{"desc":"Požarnica, Svetosavski dom spaljen tokom 91-93","time0":"1.1.1992","koor":"ne","date0":"ne","object":"dom","subtype":"burned","type":"damaged"},"geometry":{"type":"Point","coordinates":[18.780677318572998,44.532202389696224]}},{"type":"Feature","properties":{"desc":"Potpeć, neosvećena crkva oštećena u periodu 91-93 godine","object":"crkva","time0":"1.1.1992","koor":"","date0":"ne","type":"damaged","subtype":"ruined"},"geometry":{"type":"Point","coordinates":[18.548510670661926,44.64215483765591]}},{"type":"Feature","properties":{"type":"damaged","subtype":"mined","desc":"Podnovlje, crkva Silaska Svetog Duha (Svete Trojice), na temeljima stare podignuta nova 1991 godine, stradala od granata tokom 91-93 godine","object":"crkva","time0":"1.1.1992","koor":"","date0":"ne"},"geometry":{"type":"Point","coordinates":[18.110318183898926,44.94051648037781]}},{"type":"Feature","properties":{"type":"damaged","subtype":"mined","desc":"Piperi, crkva Rođenja Svetog Jovana Krstitelja, podignuta 1987 godine, oštećena granatiranjem","object":"crkva","time0":"1.1.1992","koor":"ne","date0":"ne"},"geometry":{"type":"Point","coordinates":[18.774218559265137,44.66312835963366]}},{"type":"Feature","properties":{"time0":"1.1.1992","koor":"ne","date0":"ne","object":"dom","type":"damaged","subtype":"mined","desc":"Piperi, parohijski dom pogođen projektilom znatno oštećen"},"geometry":{"type":"Point","coordinates":[18.774079084396362,44.66294903306706]}},{"type":"Feature","properties":{"type":"damaged","subtype":"ruined","desc":"Pribojevići, crkva Preobraženja Gospodnjeg, osvećena 1929 godine, oštećena u periodu 1991-1993","object":"crkva","time0":"1.1.1992","koor":"","date0":"ne"},"geometry":{"type":"Point","coordinates":[19.490550756454468,44.01981771219255]}},{"type":"Feature","properties":{"type":"damaged","subtype":"burned","desc":"Pribojevići, Svetosavski dom spaljen","object":"dom","time0":"1.1.1992","koor":"","date0":"ne"},"geometry":{"type":"Point","coordinates":[19.490800201892853,44.01993729612963]}},{"type":"Feature","properties":{"type":"damaged","subtype":"mined","desc":"Puračić, crkva Svetog proroka Ilije, osvećena 1903 godine, stradala na Božić 1993 godine od strane muslimana","object":"crkva","time0":"7.1.1993","koor":"","date0":""},"geometry":{"type":"Point","coordinates":[18.47701907157898,44.543073176729116]}},{"type":"Feature","properties":{"type":"damaged","subtype":"ruined","desc":"Puračić, parohijski dom, sagrađen 1925 godine, opljačkan i oštećen","object":"dom","time0":"7.1.1993","koor":"","date0":""},"geometry":{"type":"Point","coordinates":[18.476557731628418,44.543078911747635]}},{"type":"Feature","properties":{"type":"damaged","subtype":"ruined","desc":"Rastošnica, crkva Svetog velikomučenika Lazara, osvećena oktobra 1972, oštećena","object":"crkva","time0":"1.1.1993","koor":"","date0":"ne"},"geometry":{"type":"Point","coordinates":[18.97138774394989,44.55880603017292]}},{"type":"Feature","properties":{"type":"damaged","subtype":"ruined","desc":"Rastošnica, oštećen novi hram u izgradnji","object":"crkva","time0":"1.1.1993","koor":"ne","date0":"ne"},"geometry":{"type":"Point","coordinates":[18.96916151046753,44.56319196842218]}},{"type":"Feature","properties":{"desc":"Ritešić, crkva Svetog Jovana Krstitelja, srušena 1992 godine","type":"destroyed","subtype":"mined","object":"crkva","time0":"1.1.1992","koor":"","date0":"ne"},"geometry":{"type":"Point","coordinates":[18.062204718589783,44.87490220941281]}},{"type":"Feature","properties":{"desc":"Rosulje, crkva Velikomučenice Nedelje, oštećena tokom 91-95","object":"crkva","time0":"1.1.1992","koor":"ne","date0":"ne","subtype":"mined","type":"damaged"},"geometry":{"type":"Point","coordinates":[17.990005016326904,44.64942926533928]}},{"type":"Feature","properties":{"type":"damaged","subtype":"ruined","desc":"Sase, crkva Presvete Trojice u manastiru Sase teško oštećena od strane muslimana u vremenu 92-93 godine","object":"crkva","time0":"1.1.1992","koor":"","date0":"ne"},"geometry":{"type":"Point","coordinates":[19.3663939833641,44.12267477875957]}},{"type":"Feature","properties":{"type":"damaged","subtype":"burned","desc":"Sase, manastirski konak teško oštećen paljevinom u vremenu 92-93 godine od strane muslimana","object":"dom","time0":"1.1.1992","koor":"","date0":"ne"},"geometry":{"type":"Point","coordinates":[19.367209374904633,44.1228047448702]}},{"type":"Feature","properties":{"type":"damaged","date0":"ne","subtype":"burned","desc":"Srebrenica, crkva Pokrova Presvete Bogorodice, osvećena 1903 godine, zapaljena ","object":"crkva","time0":"1.1.1992"},"geometry":{"type":"Point","coordinates":[19.298774152994156,44.10422824433902]}},{"type":"Feature","properties":{"date0":"ne","koor":"ne","type":"damaged","subtype":"burned","desc":"Srebrenica, parohijski dom, podignut 1936, zapaljen","object":"dom","time0":"1.1.1992"},"geometry":{"type":"Point","coordinates":[19.298571646213528,44.10443240285659]}},{"type":"Feature","properties":{"date0":"ne","koor":"ne","time0":"1.1.1992","type":"damaged","subtype":"burned","desc":"Srebrenica, Svetosavski dom, zapaljen","object":"dom"},"geometry":{"type":"Point","coordinates":[19.29898738861084,44.104151203205745]}},{"type":"Feature","properties":{"type":"damaged","subtype":"ruined","desc":"Srebrenica, crkva Svetog arhangela Mihaila, podignuta 1971 godine na temeljima strae crkve, posle pljačke oštećena izvan ratnih dejstava u vremenu 91-93 godina","object":"crkva","time0":"1.1.1992","koor":"","date0":"ne"},"geometry":{"type":"Point","coordinates":[19.292652010917664,44.12092646610194]}},{"type":"Feature","properties":{"type":"damaged","subtype":"mined","desc":"Gornja Grapska, crkva Vaznesenja Gospodnjeg iz 1894 godine, grnatama naneta velika šteta a zvonik zapaljen u periodu 91-93","object":"crkva","time0":"1.1.1992","koor":"","date0":"ne"},"geometry":{"type":"Point","coordinates":[18.08422029018402,44.79198149159496]}},{"type":"Feature","properties":{"type":"damaged","subtype":"mined","desc":"Gornja Zelinja, crkva Uspenja Presvete Bogorodice, oštećena granatama u vremenu 91-93","object":"crkva","time0":"1.1.1992","koor":"","date0":"ne"},"geometry":{"type":"Point","coordinates":[18.306893929839134,44.821251990198164]}},{"type":"Feature","properties":{"type":"destroyed","subtype":"mined","desc":"Sijekovac, crkva Ognjene Marije, osvećena 1970 godine, srušena izvan ratnih dejstava u periodu 91-93","object":"crkva","time0":"1.1.1992","koor":"","date0":"ne"},"geometry":{"type":"Point","coordinates":[17.969529032707214,45.10634855472111]}},{"type":"Feature","properties":{"date0":"ne","koor":"ne","object":"crkva","time0":"1.1.1992","desc":"Solun, srušen zvonik sagrađen 1969 godine","subtype":"mined","type":"damaged"},"geometry":{"type":"Point","coordinates":[18.54193389415741,44.16778375249233]}},{"type":"Feature","properties":{"desc":"Skipovac, crkva Pokrova Presvete Bogorodice, osvećena 1975 godine, znatno oštećena granatama","object":"crkva","time0":"1.1.1992","koor":"ne","date0":"ne","subtype":"mined","type":"damaged"},"geometry":{"type":"Point","coordinates":[18.255640268325806,44.79186347562076]}},{"type":"Feature","properties":{"type":"damaged","subtype":"mined","desc":"Skugrić, crkva Rođenja Presvete Bogorodice, podignuta 1940 godine, oštećena granatama u razdoblju 91-95","object":"crkva","time0":"1.1.1992","koor":"","date0":"ne"},"geometry":{"type":"Point","coordinates":[18.336347937583923,44.90663779030437]}},{"type":"Feature","properties":{"type":"damaged","date0":"ne","subtype":"ruined","desc":"Srnice, crkva opljačkana i oštećena u periodu 1991-1993","object":"crkva","time0":"1.1.1992","koor":""},"geometry":{"type":"Point","coordinates":[18.477346301078796,44.784521265458025]}},{"type":"Feature","properties":{"subtype":"burned","type":"damaged","desc":"Srnice, parohijski dom, zapaljen","object":"dom","time0":"1.1.1992","koor":"ne","date0":"ne"},"geometry":{"type":"Point","coordinates":[18.477188050746918,44.78458028098171]}},{"type":"Feature","properties":{"type":"damaged","subtype":"mined","desc":"Tešanj, crkva Pokrova Presvete Bogorodice, iz 1971 godine, granatama oštećen krov u periodu 91-95","object":"crkva","time0":"1.1.1992","koor":"","date0":"ne"},"geometry":{"type":"Point","coordinates":[17.99141988158226,44.616632743202544]}},{"type":"Feature","properties":{"desc":"Unka, crkva, hrvatska vojsaka porušila hram u razdoblju 91-95","object":"crkva","time0":"1.1.1992","koor":"ne","date0":"ne","subtype":"mined","type":"destroyed"},"geometry":{"type":"Point","coordinates":[18.039636611938473,45.05666756002029]}},{"type":"Feature","properties":{"type":"damaged","date0":"ne","subtype":"ruined","desc":"Fakovići, crkva Svetog apostola Tome, iz 1891 godine, obnovljena 1972 godine stradala u razdoblju 91-93","object":"crkva","time0":"1.1.1992","koor":""},"geometry":{"type":"Point","coordinates":[19.51342061161995,44.07863158346152]}},{"type":"Feature","properties":{"type":"damaged","subtype":"burned","desc":"Fakovići, parohijski dom opljačkan i zapaljen","object":"dom","time0":"1.1.1992","koor":"","date0":"ne"},"geometry":{"type":"Point","coordinates":[19.513848423957825,44.078531386613186]}}]}