{"type":"FeatureCollection","features":[{"type":"Feature","properties":{"type":"damaged","subtype":"mined","time0":"7.6.1992","desc":"Mostar, хрвати гранатирају храм посвећен Светој Тројици","object":"crkva"},"geometry":{"type":"Point","coordinates":[17.818633317947388,43.33907080060756]}},{"type":"Feature","properties":{"type":"damaged","subtype":"mined","time0":"8.6.1992","desc":"Mostar, хрвати гранатирају храм посвећен Светој Тројици","object":"crkva"},"geometry":{"type":"Point","coordinates":[17.818636670708656,43.33907128830351]}},{"type":"Feature","properties":{"type":"destroyed","subtype":"mined","time0":"15.6.1992","desc":"Mostar, хрвати минирају темеље цркве и потпуно је уништавају","object":"crkva"},"geometry":{"type":"Point","coordinates":[17.818638682365417,43.33907055675957]}},{"type":"Feature","properties":{"type":"destroyed","subtype":"mined","time0":"1.1.1993","desc":"Mostar, хрвати до темеља порушили цркву Рођења Пресвете Богородице, познату као Стара црква","object":"crkva"},"geometry":{"type":"Point","coordinates":[17.819800078868866,43.338961556615864]}},{"type":"Feature","properties":{"type":"destroyed","object":"crkva","subtype":"burned","time0":"1.1.1993","desc":"Blagaj, minirana pa zapaljena crkva Svetog Vasilija Ostroškog iz 1892, netačan datum"},"geometry":{"type":"Point","coordinates":[17.88970649242401,43.258229247668446]}},{"type":"Feature","properties":{"object":"parohijski dom","desc":"Blagaj, potpuno uništen paljevinom, netačan datum","time0":"1.1.1993","subtype":"burned","type":"destroyed"},"geometry":{"type":"Point","coordinates":[17.88960188627243,43.258008515418496]}},{"type":"Feature","properties":{"type":"damaged","object":"crkvica-kapela","time0":"1.1.1993","desc":"Bijela, netačne koordinate","subtype":"mined"},"geometry":{"type":"Point","coordinates":[17.787981033325195,43.50225440587175]}},{"type":"Feature","properties":{"type":"destroyed","time0":"1.1.1992","desc":"Bradina, crkva Vaznesenja Gospodnjeg, uništena od strane Hrvata, netačan datum. Porušene srbske kuće u naselju","object":"crkva","subtype":"mined"},"geometry":{"type":"Point","coordinates":[18.018782436847687,43.74579129412078]}},{"type":"Feature","properties":{"type":"destroyed","subtype":"mined","time0":"1.1.1992","desc":"Bradina, kapela Svete Ane, netačan datum","object":"kapela"},"geometry":{"type":"Point","coordinates":[18.018589317798615,43.74635709031897]}},{"type":"Feature","properties":{"object":"kapela","desc":"Blace, netačne koordinate, netačan datum","time0":"1.1.1993","subtype":"mined","type":"destroyed"},"geometry":{"type":"Point","coordinates":[18.105318546295166,43.62192591358096]}},{"type":"Feature","properties":{"type":"destroyed","time0":"1.1.1992","desc":"Bijelo polje, netačne koordinate, netačan datum, crkva Vaznesenja Gospodnjeg, muslimani uništili","subtype":"burned","object":"crkva"},"geometry":{"type":"Point","coordinates":[17.818408012390137,43.361709326296044]}},{"type":"Feature","properties":{"desc":"Bogodol, crkva svetih apostola Petra i Pavla, netačan datum, netačne koordinate","object":"crkva","time0":"1.1.1992","subtype":"mined","type":"destroyed"},"geometry":{"type":"Point","coordinates":[17.651231288909912,43.44899336786347]}},{"type":"Feature","properties":{"object":"crkvica-kapela","desc":"Brđani, netačan datum, netačne koordinate","time0":"1.1.1992","subtype":"mined","type":"destroyed"},"geometry":{"type":"Point","coordinates":[18.00632357597351,43.708074350163976]}},{"type":"Feature","properties":{"type":"damaged","subtype":"mined","desc":"Veličani, hrvati granatiraju crkvu Svetih Arhangela i razrušeno je i groblje u blizini kao i kapela Svetih srbskih Novomučenika, netačan datum","object":"crkva","time0":"1.1.1992"},"geometry":{"type":"Point","coordinates":[18.020812869071957,42.8650422683236]}},{"type":"Feature","properties":{"type":"damaged","subtype":"burned","time0":"1.1.1992","object":"crkva","desc":"Glavska, netačan datum, Hrvati zapalili i opljačkali, crkva Svetog arhiđakona Stefana"},"geometry":{"type":"Point","coordinates":[18.264859020709988,42.618906621189524]}},{"type":"Feature","properties":{"type":"destroyed","desc":"selo Hrasno zbrisano sa zemlje, netačan datum, opljačkan i uništen od strane hrvata hram posvećen Svetom Jovnau Krstitelju","object":"crkva","time0":"1.1.1992","subtype":"mined"},"geometry":{"type":"Point","coordinates":[17.9011407494545,42.95061165548713]}},{"type":"Feature","properties":{"type":"damaged","subtype":"ruined","time0":"1.1.1992","desc":"Gornji Poplat, opljačkana i demolirana crkva Svetog arhangela Mihaila, netačan datum, netačne koordinate","object":"crkva"},"geometry":{"type":"Point","coordinates":[18.035495281219482,43.02021158082207]}},{"type":"Feature","properties":{"object":"kapela","desc":"Donje Selo, porušena kapela, netačan datum","time0":"1.1.1992","subtype":"mined","type":"destroyed"},"geometry":{"type":"Point","coordinates":[17.946974337100983,43.662747355414446]}},{"type":"Feature","properties":{"type":"damaged","time0":"1.1.1992","subtype":"ruined","desc":"Dobrič kod Lištice, Hrvati oštetili crkvu Svete velikomiučenice Nedelje, netačan datum, netačne koordinate","object":"crkva"},"geometry":{"type":"Point","coordinates":[17.672710418701172,43.365026281405505]}},{"type":"Feature","properties":{"desc":"Dubrovnik, crkva Blagoveštenja Presvete Bogorodice, oštećen krov pogođen granatama","subtype":"ruined","type":"damaged","time0":"3.4.1992","object":"crkva"},"geometry":{"type":"Point","coordinates":[18.108774572610855,42.64087077313539]}},{"type":"Feature","properties":{"type":"damaged","object":"crkva","desc":"Dubrovnik, crkva Blagoveštenja Presvete Bogorodice, kamenovan ulaz","time0":"7.12.1992","subtype":"ruined"},"geometry":{"type":"Point","coordinates":[18.108798712491986,42.6408658404585]}},{"type":"Feature","properties":{"type":"damaged","subtype":"ruined","desc":"Dubrovnik, crkva Blagoveštenja Presvete Bogorodice, kamenovan ulaz","object":"crkva","time0":"24.12.1992"},"geometry":{"type":"Point","coordinates":[18.10877524316311,42.64084857608633]}},{"type":"Feature","properties":{"time0":"5.9.1996","desc":"Dubrovnik, crkva Blagoveštenja Presvete Bogorodice, bačena bomba pred ulaz ulaz","object":"crkva","subtype":"ruined","type":"damaged"},"geometry":{"type":"Point","coordinates":[18.108771219849586,42.640823912689214]}},{"type":"Feature","properties":{"type":"damaged","subtype":"mined","time0":"27.4.1992","desc":"Dubrovnik, Hrvati su minirali glavna vrata na porti crkve Svetog arhangela Mihaila, na groblju Bonino, sagra]ene 1837, netačne koordinate ","object":"crkva"},"geometry":{"type":"Point","coordinates":[18.097545504570007,42.64588414372492]}},{"type":"Feature","properties":{"type":"damaged","subtype":"ruined","time0":"1.1.1992","desc":"Dubrovnik, geleri ostetili krov i fasadu na crkvi-kapeli Svetog Georgija na Posatu, netačan datum, netačne koordinate","object":"crkvica-kapela"},"geometry":{"type":"Point","coordinates":[18.107292652130127,42.64279054128382]}},{"type":"Feature","properties":{"type":"destroyed","object":"parohijski dom","desc":"Dubrovnik, Hrvati su tokom 91 i 92 spalili staru crkvenu kuću preko puta saborne crkve, nekada Vladičanski konak, od zgrade ostali samo zidovi, netačan datum, netačne koordinate","time0":"1.1.1992","subtype":"burned"},"geometry":{"type":"Point","coordinates":[18.108680695295334,42.640761267616575]}},{"type":"Feature","properties":{"type":"damaged","subtype":"ruined","desc":"Duvno, hram iz 1864 posvećen Svetom Nikoli demoliran od strane Hrvata, netačan datum","object":"crkva","time0":"1.1.1992"},"geometry":{"type":"Point","coordinates":[17.222182452678677,43.723998259019524]}},{"type":"Feature","properties":{"type":"destroyed","subtype":"mined","time0":"1.1.1992","desc":"Začula, hrvatska vojsak do temelja uništila crkvu Svetog proraok Jeremije (Svete Paraskeve), netačan datum, netačne koordinate","object":"crkva"},"geometry":{"type":"Point","coordinates":[18.15986394882202,42.72276828884909]}},{"type":"Feature","properties":{"type":"destroyed","subtype":"mined","time0":"1.1.1992","desc":"Zaplanik, hrvatska vojska je u periodu 1991-1995 spalila pa potom minirala crkvu Vavedenja Presvete Bogorodice, a koristeći je kao toalet, teško oskrnavili, netačan datum","object":"crkva"},"geometry":{"type":"Point","coordinates":[18.153056502342224,42.701262777161865]}},{"type":"Feature","properties":{"subtype":"burned","type":"destroyed","time0":"1.1.1992","desc":"Zukići, srbsko selo uništeno 1992, a kapela potpuno srušena","object":"kapela"},"geometry":{"type":"Point","coordinates":[17.999446392059326,43.730654260933335]}},{"type":"Feature","properties":{"type":"damaged","subtype":"ruined","time0":"1.1.1992","desc":"Idbar, oštećena kapela 1992 godine, netačan datum, netačne koordinate","object":"kapela"},"geometry":{"type":"Point","coordinates":[17.880828380584717,43.641851934940156]}}]}