{"type":"FeatureCollection","features":[{"type":"Feature","properties":{"desc":"damaged","object":"ruined","time0":"Sarajevo, crkva Rođenj Presvete Bogorodice teško oštećena u periodu 91-95","subtype":"crkva","type":"1.1.1992","koor":" ","datum":"ne"},"geometry":{"type":"Point","coordinates":[18.425198793411255,43.85818847383808]}},{"type":"Feature","properties":{"desc":"damaged","object":"ruined","time0":"Sarajevo, crkva Svetih arhangela Mihaila i Gavrila iz 15og vijeka nekoliko puta granatirana i teško oštećena","subtype":"crkva","type":"1.1.1992","koor":" ","datum":"ne"},"geometry":{"type":"Point","coordinates":[18.43002676963806,43.86024624134914]}},{"type":"Feature","properties":{"time0":"Sarajevo, zgrada Mitropolije","subtype":"dom","object":"robbed","desc":"damaged","type":"1.1.1992","datum":"ne"},"geometry":{"type":"Point","coordinates":[18.425536751747128,43.85811111277209]}},{"type":"Feature","properties":{"object":"burned","desc":"damaged","time0":"Sarajevo, zgrada Mitropolije","subtype":"dom","type":"1.1.1992","datum":"ne"},"geometry":{"type":"Point","coordinates":[18.425504565238953,43.858085970404034]}},{"type":"Feature","properties":{"time0":"Sarajevo, crkva Svetog cara LAzara u izgradnji oštetili muslimani 92e godine (da li je to sada crkva Svetog Vasilija Ostroškog?)","subtype":"crkva","type":"1.1.1992","koor":"ne","datum":"ne","object":"ruined","desc":"damaged"},"geometry":{"type":"Point","coordinates":[18.359076976776123,43.825300977520826]}},{"type":"Feature","properties":{"desc":"damaged","object":"robbed","time0":"Sarajevo, crkva Preobraženja Gospodnjeg opljačkana od strane muslimana","subtype":"crkva","type":"1.1.1992","datum":"ne"},"geometry":{"type":"Point","coordinates":[18.390912115573883,43.8532971230033]}},{"type":"Feature","properties":{"desc":"damaged","object":"ruined","time0":"Sarajevo, crkva Preobraženja Gospodnjeg oštećena od strane muslimana","subtype":"crkva","type":"1.1.1992","datum":"ne"},"geometry":{"type":"Point","coordinates":[18.390932232141495,43.8532681102356]}},{"type":"Feature","properties":{"koor":"ne","datum":"ne","subtype":"crkva","type":"1.1.1992","time0":"Blagaj, crkva velikomučenika Georgija sagrađena 1853, minirana i srušena do temalja od strane Hrvata i muslimana 1995 godine, parohijski dom spaljen iste godine (možda promašeno dosta u prostoru)","desc":"destroyed","object":"mined"},"geometry":{"type":"Point","coordinates":[17.205898761749268,44.05625842772745]}},{"type":"Feature","properties":{"time0":"Blažuj, crkva Svetog Save Srpskog podignuta 1895, oštećena granatiranjem 1992","subtype":"crkva","type":"1.1.1992","koor":"","datum":"ne","object":"mined","desc":"damaged"},"geometry":{"type":"Point","coordinates":[18.274083137512207,43.8306454618328]}},{"type":"Feature","properties":{"desc":"damaged","time0":"Bilješevo, crkva Svetog Jovana Krstitelja podignutu 1905 godine muslimani su spalili tokom 1992","subtype":"crkva","type":"1.1.1992","koor":"","datum":"ne","object":"burned"},"geometry":{"type":"Point","coordinates":[17.99743741750717,44.13594332424759]}},{"type":"Feature","properties":{"desc":"destroyed","object":"mined","time0":"Bugojno, crkva Rođenja Presvete Bogorodice sagrađena 1853 potpuno uništena od strane muslimana i hrvata","type":"15.12.1992","subtype":"crkva","datum":""},"geometry":{"type":"Point","coordinates":[17.426118850708008,44.05460067774051]}},{"type":"Feature","properties":{"time0":"Bugojno, parohijski dom uništen od strane Hrvata 1992 godine","koor":"ne","datum":"ne","type":"1.1.1992","subtype":"dom","object":"mined","desc":"destroyed"},"geometry":{"type":"Point","coordinates":[17.426529228687286,44.05494186961202]}},{"type":"Feature","properties":{"desc":"damaged","object":"ruined","time0":"Visoko, crkva Svetog velikomučenika Prokopija, znatno oštećena tokom 1992","subtype":"crkva","type":"1.1.1992","datum":"ne"},"geometry":{"type":"Point","coordinates":[18.182576894760132,43.98177971693705]}},{"type":"Feature","properties":{"desc":"damaged","object":"ruined","time0":"Visoko, crkva Svetog velikomučenika Prokopija, prekopan oltarski deo tokom 1995","subtype":"crkva","type":"1.1.1995","koor":"","datum":"ne"},"geometry":{"type":"Point","coordinates":[18.182453513145447,43.981770066875704]}},{"type":"Feature","properties":{"time0":"Vitovlje, crkva Svetog Ilije zapaljena od strane muslimana","subtype":"crkva","type":"1.1.1995","datum":"ne","object":"burned","desc":"damaged"},"geometry":{"type":"Point","coordinates":[17.496301531791687,44.33197962745258]}},{"type":"Feature","properties":{"time0":"Donje Vukovsko, crkva Uspenja Presvete Bogorodice podignuta 1864 oštećena i opljačkana","subtype":"crkva","type":"1.1.1995","object":"robbed","desc":"damaged","datum":"ne"},"geometry":{"type":"Point","coordinates":[17.36211061477661,43.912741691059615]}},{"type":"Feature","properties":{"time0":"Goražde, crkva Svetog velikomučenika Georgija poznata i kao Donja Sopotnica, koju je sagradio Herceg Stjepan 1446 godine, muslimani su opljačkali i zapalili 1993","subtype":"crkva","type":"1.1.1993","koor":"","datum":"ne","object":"burned","desc":"damaged"},"geometry":{"type":"Point","coordinates":[19.001812040805817,43.68336395008893]}},{"type":"Feature","properties":{"desc":"destroyed","object":"ruined","time0":"Goražde, srušena kapela u toku 1992 godine","subtype":"kapela","type":"1.1.1992","koor":"ne","datum":"ne"},"geometry":{"type":"Point","coordinates":[19.0028715133667,43.68349584865767]}},{"type":"Feature","properties":{"time0":"Goražde, srušen parohijski dom u toku 1992 godine","subtype":"dom","type":"1.1.1992","koor":"ne","datum":"ne","object":"ruined","desc":"destroyed"},"geometry":{"type":"Point","coordinates":[18.999234437942505,43.68326696566219]}},{"type":"Feature","properties":{"time0":"Donja Zimča (Golo brdo?), crkva Začeća Svetog Jovana Krstitelja podignuta 1986 godine, spaljena i srušena 1992.","subtype":"crkva","type":"1.1.1992","koor":"","datum":"ne","object":"mined","desc":"destroyed"},"geometry":{"type":"Point","coordinates":[18.13377410173416,44.01949946344306]}},{"type":"Feature","properties":{"desc":"damaged","object":"mined","time0":"Donji Malovan, crkva Svetog Lazara Kosovskog podignuta 1971 godine, granatirana u periodu 91-95 godine","subtype":"crkva","type":"1.1.1992","koor":"","datum":"ne"},"geometry":{"type":"Point","coordinates":[17.180471420288086,43.89057073303237]}},{"type":"Feature","properties":{"time0":"Zavidovići, crkva Svetog Save Srpskog, sagrađena 1912, oštećena 1992 godine","subtype":"crkva","type":"1.1.1992","koor":"","datum":"ne","object":"ruined","desc":"damaged"},"geometry":{"type":"Point","coordinates":[18.139264583587646,44.444289838463824]}},{"type":"Feature","properties":{"desc":"damaged","object":"burned","time0":"Čardak, crkva Svetog NIkole sagrađena 1984 spaljena od strane muslimana","subtype":"crkva","type":"1.1.1992","koor":"","datum":"ne"},"geometry":{"type":"Point","coordinates":[18.18438470363617,44.38626213717311]}},{"type":"Feature","properties":{"time0":"Zenica, crkva Rođenja Presvete Bogorodice sagrađena 1886 oštećena od strane hrvatske vojske u junu i 1992","subtype":"crkva","type":"1.1.1992","koor":"","datum":"ne","desc":"damaged","object":"ruined"},"geometry":{"type":"Point","coordinates":[17.90199637413025,44.20157411350373]}},{"type":"Feature","properties":{"time0":"Zenica, crkva Rođenja Presvete Bogorodice sagrađena 1886 oštećena od strane hrvatske vojske u decembru i 1992","desc":"damaged","object":"ruined","subtype":"crkva","type":"1.1.1992","koor":"","datum":"ne"},"geometry":{"type":"Point","coordinates":[17.901960164308548,44.201593342027806]}},{"type":"Feature","properties":{"time0":"Jabuka, crkva Preobraženja Gospodnjeg, sagrađena 1937, Hrvati minirali i srušili do temelja 23.7.1992","type":"23.7.1992","subtype":"crkva","datum":"","koor":"ne","object":"mined","desc":"destroyed"},"geometry":{"type":"Point","coordinates":[18.655595183372498,43.634250385896465]}},{"type":"Feature","properties":{"desc":"damaged","object":"ruined","time0":"Kakanj, crkva Svetih apostola Petra i Pavla, oštećena fasada i polupani prozori ","subtype":"crkva","type":"1.1.1992","datum":"ne"},"geometry":{"type":"Point","coordinates":[18.117855191230774,44.128287128878846]}},{"type":"Feature","properties":{"time0":"Kiseljak, crkva Svetog proroka Ilije, podigmuta 1937, oštetili uslimani 1992 godine","subtype":"crkva","type":"1.1.1992","koor":"","datum":"ne","desc":"damaged","object":"ruined"},"geometry":{"type":"Point","coordinates":[18.075116872787476,43.944756337958175]}},{"type":"Feature","properties":{"desc":"destroyed","object":"mined","time0":"Stog, crkva Svetog velikomučenika Georgija podignuta 1912, muslimani palili uništavali i konačno sravnili sa zemljom","subtype":"crkva","type":"1.1.1995","datum":"ne"},"geometry":{"type":"Point","coordinates":[18.29451084136963,44.40974799127458]}},{"type":"Feature","properties":{"koor":"ne","datum":"ne","type":"1.1.1995","subtype":"dom","time0":"Stog, parohijski dom , muslimani palili uništavali i konačno sravnili sa zemljom","desc":"destroyed","object":"mined"},"geometry":{"type":"Point","coordinates":[18.294317722320557,44.409508485065125]}},{"type":"Feature","properties":{"koor":"ne","datum":"ne","type":"1.1.1995","subtype":"dom","time0":"Stog, Svetosavski dom , muslimani palili uništavali i konačno sravnili sa zemljom","desc":"destroyed","object":"mined"},"geometry":{"type":"Point","coordinates":[18.294827342033386,44.40943184287096]}},{"type":"Feature","properties":{"desc":"destoyed","object":"mined","time0":"Pazarić, crkva Svetih apostola Petra i Pavla podignuta 1896 zapaljena i sravnjena sa zemljom od strane muslimana 1992 godine","subtype":"crkva","type":"1.1.1992","datum":"ne"},"geometry":{"type":"Point","coordinates":[18.11967372894287,43.78622449790742]}},{"type":"Feature","properties":{"time0":"Pazarić, parohijski dom spaljen od strane muslimana tokom 1992","subtype":"dom","type":"1.1.1992","koor":"ne","datum":"ne","object":"burned","desc":"damaged"},"geometry":{"type":"Point","coordinates":[18.119209706783295,43.78640651529002]}},{"type":"Feature","properties":{"desc":"destroyed","object":"mined","time0":"Trnovo, crkva velikomučenika Georgija iz 1886 godine, porušena od strane muslimana u julu 1992 godine","subtype":"crkva","type":"1.6.1992","koor":"","datum":"ne"},"geometry":{"type":"Point","coordinates":[18.446688652038574,43.66518633013268]}},{"type":"Feature","properties":{"desc":"damaged","object":"burned","time0":"Trnovo, parohijski dom spaljen od strane muslimana u julu 1992","subtype":"dom","type":"1.6.1992","koor":"ne","datum":"ne"},"geometry":{"type":"Point","coordinates":[18.446636348962784,43.6653522233818]}},{"type":"Feature","properties":{"time0":"Ravno, crkva Svetog proroka Ilije zapaljena od strane Hrvata","subtype":"crkva","type":"1.1.1995","koor":"ne","datum":"ne","desc":"damaged","object":"burned"},"geometry":{"type":"Point","coordinates":[18.02981436252594,44.50595195453105]}},{"type":"Feature","properties":{"desc":"damaged","object":"ruined","time0":"Turbe, crka Svetog Jovana Krstitelja, podignnuta 1970 godine teško oštetili muslimani tokom 1992","subtype":"crkva","type":"1.1.1992","koor":"","datum":"ne"},"geometry":{"type":"Point","coordinates":[17.571816444396973,44.23848900476839]}},{"type":"Feature","properties":{"subtype":"dom","type":"1.1.1992","koor":"ne","datum":"ne","time0":"Turbe, parohijski dom zapaljen tokom 1992 od strane muslimana","object":"burned","desc":"damaged"},"geometry":{"type":"Point","coordinates":[17.57109761238098,44.23835064598509]}},{"type":"Feature","properties":{"desc":"damaged","object":"mined","time0":"Hadžići, crkva Rođenja Presvete Bogorodice podignuta 1937, uništen krov sa kupolom granatirawem tokom 1995","subtype":"crkva","type":"1.1.1995","koor":"","datum":"ne"},"geometry":{"type":"Point","coordinates":[18.203077018260956,43.8218254514597]}}]}