{"type":"FeatureCollection","features":[{"type":"Feature","properties":{"type":"damaged","subtype":"ruined","desc":"Pakrac, crkva SveteTrojice, građena na temeljima starije u vremenu 1757'1768 godine,","object":"crkva","time0":"1.1.1992","koor":"","date0":"ne"},"geometry":{"type":"Point","coordinates":[17.195341587066647,45.435186398773645]}},{"type":"Feature","properties":{"type":"damaged","subtype":"ruined","desc":"Pakrac, vladičanski dvor, iz 1732 godine","object":"dom","time0":"1.1.1992","koor":"","date0":"ne"},"geometry":{"type":"Point","coordinates":[17.194794416427612,45.43492289743169]}},{"type":"Feature","properties":{"koor":"ne","date0":"ne","time0":"1.1.1992","object":"crkva","desc":"Batinjani, crkva Svetog velikomučenika Dimitrija, iz 1739 godine, uništena van ratnih dejstava","subtype":"mined","type":"destroyed"},"geometry":{"type":"Point","coordinates":[17.25751519203186,45.617286850150045]}},{"type":"Feature","properties":{"type":"damaged","subtype":"burned","desc":"Bijela, crkva Svetih arhangela Mihaila i Gavrila, iz 1751 godine","time0":"1.1.1992","object":"crkva","date0":"ne"},"geometry":{"type":"Point","coordinates":[17.300838232040405,45.56037758466717]}},{"type":"Feature","properties":{"type":"damaged","subtype":"burned","desc":"Bijela, parohijski dom","object":"dom","time0":"1.1.1992","koor":"ne","date0":"ne"},"geometry":{"type":"Point","coordinates":[17.301836013793945,45.560358804982876]}},{"type":"Feature","properties":{"desc":"Bebrina, crkva Svetog kneza Lazara, srušili Hrvati do temelja","time0":"1.8.1991","koor":"ne","date0":"ne","object":"crkva","subtype":"mined","type":"destroyed"},"geometry":{"type":"Point","coordinates":[17.828975915908813,45.096314324780586]}},{"type":"Feature","properties":{"type":"damaged","subtype":"ruined","desc":"Bodegraj, crkva Upenja Presvete Bogorodice, dozidan zvonik na nekadašnji parohijski dom,","object":"crkva","time0":"1.5.1995","koor":"","date0":"ne"},"geometry":{"type":"Point","coordinates":[17.173218727111816,45.27262329491032]}},{"type":"Feature","properties":{"subtype":"mined","type":"destroyed","desc":"Brodski zdenci, crkva Rođenja Presvete Bogorodice, sagrađena 1926 godine, Hrvati minirali tokom 93e godine","object":"crkva","time0":"1.1.1993","koor":"","date0":"ne"},"geometry":{"type":"Point","coordinates":[17.94794261455536,45.25678254909094]}},{"type":"Feature","properties":{"subtype":"ruined","object":"crkva","time0":"1.1.1992","date0":"ne","desc":"Veliki Bastaji, crkva Svetog velikomučenika Georgija, iz 1756 godine","type":"damaged"},"geometry":{"type":"Point","coordinates":[17.32116937637329,45.64520324979313]}},{"type":"Feature","properties":{"subtype":"mined","object":"dom","time0":"1.1.1992","koor":"ne","date0":"ne","desc":"Veliki Bastaji, parohijski dom","type":"destroyed"},"geometry":{"type":"Point","coordinates":[17.321011126041412,45.64445694275251]}},{"type":"Feature","properties":{"type":"damaged","subtype":"ruined","desc":"Vrbovljani, ,kapela Svetog Save ustanovljenu u parohijskom domu, Hrvati opljačkali i oštetili","time0":"1.5.1995","date0":"ne","object":"kapela"},"geometry":{"type":"Point","coordinates":[17.169200778007507,45.24790783676758]}},{"type":"Feature","properties":{"date0":"ne","time0":"1.1.1942","object":"crkva","subtype":"mined","type":"destroyed","desc":"Voćin, crkva Svetih 318 Bogonosnih otaca, iz 1790 godine, Hrvati spalili"},"geometry":{"type":"Point","coordinates":[17.539072036743164,45.61155893105435]}},{"type":"Feature","properties":{"date0":"","time0":"13.12.1991","koor":"","object":"crkva","subtype":"mined","type":"destroyed","desc":"Voćin, crkva Svetih 318 Bogonosnih otaca, obnovljena 1976, Hrvati minirali"},"geometry":{"type":"Point","coordinates":[17.539125680923462,45.61155330228406]}},{"type":"Feature","properties":{"koor":"ne","date0":"","object":"dom","subtype":"mined","type":"destroyed","desc":"Voćin, parohijski dom","time0":"13.12.1991"},"geometry":{"type":"Point","coordinates":[17.53928929567337,45.611729670151526]}},{"type":"Feature","properties":{"type":"damaged","subtype":"robbed","desc":"Gazije, crkva Svete Trojice, iz 1754 godine, nestalo 8 ikona, fasada oštećena vatrenim oružjem ","object":"crkva","time0":"1.1.1992","koor":"","date0":"ne"},"geometry":{"type":"Point","coordinates":[17.95178085565567,45.48930041708364]}},{"type":"Feature","properties":{"desc":"Gorice, crkva Vaznesenja Gospodnjeg, ","subtype":"burned","type":"destroyed","object":"crkva","time0":"1.1.1992","koor":"","date0":"ne"},"geometry":{"type":"Point","coordinates":[17.286424040794373,45.22002844754816]}},{"type":"Feature","properties":{"koor":"ne","date0":"ne","desc":"Gornji Rajić, crkva Svetog Save, opljačkana i izlomljena","time0":"1.5.1995","object":"crkva","subtype":"ruined","type":"damaged"},"geometry":{"type":"Point","coordinates":[17.10494041442871,45.313830798340405]}},{"type":"Feature","properties":{"koor":"ne","date0":"ne","time0":"1.1.1942","desc":"Gornja Bukovica, crkva Svetog proroka Ilija, iz 1795 godine, Hrvati srušili","object":"crkva","subtype":"mined","type":"destroyed"},"geometry":{"type":"Point","coordinates":[17.773196697235104,45.66134205057207]}},{"type":"Feature","properties":{"koor":"ne","date0":"ne","desc":"Gornja Bukovica, crkva Svetog proroka Ilija, obnovljena 1989 godine","object":"crkva","time0":"1.1.1992","subtype":"mined","type":"destroyed"},"geometry":{"type":"Point","coordinates":[17.764838933944702,45.661889428335094]}},{"type":"Feature","properties":{"object":"crkva","time0":"1.1.1992","desc":"Gornji Miholjac, crkva Silaska Svetog Duha, iz 1793 godine, na mestu starije crkve","subtype":"ruined","type":"damaged","koor":"","date0":"ne"},"geometry":{"type":"Point","coordinates":[17.65991896390915,45.76158960356045]}},{"type":"Feature","properties":{"object":"dom","time0":"1.1.1992","koor":"ne","date0":"ne","desc":"Gornji Miholjac, parohijski dom, hrvati srušili van ratnih dejstava","type":"destroyed","subtype":"mined"},"geometry":{"type":"Point","coordinates":[17.659336924552914,45.76172807449706]}},{"type":"Feature","properties":{"desc":"Donji Grahovljani, crkva Svetih apostola Petra i Pavla, Hrvati teško oštetili, ","object":"crkva","time0":"1.1.1992","koor":"","date0":"ne","subtype":"ruined","type":"damaged"},"geometry":{"type":"Point","coordinates":[17.26454794406891,45.49677052189719]}},{"type":"Feature","properties":{"desc":"Donji Grahovljani, parohijski dom","subtype":"mined","type":"destroyed","object":"dom","time0":"1.1.1992","koor":"ne","date0":"ne"},"geometry":{"type":"Point","coordinates":[17.254036366939545,45.49381493817879]}},{"type":"Feature","properties":{"type":"destroyed","subtype":"mined","desc":"Gradište, parohijski dom, sagrađen 1990, porušen van ratnih dejstava","object":"dom","time0":"1.1.1992","date0":"ne","koor":"ne"},"geometry":{"type":"Point","coordinates":[17.942991256713867,45.404062148851466]}},{"type":"Feature","properties":{"date0":"ne","desc":"Gređani, crkva Svete Paraskeve, sagrađena 1750 godine na temeljima starije, Hrvati srušili","type":"destroyed","subtype":"mined","object":"crkva","time0":"1.1.1942"},"geometry":{"type":"Point","coordinates":[17.17928320169449,45.21463798827234]}},{"type":"Feature","properties":{"date0":"ne","desc":"Gređani, crkva Svete paraskeve, obnovljena 1975 godine","object":"crkva","time0":"1.5.1992","subtype":"ruined","type":"damaged"},"geometry":{"type":"Point","coordinates":[17.17933416366577,45.21466444112526]}},{"type":"Feature","properties":{"object":"dom","koor":"ne","date0":"ne","time0":"1.5.1992","type":"damaged","desc":"Gređani, parohijski dom","subtype":"ruined"},"geometry":{"type":"Point","coordinates":[17.17965066432953,45.21452083977587]}},{"type":"Feature","properties":{"desc":"Daruvar, crkva Svetih otaca Prvog Vaseljenskog Sabora, sagrađena 1756 godine na temeljima ranije crkve, neznatno oštećena","type":"damaged","subtype":"ruined","object":"crkva","time0":"1.1.1992","koor":"","date0":"ne"},"geometry":{"type":"Point","coordinates":[17.224266529083252,45.59391371473447]}},{"type":"Feature","properties":{"desc":"Dobrović, crkva Vaznesenja Gospodnjeg, iz 1749 godine, Hrvati srušili","object":"crkva","time0":"1.1.1942","koor":"ne","date0":"ne","subtype":"mined","type":"destroyed"},"geometry":{"type":"Point","coordinates":[17.851468920707703,45.66149576678565]}},{"type":"Feature","properties":{"subtype":"mined","desc":"Dobrović, parohijski dom sa kapelom je miniran","object":"kapela","time0":"1.1.1992","koor":"ne","date0":"ne","type":"damaged"},"geometry":{"type":"Point","coordinates":[17.851431369781494,45.66134954893374]}},{"type":"Feature","properties":{"desc":"Doljani, crkva Svetog proroka Ilije, sagrađena 1805 godine, na temeljima starije crkve","object":"crkva","time0":"1.1.1992","koor":"","date0":"ne","subtype":"burned","type":"damaged"},"geometry":{"type":"Point","coordinates":[17.219175696372986,45.564484550825846]}},{"type":"Feature","properties":{"koor":"ne","date0":"ne","subtype":"mined","type":"damaged","desc":"Doljani, parohijski dom","object":"dom","time0":"1.1.1992"},"geometry":{"type":"Point","coordinates":[17.21906840801239,45.5641916084511]}},{"type":"Feature","properties":{"desc":"Dijelka, crkva Svetog velikomučenika kneza Lazara, srušili Hrvati","object":"crkva","time0":"1.1.1942","date0":"ne","type":"destroyed","subtype":"mined"},"geometry":{"type":"Point","coordinates":[17.48153328895569,45.9143455871076]}},{"type":"Feature","properties":{"desc":"Dijelka, parohijski dom sa kapelom i zvonikom, srušili Hrvati","object":"kapela","time0":"1.1.1992","koor":"ne","date0":"ne","subtype":"mined","type":"damaged"},"geometry":{"type":"Point","coordinates":[17.4818953871727,45.91360473996668]}},{"type":"Feature","properties":{"desc":"Donji Rajić, crkva Preobraženja Gospodnjeg, iz 1813 godine, srušili Hrvati tokom 1941","object":"crkva","time0":"1.1.1942","koor":"","date0":"ne","subtype":"mined","type":"destroyed"},"geometry":{"type":"Point","coordinates":[17.115438580513,45.302382346960286]}},{"type":"Feature","properties":{"desc":"Donji Rajić, crkva Preobraženja Gospodnjeg, obnovljena 1990 godine, oštećena pucnjavom tokom 1991 godine","object":"crkva","time0":"1.1.1992","date0":"ne","type":"damaged","subtype":"ruined"},"geometry":{"type":"Point","coordinates":[17.115489542484283,45.302414418680954]}},{"type":"Feature","properties":{"desc":"Donji Rajić, crkva Preobraženja Gospodnjeg, Hrvati izlomili crkvu i zapalili","object":"crkva","time0":"1.1.1992","date0":"ne","type":"damaged","subtype":"burned"},"geometry":{"type":"Point","coordinates":[17.115425169467926,45.30235782151457]}},{"type":"Feature","properties":{"desc":"Donji Bobićevci, crkva Svetog Haralampija, iz 18og vijeka, oštećena granatama","object":"crkva","time0":"1.1.1992","date0":"ne","subtype":"mined","type":"damaged"},"geometry":{"type":"Point","coordinates":[17.258888483047482,45.22825768987298]}},{"type":"Feature","properties":{"desc":"Donji Čaglić, crkva Svetog Nikole, iz 1757 godine, Hrvati spalili 1942 godine","object":"crkva","time0":"1.1.1942","koor":"","date0":"ne","subtype":"burned","type":"damaged"},"geometry":{"type":"Point","coordinates":[17.154829502105713,45.384096852183994]}},{"type":"Feature","properties":{"type":"damaged","subtype":"mined","desc":"Donji Čaglić, crkva Svetog Nikole, obnovljena 1990 godine, Hrvati teško oštetili granatiranjem","object":"crkva","time0":"1.1.1992","date0":"ne"},"geometry":{"type":"Point","coordinates":[17.15487778186798,45.384068594407964]}},{"type":"Feature","properties":{"type":"damaged","subtype":"mined","desc":"Donji Čaglić, crkva Svetog Nikole, obnovljena 1994 godine, Hrvati granatirali","object":"crkva","time0":"1.5.1995","date0":"ne"},"geometry":{"type":"Point","coordinates":[17.154754400253296,45.384110039141326]}},{"type":"Feature","properties":{"desc":"Dragović, crkva Svetog Save, podignuta 1940 godine","type":"damaged","subtype":"ruined","object":"crkva","time0":"1.1.1992","date0":"ne"},"geometry":{"type":"Point","coordinates":[17.276081442832947,45.470025491247604]}},{"type":"Feature","properties":{"date0":"ne","desc":"Jasenovac, crkva Rođenja Svetog Jovana Krstitelja, iz 1775 godine, srušili Hrvati 1941 godine","time0":"1.1.1942","type":"destroyed","subtype":"ruined","object":"crkva"},"geometry":{"type":"Point","coordinates":[16.911842823028564,45.27169083144666]}},{"type":"Feature","properties":{"date0":"ne","time0":"1.1.1992","desc":"Jasenovac, crkva Rođenja Svetog Jovana Krstitelja, obnovljena 1984, Hravti oštetili","object":"crkva","subtype":"ruined","type":"damaged"},"geometry":{"type":"Point","coordinates":[16.911889761686325,45.27170970737719]}},{"type":"Feature","properties":{"date0":"ne","time0":"1.1.1992","desc":"Jasenovac, crkva Rođenja Svetog Jovana Krstitelja, granatirana","object":"crkva","subtype":"mined","type":"damaged"},"geometry":{"type":"Point","coordinates":[16.91187635064125,45.27167667449463]}},{"type":"Feature","properties":{"koor":"ne","date0":"ne","time0":"1.5.1995","desc":"Jasenovac, parohijski dom","object":"dom","subtype":"burned","type":"damaged"},"geometry":{"type":"Point","coordinates":[16.911821365356445,45.27147187019357]}},{"type":"Feature","properties":{"desc":"Jazavica, kapela Svete Petke, iz 19og vijeka, opljačkana i izlomljena od strane Hrvata","object":"kapela","time0":"4.10.1991","koor":"","date0":"","subtype":"ruined","type":"damaged"},"geometry":{"type":"Point","coordinates":[17.054834067821503,45.31957961792968]}},{"type":"Feature","properties":{"desc":"Katinac, crkva Svetih apostola Petra i Pavla, podignuta 1750 godine, opljačkana i izlomljena krajem 91 godine","object":"crkva","time0":"1.1.1992","date0":"ne","subtype":"ruined","type":"damaged"},"geometry":{"type":"Point","coordinates":[17.40671843290329,45.65522492749224]}},{"type":"Feature","properties":{"desc":"Koreničani, crkva Svetog Nikole,","object":"crkva","time0":"1.1.1992","koor":"","date0":"ne","subtype":"mined","type":"damaged"},"geometry":{"type":"Point","coordinates":[17.37394854426384,45.637755672713844]}},{"type":"Feature","properties":{"desc":"Klokočevik, crkva Svete Trojice, sagrađena u vremenu 1756-1760 godine, Hrvati srušili","time0":"1.1.1942","date0":"ne","object":"crkva","subtype":"mined","type":"destroyed"},"geometry":{"type":"Point","coordinates":[18.144175708293915,45.22335164816069]}},{"type":"Feature","properties":{"time0":"1.11.1992","date0":"ne","object":"crkva","desc":"Klokočevik, crkva Svete Trojice, podignuta nova 1988 godine, Hrvati srušili van ratnih dejstava","subtype":"mined","type":"destroyed"},"geometry":{"type":"Point","coordinates":[18.14424142241478,45.22334975896027]}},{"type":"Feature","properties":{"desc":"Kreštelovac, crkva Uspenja Presvete Bogorodice, u narodu zvana Svetinja, sagrađenja 1754 godine, oskrnavljena","object":"crkva","time0":"1.1.1992","date0":"ne","subtype":"ruined","type":"damaged"},"geometry":{"type":"Point","coordinates":[17.07204043865204,45.57923860762162]}},{"type":"Feature","properties":{"desc":"Kusonje, crkva Svetog velikomučenika Georgija, iz 1734 godine, Hrvati zapalili zajedno sa 460 Srba u njoj","subtype":"burned","type":"damaged","time0":"13.8.1942","koor":"","date0":"","object":"crkva"},"geometry":{"type":"Point","coordinates":[17.226245999336243,45.461011086895525]}},{"type":"Feature","properties":{"desc":"Kusonje, crkva Svetog velikomučenika Georgija, pord zabrane obnovljena 1987, hram izlomljen i oskrnavljen","subtype":"ruined","type":"damaged","object":"crkva","time0":"1.1.1992","date0":"ne"},"geometry":{"type":"Point","coordinates":[17.2261843085289,45.460982867590396]}},{"type":"Feature","properties":{"object":"dom","time0":"1.1.1992","koor":"","date0":"ne","desc":"Kusonje, parohijski dom, oštećen granatama","subtype":"mined","type":"damaged"},"geometry":{"type":"Point","coordinates":[17.22530722618103,45.46092266635888]}},{"type":"Feature","properties":{"object":"crkva","time0":"1.12.1992","desc":"Kukunjevac, crkva Svete Petke, sagrađena 1782 godinem na temeljima starije crkve, grantirana pa minirana","subtype":"mined","type":"destroyed","date0":"ne"},"geometry":{"type":"Point","coordinates":[17.098987251520157,45.44461705450892]}},{"type":"Feature","properties":{"object":"dom","time0":"1.12.1992","desc":"Kukunjevac, parohijski dom, ,minirali Hrvati u decembru 1991 godine","subtype":"mined","type":"damaged","date0":"ne"},"geometry":{"type":"Point","coordinates":[17.09764078259468,45.445331205796734]}},{"type":"Feature","properties":{"type":"destroyed","desc":"Kućanci, crkva Svetih apostola Petra i Pavla, sagrađena 1828 godine na mjestu starije iz 1748 godine.","time0":"20.12.1991","object":"crkva","subtype":"mined"},"geometry":{"type":"Point","coordinates":[18.134007453918457,45.656002962156116]}},{"type":"Feature","properties":{"desc":"Bodegraj, crkva Uspenja Presvete Bogorodice, sagrađena 1790 godine, do temelja srušili Hrvati iz Borovca 1941 godine, da bi podigli sebi zgradu u Borovcu","object":"crkva","time0":"1.1.1942","date0":"ne","subtype":"ruined","type":"destroyed"},"geometry":{"type":"Point","coordinates":[17.1735768020153,45.27393230430724]}},{"type":"Feature","properties":{"desc":"Lovska, crkva Svetog Teodora Tirona, iz 17746 godine, granatirali Hrvati i teško oštećena","object":"crkva","time0":"1.10.1991","subtype":"mined","type":"damaged"},"geometry":{"type":"Point","coordinates":[17.040202617645264,45.40413747623496]}},{"type":"Feature","properties":{"date0":"ne","object":"dom","desc":"Lovska, parohijski dom, oštećen granatiranjem","subtype":"mined","type":"damaged","time0":"1.10.1991"},"geometry":{"type":"Point","coordinates":[17.03953742980957,45.40384934845043]}},{"type":"Feature","properties":{"desc":"Lisičine, crkva Svetog velikomučenika Georgija, sagrašena 1869 godine, na mjestu starije iz 1748 godine, obnovljena 1990 godine, porušena krajem 1991.","object":"crkva","time0":"1.1.1992","koor":"","date0":"ne","type":"destroyed","subtype":"mined"},"geometry":{"type":"Point","coordinates":[17.514899969100952,45.657622739403315]}},{"type":"Feature","properties":{"time0":"1.1.1992","object":"dom","desc":"Lisičine, parohijski dom, porušili Hrvati","type":"destroyed","subtype":"mined","date0":"ne"},"geometry":{"type":"Point","coordinates":[17.514425218105316,45.658057671610365]}},{"type":"Feature","properties":{"desc":"Londžica, parohijski dom, miniran","time0":"1.9.1993","date0":"ne","object":"dom","subtype":"mined","type":"damaged"},"geometry":{"type":"Point","coordinates":[18.038257956504822,45.412373919623974]}},{"type":"Feature","properties":{"desc":"Donji Bokri, crkva Vavedenja Presvete Bogorodice, u manastiru Pakra, osnovan 1556 godine, dok crkva potiče iz 1765 godine, Hrvati provalili, opljačkali i izlomili","object":"crkva","time0":"1.1.1992","date0":"ne","subtype":"ruined","type":"damaged"},"geometry":{"type":"Point","coordinates":[17.337074875831604,45.55380806816991]}},{"type":"Feature","properties":{"type":"damaged","subtype":"ruined","desc":"Donja Vrijeska, crkva Svete Ane, u manastiru Svete Ane, sagrađena 1412 godine kao pavlinski manastir, da bi u 17om vijeku bila dodeljena pravoslavnim monasima, manastir oštećen krajme 91 godine","object":"crkva","time0":"1.1.1992","koor":"","date0":"ne"},"geometry":{"type":"Point","coordinates":[17.269990146160126,45.65171520062707]}},{"type":"Feature","properties":{"desc":"Donja Vrijeska, crkva Svete Ane, u manastiru Svete Ane, u maju 95 hrvatska vojska izlomila crkvu","subtype":"ruined","type":"damaged","object":"crkva","time0":"1.5.1995","koor":"","date0":"ne"},"geometry":{"type":"Point","coordinates":[17.269896268844604,45.65171520062707]}}]}