{"type":"FeatureCollection","features":[{"type":"Feature","properties":{"desc":"Sarajevo, crkva Rođenj Presvete Bogorodice teško oštećena u periodu 91-95","object":"crkva","time0":"1.1.1992","subtype":"ruined","type":"damaged","koor":" ","datum":"ne"},"geometry":{"type":"Point","coordinates":[18.425198793411255,43.85818847383808]}},{"type":"Feature","properties":{"desc":"damaged","object":"ruined","time0":"Sarajevo, crkva Svetih arhangela Mihaila i Gavrila iz 15og vijeka nekoliko puta granatirana i teško oštećena","subtype":"crkva","type":"1.1.1992","koor":" ","datum":"ne"},"geometry":{"type":"Point","coordinates":[18.43002676963806,43.86024624134914]}},{"type":"Feature","properties":{"time0":"Sarajevo, zgrada Mitropolije","subtype":"dom","object":"robbed","desc":"damaged","type":"1.1.1992","datum":"ne"},"geometry":{"type":"Point","coordinates":[18.425536751747128,43.85811111277209]}},{"type":"Feature","properties":{"object":"burned","desc":"damaged","time0":"Sarajevo, zgrada Mitropolije","subtype":"dom","type":"1.1.1992","datum":"ne"},"geometry":{"type":"Point","coordinates":[18.425504565238953,43.858085970404034]}},{"type":"Feature","properties":{"time0":"Sarajevo, crkva Svetog cara LAzara u izgradnji oštetili muslimani 92e godine (da li je to sada crkva Svetog Vasilija Ostroškog?)","subtype":"crkva","type":"1.1.1992","koor":"ne","datum":"ne","object":"ruined","desc":"damaged"},"geometry":{"type":"Point","coordinates":[18.359076976776123,43.825300977520826]}},{"type":"Feature","properties":{"desc":"damaged","object":"robbed","time0":"Sarajevo, crkva Preobraženja Gospodnjeg opljačkana od strane muslimana","subtype":"crkva","type":"1.1.1992","datum":"ne"},"geometry":{"type":"Point","coordinates":[18.390912115573883,43.8532971230033]}},{"type":"Feature","properties":{"desc":"damaged","object":"ruined","time0":"Sarajevo, crkva Preobraženja Gospodnjeg oštećena od strane muslimana","subtype":"crkva","type":"1.1.1992","datum":"ne"},"geometry":{"type":"Point","coordinates":[18.390932232141495,43.8532681102356]}},{"type":"Feature","properties":{"koor":"ne","datum":"ne","subtype":"crkva","type":"1.1.1992","time0":"Blagaj, crkva velikomučenika Georgija sagrađena 1853, minirana i srušena do temalja od strane Hrvata i muslimana 1995 godine, parohijski dom spaljen iste godine (možda promašeno dosta u prostoru)","desc":"destroyed","object":"mined"},"geometry":{"type":"Point","coordinates":[17.205898761749268,44.05625842772745]}},{"type":"Feature","properties":{"time0":"Blažuj, crkva Svetog Save Srpskog podignuta 1895, oštećena granatiranjem 1992","subtype":"crkva","type":"1.1.1992","koor":"","datum":"ne","object":"mined","desc":"damaged"},"geometry":{"type":"Point","coordinates":[18.274083137512207,43.8306454618328]}},{"type":"Feature","properties":{"desc":"damaged","time0":"Bilješevo, crkva Svetog Jovana Krstitelja podignutu 1905 godine muslimani su spalili tokom 1992","subtype":"crkva","type":"1.1.1992","koor":"","datum":"ne","object":"burned"},"geometry":{"type":"Point","coordinates":[17.99743741750717,44.13594332424759]}},{"type":"Feature","properties":{"desc":"destroyed","object":"mined","time0":"Bugojno, crkva Rođenja Presvete Bogorodice sagrađena 1853 potpuno uništena od strane muslimana i hrvata","type":"15.12.1992","subtype":"crkva","datum":""},"geometry":{"type":"Point","coordinates":[17.426118850708008,44.05460067774051]}},{"type":"Feature","properties":{"time0":"Bugojno, parohijski dom uništen od strane Hrvata 1992 godine","koor":"ne","datum":"ne","type":"1.1.1992","subtype":"dom","object":"mined","desc":"destroyed"},"geometry":{"type":"Point","coordinates":[17.426529228687286,44.05494186961202]}},{"type":"Feature","properties":{"desc":"damaged","object":"ruined","time0":"Visoko, crkva Svetog velikomučenika Prokopija, znatno oštećena tokom 1992","subtype":"crkva","type":"1.1.1992","datum":"ne"},"geometry":{"type":"Point","coordinates":[18.182576894760132,43.98177971693705]}},{"type":"Feature","properties":{"desc":"damaged","object":"ruined","time0":"Visoko, crkva Svetog velikomučenika Prokopija, prekopan oltarski deo tokom 1995","subtype":"crkva","type":"1.1.1995","koor":"","datum":"ne"},"geometry":{"type":"Point","coordinates":[18.182453513145447,43.981770066875704]}},{"type":"Feature","properties":{"time0":"Vitovlje, crkva Svetog Ilije zapaljena od strane muslimana","subtype":"crkva","type":"1.1.1995","datum":"ne","object":"burned","desc":"damaged"},"geometry":{"type":"Point","coordinates":[17.496301531791687,44.33197962745258]}},{"type":"Feature","properties":{"time0":"Donje Vukovsko, crkva Uspenja Presvete Bogorodice podignuta 1864 oštećena i opljačkana","subtype":"crkva","type":"1.1.1995","object":"robbed","desc":"damaged","datum":"ne"},"geometry":{"type":"Point","coordinates":[17.36211061477661,43.912741691059615]}},{"type":"Feature","properties":{"time0":"Goražde, crkva Svetog velikomučenika Georgija poznata i kao Donja Sopotnica, koju je sagradio Herceg Stjepan 1446 godine, muslimani su opljačkali i zapalili 1993","subtype":"crkva","type":"1.1.1993","koor":"","datum":"ne","object":"burned","desc":"damaged"},"geometry":{"type":"Point","coordinates":[19.001812040805817,43.68336395008893]}},{"type":"Feature","properties":{"desc":"destroyed","object":"ruined","time0":"Goražde, srušena kapela u toku 1992 godine","subtype":"kapela","type":"1.1.1992","koor":"ne","datum":"ne"},"geometry":{"type":"Point","coordinates":[19.0028715133667,43.68349584865767]}},{"type":"Feature","properties":{"time0":"Goražde, srušen parohijski dom u toku 1992 godine","subtype":"dom","type":"1.1.1992","koor":"ne","datum":"ne","object":"ruined","desc":"destroyed"},"geometry":{"type":"Point","coordinates":[18.999234437942505,43.68326696566219]}},{"type":"Feature","properties":{"time0":"Donja Zimča (Golo brdo?), crkva Začeća Svetog Jovana Krstitelja podignuta 1986 godine, spaljena i srušena 1992.","subtype":"crkva","type":"1.1.1992","koor":"","datum":"ne","object":"mined","desc":"destroyed"},"geometry":{"type":"Point","coordinates":[18.13377410173416,44.01949946344306]}},{"type":"Feature","properties":{"desc":"damaged","object":"mined","time0":"Donji Malovan, crkva Svetog Lazara Kosovskog podignuta 1971 godine, granatirana u periodu 91-95 godine","subtype":"crkva","type":"1.1.1992","koor":"","datum":"ne"},"geometry":{"type":"Point","coordinates":[17.180471420288086,43.89057073303237]}}]}