{"type":"FeatureCollection","features":[{"type":"Feature","properties":{"type":"damaged","subtype":"ruined","desc":"Tuzla, crkva Uspenja Presvete Bogorodice osvećena 28.8.1882, oštećen krov i fasada tokom 1992 od strane muslimanske vojske","object":"crkva","time0":"1.1.1992","koor":"","date0":"ne"},"geometry":{"type":"Point","coordinates":[18.68004083633423,44.537838780951034]}},{"type":"Feature","properties":{"desc":"Tuzla, eparhijski dvor je granatiran od strane muslimanske vojske 1992 godine i odnnijet je dio crkvenih dragocjenosti","object":"dom","time0":"1.1.1992","koor":"","date0":"ne","subtype":"mined","type":"damaged"},"geometry":{"type":"Point","coordinates":[18.679336756467816,44.537969742172855]}},{"type":"Feature","properties":{"type":"damaged","subtype":"mined","desc":"Tuzla, crkva Svetog velikomučenika Georgija, osvećena 14.10.1900, oštećena granatama","object":"crkva","time0":"1.1.1992","date0":"ne"},"geometry":{"type":"Point","coordinates":[18.689058423042297,44.53815614632362]}},{"type":"Feature","properties":{"type":"damaged","desc":"Ajdinovići, crkva Svetog velikomučenika Prokopija u periodu 91-95 zapaljena granatama","object":"crkva","time0":"1.1.1992","koor":"","date0":"ne","subtype":"burned"},"geometry":{"type":"Point","coordinates":[18.554052114486694,44.0761246844085]}},{"type":"Feature","properties":{"type":"damaged","subtype":"mined","desc":"Boljanić, crkva Svete Trojice (Silazak Svetog Duha), osvećena je 1905 godine a u periodu 92-95 oštečena gelerima od granata","object":"crkva","time0":"1.1.1992","date0":"ne"},"geometry":{"type":"Point","coordinates":[18.22208046913147,44.68167612394233]}},{"type":"Feature","properties":{"desc":"Blatnica, crkva Svetog velikomučenika Kneza Lazara Srbskog, osvećena 28.6.1973 oćtećena gelerima granata između 91-95","object":"crkva","time0":"1.1.1992","koor":"","date0":"ne","type":"damaged","subtype":"ruined"},"geometry":{"type":"Point","coordinates":[17.816235423088074,44.48524696714878]}},{"type":"Feature","properties":{"desc":"Bijela, crkva Vaznesenja Gospodnjeg, osvećena 14.10.1936, zapaljena pa srušena.","object":"crkva","time0":"1.1.1992","koor":"","date0":"ne","type":"destroyed","subtype":"mined"},"geometry":{"type":"Point","coordinates":[18.563319146633148,44.78771182464668]}},{"type":"Feature","properties":{"type":"destoyed","object":"dom","time0":"1.1.1992","subtype":"mined","desc":"Bijela, parohijski dom srušen","date0":"ne"},"geometry":{"type":"Point","coordinates":[18.56351226568222,44.78758428181005]}},{"type":"Feature","properties":{"desc":"Brod, crkva Pokrova Presvete Bogorodice, osvećena 1890 godine uništena do temelja","subtype":"mined","type":"destroyed","object":"crkva","time0":"1.1.1992","date0":"ne"},"geometry":{"type":"Point","coordinates":[17.99525946378708,45.14587571731588]}},{"type":"Feature","properties":{"type":"demaged","subtype":"mined","desc":"Brod, parohijski dom posle plaške granatiran","object":"dom","time0":"1.1.1992","koor":"","date0":"ne"},"geometry":{"type":"Point","coordinates":[17.995570600032806,45.14574896836692]}},{"type":"Feature","properties":{"type":"destroyed","subtype":"mined","desc":"Lužani, crkva Svih Svetih, podignuta 1982 godine na temeljima stare iz 1883 godine, minirana i srušena do temelja za pravoslavni Vaskrs","object":"crkva","time0":"1.1.1992","date0":"ne"},"geometry":{"type":"Point","coordinates":[17.996034622192383,45.02370489563228]}},{"type":"Feature","properties":{"desc":"Lužani, stari hram Crkva Svetih apostola Petra i Pavla sagrađena 1928 godin , Hrvati porušili za Vasrks 1992 godine","object":"crkva","time0":"1.1.1992","date0":"ne","subtype":"mined","type":"destroyed"},"geometry":{"type":"Point","coordinates":[17.995828092098236,45.0238243323781]}},{"type":"Feature","properties":{"desc":"Lužani - Polje, crkva Svetih apostola Petra i Pavla, podignuta 1935 na Božić 1993 goodine","object":"crkva","time0":"1.1.1993","date0":"ne","subtype":"mined","type":"destroyed"},"geometry":{"type":"Point","coordinates":[17.95565128326416,44.98642846396161]}},{"type":"Feature","properties":{"desc":"Lužani, parohijski dom uništen, ostali samo zidovi","object":"dom","time0":"1.1.1992","koor":"ne","date0":"ne","type":"damaged","subtype":"ruined"},"geometry":{"type":"Point","coordinates":[17.995718121528625,45.023701103985466]}},{"type":"Feature","properties":{"desc":"Miloševac, crkva Svetog Nikole sagrađena 1906 godine oštećena granatama u periodu 1991-1993","time0":"1.1.1992","object":"crkva","date0":"ne","subtype":"mined","type":"damaged"},"geometry":{"type":"Point","coordinates":[18.3940851688385,44.992225578138196]}},{"type":"Feature","properties":{"desc":"Šamac, crkva Svetog velikomučenika Dimitrija sagrađena 1937 godine, u periodu 91-92 oštećena gelerima granata","object":"crkva","time0":"1.1.1992","koor":"","date0":"ne","type":"damaged","subtype":"mined"},"geometry":{"type":"Point","coordinates":[18.4654238820076,45.06040005913832]}},{"type":"Feature","properties":{"type":"damaged","subtype":"mined","desc":"Šamac, parohijski dom oštećen gelerima granata u vremenu 91-95","object":"dom","time0":"1.1.1992","koor":"","date0":"ne"},"geometry":{"type":"Point","coordinates":[18.465584814548492,45.06070319557684]}},{"type":"Feature","properties":{"desc":"Šamac, crkva Svetog kneza Lazara u proleđe 1992 srušena. Prva crkva koja je srušena u bivšoj Bosni i Hercegovini","object":"crkva","time0":"1.1.1992","date0":"ne","type":"destroyed","subtype":"mined"},"geometry":{"type":"Point","coordinates":[18.46041351556778,45.05215413161462]}},{"type":"Feature","properties":{"type":"destroyed","subtype":"mined","desc":"Bukvik, crkva Svetog proroka Ilije, sagrađena 1903 godine srušena u periodu 91-93","object":"crkva","time0":"1.1.1992","date0":"ne"},"geometry":{"type":"Point","coordinates":[18.669966459274292,44.841066616279136]}},{"type":"Feature","properties":{"type":"destroyed","subtype":"mined","desc":"Bukvik, parohijski dom podignut 1971, srušen u periodu 91-93","object":"dom","time0":"1.1.1992","koor":"","date0":"ne"},"geometry":{"type":"Point","coordinates":[18.670006692409515,44.841338581889126]}},{"type":"Feature","properties":{"type":"damaged","subtype":"mined","desc":"Brčko, crkva Uspenja Presvete Bogorodice osvećena 26.9.1971 godine, oštećena fasada od metaka i gelera granata tokom 92-95 godine","object":"crkva","time0":"1.1.1992","date0":"ne"},"geometry":{"type":"Point","coordinates":[18.807896375656124,44.86449659257454]}},{"type":"Feature","properties":{"koor":"ne","date0":"ne","time0":"1.1.1992","object":"dom","desc":"Brčko, parohijski dom sagrađen 1973. godine, oštećen krov tokom 92-95","subtype":"mined","type":"damaged"},"geometry":{"type":"Point","coordinates":[18.80881905555725,44.8642646593327]}},{"type":"Feature","properties":{"type":"damaged","subtype":"mined","desc":"Vinska, crkva Rođenja Presvete Bogorodice, osvećena 21.9.1933, teško oštećena granatamau vremenu 91-95","object":"crkva","time0":"1.1.1992","koor":"","date0":"ne"},"geometry":{"type":"Point","coordinates":[18.094768077135086,45.064623931113545]}},{"type":"Feature","properties":{"type":"destroyed","subtype":"mined","desc":"Vinska, parohijski dom sagrađen 1971. godine sapqen i porušen","object":"dom","time0":"1.1.1992","koor":"","date0":"ne"},"geometry":{"type":"Point","coordinates":[18.094557523727413,45.06471202379798]}},{"type":"Feature","properties":{"type":"destroyed","subtype":"ruined","desc":"Vinksa, crkva Svetog proroka Ilije, osvećena 1974. godine uništena u razdoblju 91-95","object":"crkva","time0":"1.1.1992","date0":"ne"},"geometry":{"type":"Point","coordinates":[18.09345781803131,45.06775255905524]}},{"type":"Feature","properties":{"type":"damaged","desc":"Visočnik, crkva Uspenja Presvete Bogorodice osvećena 9.8.1939 godine, teško oštećena od strane muslimana","object":"crkva","time0":"16.11.1993","koor":"ne","subtype":"ruined"},"geometry":{"type":"Point","coordinates":[19.381942749023438,44.081912936473316]}},{"type":"Feature","properties":{"type":"damaged","subtype":"ruined","desc":"Visočnik, oštećen je parohijski dom u periodu 92-95 godine","object":"dom","time0":"1.1.1992","koor":"ne","date0":"ne"},"geometry":{"type":"Point","coordinates":[19.381513595581055,44.08182045221025]}},{"type":"Feature","properties":{"desc":"Vučilovac, crkva Svetog velikomučenika Pantelejmona uništena u periodu 1991-1995","object":"crkva","time0":"1.1.1992","date0":"ne","subtype":"mined","type":"damaged"},"geometry":{"type":"Point","coordinates":[18.7638920545578,44.94912397950689]}},{"type":"Feature","properties":{"desc":"Vučilovac, uništen Svetosavski dom","object":"dom","time0":"1.1.1992","date0":"ne","type":"damaged","subtype":"mined"},"geometry":{"type":"Point","coordinates":[18.764095902442932,44.94895313301437]}},{"type":"Feature","properties":{"subtype":"mined","type":"destroyed","desc":"Gnionica, crkva Svetog velikomučenima Lazara Srbskog, osvećena 27.7.1991, porušena do temelja u vremenu 1991-1993","object":"crkva","time0":"1.1.1992","date0":"ne"},"geometry":{"type":"Point","coordinates":[18.268595337867733,45.008337185368134]}},{"type":"Feature","properties":{"subtype":"mined","type":"damaged","desc":"Gornje Krečane, crkva Svetog jevangeliste Marka iz 1991 godine, granatirawem oštećena","object":"crkva","time0":"1.1.1992","date0":"ne"},"geometry":{"type":"Point","coordinates":[18.3546781539917,44.87491361387959]}},{"type":"Feature","properties":{"type":"damaged","desc":"Gornja Jasenica, crkva Svetih apostola Petra i Pavla iz 1900. godine oštećena 1993 godine","subtype":"ruined","object":"crkva","time0":"1.1.1993","date0":"ne"},"geometry":{"type":"Point","coordinates":[18.584704399108887,44.666028031365244]}},{"type":"Feature","properties":{"koor":"ne","date0":"ne","desc":"Gornja Jasenica, parohijski dom sagrađen 1976 godine zapaljen u razdoblju 1991-1995","object":"dom","time0":"1.1.1992","subtype":"burned","type":"damaged"},"geometry":{"type":"Point","coordinates":[18.585047721862793,44.665860159588895]}},{"type":"Feature","properties":{"koor":"ne","date0":"ne","time0":"1.1.1992","object":"crkva","desc":"Grk, hrvatska vojska razorila crkvu","subtype":"mined","type":"destroyed"},"geometry":{"type":"Point","coordinates":[18.037405014038086,45.03371396774147]}},{"type":"Feature","properties":{"type":"damaged","subtype":"burned","desc":"Gradačac, crkva Svetog proroka Ilije iz 1887 godine, muslimani granatirali i zapalili","time0":"1.1.1992","object":"crkva","date0":"ne"},"geometry":{"type":"Point","coordinates":[18.419893383979797,44.882173998953064]}},{"type":"Feature","properties":{"subtype":"ruined","koor":"ne","date0":"ne","time0":"1.1.1992","object":"dom","type":"destroyed","desc":"Gradačac, razrušen parohijski dom"},"geometry":{"type":"Point","coordinates":[18.4200382232666,44.8819307338688]}},{"type":"Feature","properties":{"type":"damaged","desc":"Gračanica, crkva Vaznesenja Gospodnjeg, osvećena 1925 godine, oštećena od starne muslimana granatiranjem","object":"crkva","time0":"1.1.1993","koor":"","date0":"ne","subtype":"mined"},"geometry":{"type":"Point","coordinates":[18.310770392417904,44.70760709628317]}},{"type":"Feature","properties":{"object":"dom","time0":"1.1.1993","koor":"ne","date0":"ne","desc":"Gračanica, parohijski dom podignut 1926 miniran i dignut u vazduh","subtype":"mined","type":"destroyed"},"geometry":{"type":"Point","coordinates":[18.31118881702423,44.70762997142565]}},{"type":"Feature","properties":{"type":"destroyed","time0":"4.6.1992","object":"crkva","subtype":"mined","desc":"Derventa, crkva Uspenja Presvete Bogorodice iz 1885 godine, muslimani i hrvati porušili do temelja"},"geometry":{"type":"Point","coordinates":[17.90614441037178,44.97722794598078]}},{"type":"Feature","properties":{"koor":"","time0":"4.6.1992","object":"dom","type":"destroyed","subtype":"mined","desc":"Derventa, parohijski dom iz 1936. godine uništen"},"geometry":{"type":"Point","coordinates":[17.906715720891953,44.97712169361958]}},{"type":"Feature","properties":{"desc":"Dubnica, crkva Cetih Joakima i ane, osvećena 1912 godine, spaljena od strane muslimana ","object":"crkva","time0":"1.1.1992","subtype":"burned","type":"destroyed","koor":"","date0":"ne"},"geometry":{"type":"Point","coordinates":[18.864437341690063,44.4560998329985]}},{"type":"Feature","properties":{"desc":"Dubnica, parohijski dom, spaljen","object":"dom","time0":"1.1.1992","subtype":"burned","type":"destroyed","koor":"ne","date0":"ne"},"geometry":{"type":"Point","coordinates":[18.864142298698425,44.4560079356459]}},{"type":"Feature","properties":{"desc":"Dubnica, svetosavski dom, spaljen","object":"dom","time0":"1.1.1992","subtype":"burned","type":"destroyed","date0":"ne","koor":"ne"},"geometry":{"type":"Point","coordinates":[18.864839673042297,44.455732242720444]}},{"type":"Feature","properties":{"desc":"Drinjača, crkva Svetog mučenika đakona Avakima Srbskog, oštećena granatiranjem u periodu 1991-1995","object":"crkva","time0":"1.1.1992","date0":"ne","subtype":"mined","type":"damaged"},"geometry":{"type":"Point","coordinates":[19.14346218109131,44.28195597713221]}},{"type":"Feature","properties":{"date0":"ne","type":"damaged","subtype":"mined","desc":"Drinjača, parohijski dom. oštećen granatiranjem","object":"dom","time0":"1.1.1992"},"geometry":{"type":"Point","coordinates":[19.143510460853577,44.281829241989755]}},{"type":"Feature","properties":{"desc":"Donja Dubica, crkva Uspenja Presvete Bogorodice podignuta 1968 godine na temeljima stare crkve koja je osvećena 1911 godine, zapaljena","subtype":"burned","type":"damaged","object":"crkva","time0":"21.6.1992","date0":""},"geometry":{"type":"Point","coordinates":[18.388385474681854,45.0696772005861]}},{"type":"Feature","properties":{"desc":"Donja Dubica, parohijski dom znatno oštećen","type":"damaged","subtype":"ruined","object":"dom","time0":"21.6.1992"},"geometry":{"type":"Point","coordinates":[18.388162851333618,45.06953891649528]}},{"type":"Feature","properties":{"desc":"Donja Jasenica, crkva Svetih apostola Petra i Pavla, opljačaka i oštećena","time0":"1.1.1992","object":"crkva","type":"damaged","subtype":"ruined"},"geometry":{"type":"Point","coordinates":[18.617963790893555,44.66480713463005]}}]}