{"type":"FeatureCollection","features":[{"type":"Feature","properties":{"desc":"damaged","type":"ruined","subtype":"Zagreb, crkva Preobraženja Gospodnjeg, iz 1794 godine, oštećena","object":"crkva","time0":"1.1.1991","date0":"ne"},"geometry":{"type":"Point","coordinates":[15.974015146493912,45.812619981512505]}},{"type":"Feature","properties":{"desc":"damaged","type":"ruined","subtype":"Zagreb,  crkva Preobraženja Gospodnjeg, iz 1794 godine, oštećena","koor":"","date0":"","time0":"24.8.1997","object":"crkva"},"geometry":{"type":"Point","coordinates":[15.9739950299263,45.81257885208064]}},{"type":"Feature","properties":{"desc":"destroyed","type":"mined","subtype":"Zagreb, mitropolijska rezidencija, miniranjem potpuno uništena ","time0":"11.4.1992","date0":"","object":"dom"},"geometry":{"type":"Point","coordinates":[15.974821150302887,45.81207875314983]}},{"type":"Feature","properties":{"desc":"damaged","type":"ruined","subtype":"Zagreb, ženski manastir Svete Petke, iz 1866 godine, provaljen u periodu 1991-1992 godine","object":"crkva","time0":"1.1.1992","koor":"ne"},"geometry":{"type":"Point","coordinates":[15.937981009483337,45.82637046493933]}},{"type":"Feature","properties":{"desc":"damaged","object":"crkva","type":"ruined","time0":"1.1.1992","subtype":"Bjelovar, crkva Svete Trojice,podignuta u vremenu 1784-1792, izlomljena, oštećena","koor":"ne"},"geometry":{"type":"Point","coordinates":[16.84041291475296,45.89848892618166]}},{"type":"Feature","properties":{"object":"dom","type":"mined","desc":"damaged","time0":"1.1.1993","subtype":"Bjelovar, parohijski dom, miniran","koor":"ne","date0":""},"geometry":{"type":"Point","coordinates":[16.839948892593384,45.89849079281598]}},{"type":"Feature","properties":{"desc":"destroyed","date0":"ne","koor":"ne","time0":"1.1.1992","object":"crkva","subtype":"Bolč, crkva Svetih arhangela Mihaila i Gavrila, iz 1795 godine, miniranjem srušena","type":"mined"},"geometry":{"type":"Point","coordinates":[16.676622480154037,45.879750356138565]}},{"type":"Feature","properties":{"type":"mined","subtype":"Varaždin, crkva Svetog Georgija, iz 1884 godine","time0":"1.10.1992","date0":"","koor":"ne","object":"crkva","desc":"damaged"},"geometry":{"type":"Point","coordinates":[16.339051723480225,46.31012402957944]}},{"type":"Feature","properties":{"desc":"damaged","type":"mined","subtype":"Velika Mučna, crkva Svetog arhangela Mihaila, podignuta 1740 godine","time0":"24.12.1992","object":"crkva","date0":"","koor":""},"geometry":{"type":"Point","coordinates":[16.746543645858765,46.11961081750117]}},{"type":"Feature","properties":{"desc":"damaged","type":"ruined","subtype":"Velika Barna, crkva Svetog Marka, oštećena","object":"crkva","time0":"1.1.1992","koor":"ne"},"geometry":{"type":"Point","coordinates":[17.13366150856018,45.735579043334525]}},{"type":"Feature","properties":{"desc":"damaged","koor":"ne","time0":"1.1.1942","object":"crkva","subtype":"Velika Pisanica, crkva Svetog četverodnevnog Lazara, iz 1713 godine, teško  oštećena od strane Hrvata","type":"burned"},"geometry":{"type":"Point","coordinates":[17.06485480070114,45.80179721974926]}},{"type":"Feature","properties":{"koor":"ne","time0":"1.1.1992","object":"crkva","subtype":"Velika Pisanica, obnovljena 1966/67 godine, opljaškana i oštećena","type":"ruined","desc":"damaged"},"geometry":{"type":"Point","coordinates":[17.064916491508484,45.80178413057229]}},{"type":"Feature","properties":{"date0":"ne","koor":"ne","time0":"1.1.1992","object":"dom","desc":"damaged","type":"mined","subtype":"Velika Pisanica, parohijski dom"},"geometry":{"type":"Point","coordinates":[17.064532935619354,45.80153169584325]}}]}