{"type":"FeatureCollection","features":[{"type":"Feature","properties":{"type":"damaged","subtype":"ruined","desc":"Karlovac, saborna crkva Svetog NIkole građena između 1758 i 1787 godine, oštećena u toku ratnih dejstava","object":"crkva","time0":"1.1.1991","koor":"","date0":"ne"},"geometry":{"type":"Point","coordinates":[15.556603074073792,45.49301021040164]}},{"type":"Feature","properties":{"type":"damaged","subtype":"mined","desc":"Karlovac, saborna crkva Svetog NIkole, teško oštećena na pravoslavni Božić","object":"crkva","time0":"7.1.1992","koor":"","date0":""},"geometry":{"type":"Point","coordinates":[15.55655613541603,45.492954743927996]}},{"type":"Feature","properties":{"subtype":"mined","type":"destroyed","desc":"Karlovac, saborna crkva Svetog NIkole, uništena do temelja između 22 i 25 decembra 1993 godine","object":"crkva","time0":"23.12.1993","koor":"","date0":"ne"},"geometry":{"type":"Point","coordinates":[15.556651689112186,45.49303841367238]}},{"type":"Feature","properties":{"type":"destroyed","object":"dom","time0":"25.12.1993","koor":"ne","date0":"","desc":"Karlovac, episkopska zgrada posle proslave rimokatoličkog Božića uništena eksplozijom","subtype":"mined"},"geometry":{"type":"Point","coordinates":[15.556190013885498,45.49323583617209]}},{"type":"Feature","properties":{"type":"damaged","subtype":"ruined","desc":"Blatuša, crkva Prenos moštiju Svetog Nikole, sagrađena 1930 godine, oštećena od strane Hrvata","object":"crkva","time0":"1.1.1991","koor":"","date0":"ne"},"geometry":{"type":"Point","coordinates":[15.882625579833984,45.32848461000842]}},{"type":"Feature","properties":{"desc":"Brđani, crkva Svetog Georgija, podignuta 1888.","subtype":"ruined","type":"damaged","object":"crkva","time0":"1.1.1992","koor":"ne","date0":"ne"},"geometry":{"type":"Point","coordinates":[16.485886573791504,45.38096957259093]}},{"type":"Feature","properties":{"subtype":"ruined","desc":"Brđani, parohijski dom, oštećen","object":"dom","time0":"1.1.1992","koor":"ne","date0":"ne","type":"damaged"},"geometry":{"type":"Point","coordinates":[16.486079692840576,45.38085653514952]}},{"type":"Feature","properties":{"type":"damaged","subtype":"burned","desc":"Brlog, crkva Svetog Save, sagrađena 1740, spaljane i znatno oštećena","object":"crkva","time0":"1.1.1992","koor":"","date0":"ne"},"geometry":{"type":"Point","coordinates":[15.156090259552,44.943599685316954]}},{"type":"Feature","properties":{"type":"damaged","subtype":"ruined","desc":"Buvača, crkva Svetih apostola Petra i Pavla, oštećena","object":"crkva","time0":"1.1.1991","koor":"","date0":"ne"},"geometry":{"type":"Point","coordinates":[15.7670921087265,45.19087268865067]}},{"type":"Feature","properties":{"subtype":"ruined","desc":"Buvača, crkva Svetih apostola Petra i Pavla, teško oštećena","object":"crkva","time0":"1.1.1995","koor":"","date0":"ne","type":"damaged"},"geometry":{"type":"Point","coordinates":[15.76718330383301,45.190884030325925]}},{"type":"Feature","properties":{"type":"damaged","subtype":"mined","desc":"Blinja, crkva Svetog proroka Ilije, podignuta 1873 godine, oštećena granatiranjem","object":"crkva","time0":"1.1.1991","koor":"","date0":"ne"},"geometry":{"type":"Point","coordinates":[16.370508670806885,45.35523642318183]}},{"type":"Feature","properties":{"date0":"ne","koor":"ne","time0":"1.1.1995","object":"crkva","subtype":"burned","type":"destroyed","desc":"Buzeta, crkva brvnara, stara skoro 300 godina, spaljena od strane muslimana u avgustu 1995 godine"},"geometry":{"type":"Point","coordinates":[16.109304428100586,45.245539753625415]}},{"type":"Feature","properties":{"type":"damaged","subtype":"burned","desc":"Buzeta, parohijski dom, spaljen u avgustu 1995 od strane muslimana","object":"dom","time0":"1.1.1995","koor":"ne","date0":"ne"},"geometry":{"type":"Point","coordinates":[16.109604835510254,45.245222490968736]}},{"type":"Feature","properties":{"subtype":"mined","type":"destroyed","desc":"Velika Popina, crkva Svetog proroka Ilije, srušena u periodu 91-95 godine","object":"crkva","time0":"1.1.1992","koor":"","date0":"ne"},"geometry":{"type":"Point","coordinates":[16.03148818016052,44.288945188935145]}},{"type":"Feature","properties":{"date0":"ne","koor":"ne","time0":"1.1.1995","desc":"Veljun, crkva Preobraženja Gospodnjeg, opljačkana i znatno oštećena od strane Hrvata","object":"crkva","subtype":"ruined","type":"destroyed"},"geometry":{"type":"Point","coordinates":[15.567455291748047,45.25609905671118]}}]}