{"type":"FeatureCollection","features":[{"type":"Feature","properties":{"type":"damaged","subtype":"ruined","desc":"Karlovac, saborna crkva Svetog NIkole građena između 1758 i 1787 godine, oštećena u toku ratnih dejstava","object":"crkva","time0":"1.1.1991","koor":"","date0":"ne"},"geometry":{"type":"Point","coordinates":[15.556603074073792,45.49301021040164]}},{"type":"Feature","properties":{"type":"damaged","subtype":"mined","desc":"Karlovac, saborna crkva Svetog NIkole, teško oštećena na pravoslavni Božić","object":"crkva","time0":"7.1.1992","koor":"","date0":""},"geometry":{"type":"Point","coordinates":[15.55655613541603,45.492954743927996]}},{"type":"Feature","properties":{"subtype":"mined","type":"destroyed","desc":"Karlovac, saborna crkva Svetog NIkole, uništena do temelja između 22 i 25 decembra 1993 godine","object":"crkva","time0":"23.12.1993","koor":"","date0":"ne"},"geometry":{"type":"Point","coordinates":[15.556651689112186,45.49303841367238]}},{"type":"Feature","properties":{"type":"destroyed","object":"dom","time0":"25.12.1993","koor":"ne","date0":"","desc":"Karlovac, episkopska zgrada posle proslave rimokatoličkog Božića uništena eksplozijom","subtype":"mined"},"geometry":{"type":"Point","coordinates":[15.556190013885498,45.49323583617209]}},{"type":"Feature","properties":{"type":"damaged","subtype":"ruined","desc":"Blatuša, crkva Prenos moštiju Svetog Nikole, sagrađena 1930 godine, oštećena od strane Hrvata","object":"crkva","time0":"1.1.1991","koor":"","date0":"ne"},"geometry":{"type":"Point","coordinates":[15.882625579833984,45.32848461000842]}},{"type":"Feature","properties":{"desc":"Brđani, crkva Svetog Georgija, podignuta 1888.","subtype":"ruined","type":"damaged","object":"crkva","time0":"1.1.1992","koor":"ne","date0":"ne"},"geometry":{"type":"Point","coordinates":[16.485886573791504,45.38096957259093]}},{"type":"Feature","properties":{"subtype":"ruined","desc":"Brđani, parohijski dom, oštećen","object":"dom","time0":"1.1.1992","koor":"ne","date0":"ne","type":"damaged"},"geometry":{"type":"Point","coordinates":[16.486079692840576,45.38085653514952]}},{"type":"Feature","properties":{"type":"damaged","subtype":"burned","desc":"Brlog, crkva Svetog Save, sagrađena 1740, spaljane i znatno oštećena","object":"crkva","time0":"1.1.1992","koor":"","date0":"ne"},"geometry":{"type":"Point","coordinates":[15.156090259552,44.943599685316954]}},{"type":"Feature","properties":{"type":"damaged","subtype":"ruined","desc":"Buvača, crkva Svetih apostola Petra i Pavla, oštećena","object":"crkva","time0":"1.1.1991","koor":"","date0":"ne"},"geometry":{"type":"Point","coordinates":[15.7670921087265,45.19087268865067]}},{"type":"Feature","properties":{"subtype":"ruined","desc":"Buvača, crkva Svetih apostola Petra i Pavla, teško oštećena","object":"crkva","time0":"1.1.1995","koor":"","date0":"ne","type":"damaged"},"geometry":{"type":"Point","coordinates":[15.76718330383301,45.190884030325925]}},{"type":"Feature","properties":{"type":"damaged","subtype":"mined","desc":"Blinja, crkva Svetog proroka Ilije, podignuta 1873 godine, oštećena granatiranjem","object":"crkva","time0":"1.1.1991","koor":"","date0":"ne"},"geometry":{"type":"Point","coordinates":[16.370508670806885,45.35523642318183]}},{"type":"Feature","properties":{"date0":"ne","koor":"ne","time0":"1.1.1995","object":"crkva","subtype":"burned","type":"destroyed","desc":"Buzeta, crkva brvnara, stara skoro 300 godina, spaljena od strane muslimana u avgustu 1995 godine"},"geometry":{"type":"Point","coordinates":[16.109304428100586,45.245539753625415]}},{"type":"Feature","properties":{"type":"damaged","subtype":"burned","desc":"Buzeta, parohijski dom, spaljen u avgustu 1995 od strane muslimana","object":"dom","time0":"1.1.1995","koor":"ne","date0":"ne"},"geometry":{"type":"Point","coordinates":[16.109604835510254,45.245222490968736]}},{"type":"Feature","properties":{"subtype":"mined","type":"destroyed","desc":"Velika Popina, crkva Svetog proroka Ilije, srušena u periodu 91-95 godine","object":"crkva","time0":"1.1.1992","koor":"","date0":"ne"},"geometry":{"type":"Point","coordinates":[16.03148818016052,44.288945188935145]}},{"type":"Feature","properties":{"date0":"ne","koor":"ne","time0":"1.1.1995","desc":"Veljun, crkva Preobraženja Gospodnjeg, opljačkana i znatno oštećena od strane Hrvata","object":"crkva","subtype":"ruined","type":"destroyed"},"geometry":{"type":"Point","coordinates":[15.567455291748047,45.25609905671118]}},{"type":"Feature","properties":{"type":"damaged","time0":"1.8.1995","koor":"","date0":"ne","desc":"Vlahović, crkva Svetog proroka Ilije, sagrađena u 18om vijeku, opljačkana od strane Hrvata","object":"crkva","subtype":"robbed"},"geometry":{"type":"Point","coordinates":[16.189422011375427,45.31045818787728]}},{"type":"Feature","properties":{"type":"damaged","subtype":"ruined","desc":"Glavice, crkva Svete Petke, podignuta 1784 godine, stradala u jesen 1991 godine od strane Hrvata","object":"crkva","time0":"1.10.1991","koor":"","date0":"ne"},"geometry":{"type":"Point","coordinates":[15.257678925991057,44.91846408170393]}},{"type":"Feature","properties":{"type":"damaged","time0":"1.8.1995","koor":"","date0":"ne","subtype":"mined","desc":"Glina, crkva Rođenja Presvete Bogorodice, podignuta sredinom 18 vijeka, Hravti oštetili granatama u avgustu 1995 godine","object":"crkva"},"geometry":{"type":"Point","coordinates":[16.091039925813675,45.33989408860958]}},{"type":"Feature","properties":{"type":"damaged","subtype":"robbed","desc":"Glina, parohijski dom, opljačkan od strane Hrvata i oštećen","object":"dom","time0":"1.8.1995","koor":"ne","date0":"ne"},"geometry":{"type":"Point","coordinates":[16.090899109840393,45.33995795391332]}},{"type":"Feature","properties":{"subtype":"mined","time0":"8.10.1995","koor":"","date0":"ne","desc":"Glinska poljana, crkva Vaznesenja Gospodnjeg, podignuta 1806 godine, uništena od strane Hravata","object":"crkva","type":"destroyed"},"geometry":{"type":"Point","coordinates":[16.15161895751953,45.41863612691861]}},{"type":"Feature","properties":{"type":"destroyed","subtype":"mined","desc":"Gospić, crkva Svetog Georgija, uništena od strane Hrvata u vremenu 91-93","object":"crkva","time0":"1.1.1992","koor":"ne","date0":"ne"},"geometry":{"type":"Point","coordinates":[15.377511978149416,44.54505363619728]}},{"type":"Feature","properties":{"type":"destroyed","subtype":"mined","desc":"Gospić, parohijski dom, uništen od strane Hrvata","object":"dom","time0":"1.1.1992","koor":"ne","date0":"ne"},"geometry":{"type":"Point","coordinates":[15.377281308174133,44.54497334861026]}},{"type":"Feature","properties":{"type":"damaged","subtype":"ruined","desc":"Gornje Dubrave, crkva Svete Petke, oštećena od strane Hrvata","object":"crkva","time0":"1.1.1992","koor":"","date0":"ne"},"geometry":{"type":"Point","coordinates":[15.305888950824738,45.3088321708627]}},{"type":"Feature","properties":{"subtype":"ruined","object":"crkva","time0":"1.1.1992","date0":"ne","desc":"Dvor na Uni, crkva Svetog velikomučenika Georgija","type":"damaged"},"geometry":{"type":"Point","coordinates":[16.37757897377014,45.07073989318766]}},{"type":"Feature","properties":{"subtype":"ruined","desc":"Dvor na Uni, parohijski dom, teško oštećen","date0":"ne","koor":"ne","time0":"1.1.1992","object":"dom","type":"damaged"},"geometry":{"type":"Point","coordinates":[16.378061771392822,45.07082324079139]}},{"type":"Feature","properties":{"time0":"1.8.1995","koor":"ne","date0":"ne","desc":"Dvor na Uni, parohijski dom, potpuno uništen","object":"dom","subtype":"mined","type":"destroyed"},"geometry":{"type":"Point","coordinates":[16.3781476020813,45.07080050963878]}},{"type":"Feature","properties":{"type":"damaged","subtype":"burned","desc":"Dragotina, crkva Uspenja Presvete Boogorodice, spaljena od strane Hrvata","object":"crkva","time0":"1.1.1942","koor":"","date0":"ne"},"geometry":{"type":"Point","coordinates":[16.181557774543762,45.2606001369832]}},{"type":"Feature","properties":{"subtype":"ruined","desc":"Dragotina, crkva Uspenja Presvete Boogorodice, oštećena","object":"crkva","time0":"1.8.1995","koor":"","date0":"ne","type":"damaged"},"geometry":{"type":"Point","coordinates":[16.18162214756012,45.26057370550635]}},{"type":"Feature","properties":{"date0":"ne","object":"crkva","time0":"1.8.1995","subtype":"ruined","desc":"Donji Budački, crkva Svetih apostola Petra i Pavla, oštećena","type":"damaged"},"geometry":{"type":"Point","coordinates":[15.598880052566527,45.36689844256823]}},{"type":"Feature","properties":{"koor":"ne","date0":"ne","object":"dom","time0":"1.8.1995","subtype":"ruined","type":"damaged","desc":"Donji Budački, parohijski dom"},"geometry":{"type":"Point","coordinates":[15.597753524780275,45.36677783928531]}},{"type":"Feature","properties":{"time0":"1.1.1942","koor":"","date0":"ne","object":"crkva","subtype":"burned","type":"damaged","desc":"Donji Budački, crkva Svetih apostola Petra i Pavla, od strane Hrvata spaljena"},"geometry":{"type":"Point","coordinates":[15.59884786605835,45.36689844256823]}}]}