{"type":"FeatureCollection","features":[{"type":"Feature","properties":{"type":"damaged","subtype":"ruined","desc":"Tuzla, crkva Uspenja Presvete Bogorodice osvećena 28.8.1882, oštećen krov i fasada tokom 1992 od strane muslimanske vojske","object":"crkva","time0":"1.1.1992","koor":"","date0":"ne"},"geometry":{"type":"Point","coordinates":[18.68004083633423,44.537838780951034]}},{"type":"Feature","properties":{"desc":"Tuzla, eparhijski dvor je granatiran od strane muslimanske vojske 1992 godine i odnnijet je dio crkvenih dragocjenosti","object":"dom","time0":"1.1.1992","koor":"","date0":"ne","subtype":"mined","type":"damaged"},"geometry":{"type":"Point","coordinates":[18.679336756467816,44.537969742172855]}},{"type":"Feature","properties":{"type":"damaged","subtype":"mined","desc":"Tuzla, crkva Svetog velikomučenika Georgija, osvećena 14.10.1900, oštećena granatama","object":"crkva","time0":"1.1.1992","date0":"ne"},"geometry":{"type":"Point","coordinates":[18.689058423042297,44.53815614632362]}},{"type":"Feature","properties":{"type":"damaged","desc":"Ajdinovići, crkva Svetog velikomučenika Prokopija u periodu 91-95 zapaljena granatama","object":"crkva","time0":"1.1.1992","koor":"","date0":"ne","subtype":"burned"},"geometry":{"type":"Point","coordinates":[18.554052114486694,44.0761246844085]}},{"type":"Feature","properties":{"type":"damaged","subtype":"mined","desc":"Boljanić, crkva Svete Trojice (Silazak Svetog Duha), osvećena je 1905 godine a u periodu 92-95 oštečena gelerima od granata","object":"crkva","time0":"1.1.1992","date0":"ne"},"geometry":{"type":"Point","coordinates":[18.22208046913147,44.68167612394233]}},{"type":"Feature","properties":{"desc":"Blatnica, crkva Svetog velikomučenika Kneza Lazara Srbskog, osvećena 28.6.1973 oćtećena gelerima granata između 91-95","object":"crkva","time0":"1.1.1992","koor":"","date0":"ne","type":"damaged","subtype":"ruined"},"geometry":{"type":"Point","coordinates":[17.816235423088074,44.48524696714878]}},{"type":"Feature","properties":{"desc":"Bijela, crkva Vaznesenja Gospodnjeg, osvećena 14.10.1936, zapaljena pa srušena.","object":"crkva","time0":"1.1.1992","koor":"","date0":"ne","type":"destroyed","subtype":"mined"},"geometry":{"type":"Point","coordinates":[18.563319146633148,44.78771182464668]}},{"type":"Feature","properties":{"type":"destoyed","object":"dom","time0":"1.1.1992","subtype":"mined","desc":"Bijela, parohijski dom srušen","date0":"ne"},"geometry":{"type":"Point","coordinates":[18.56351226568222,44.78758428181005]}},{"type":"Feature","properties":{"desc":"Brod, crkva Pokrova Presvete Bogorodice, osvećena 1890 godine uništena do temelja","subtype":"mined","type":"destroyed","object":"crkva","time0":"1.1.1992","date0":"ne"},"geometry":{"type":"Point","coordinates":[17.99525946378708,45.14587571731588]}},{"type":"Feature","properties":{"type":"demaged","subtype":"mined","desc":"Brod, parohijski dom posle plaške granatiran","object":"dom","time0":"1.1.1992","koor":"","date0":"ne"},"geometry":{"type":"Point","coordinates":[17.995570600032806,45.14574896836692]}},{"type":"Feature","properties":{"type":"destroyed","subtype":"mined","desc":"Lužani, crkva Svih Svetih, podignuta 1982 godine na temeljima stare iz 1883 godine, minirana i srušena do temelja za pravoslavni Vaskrs","object":"crkva","time0":"1.1.1992","date0":"ne"},"geometry":{"type":"Point","coordinates":[17.996034622192383,45.02370489563228]}},{"type":"Feature","properties":{"desc":"Lužani, stari hram Crkva Svetih apostola Petra i Pavla sagrađena 1928 godin , Hrvati porušili za Vasrks 1992 godine","object":"crkva","time0":"1.1.1992","date0":"ne","subtype":"mined","type":"destroyed"},"geometry":{"type":"Point","coordinates":[17.995828092098236,45.0238243323781]}},{"type":"Feature","properties":{"desc":"Lužani - Polje, crkva Svetih apostola Petra i Pavla, podignuta 1935 na Božić 1993 goodine","object":"crkva","time0":"1.1.1993","date0":"ne","subtype":"mined","type":"destroyed"},"geometry":{"type":"Point","coordinates":[17.95565128326416,44.98642846396161]}},{"type":"Feature","properties":{"desc":"Lužani, parohijski dom uništen, ostali samo zidovi","object":"dom","time0":"1.1.1992","koor":"ne","date0":"ne","type":"damaged","subtype":"ruined"},"geometry":{"type":"Point","coordinates":[17.995718121528625,45.023701103985466]}},{"type":"Feature","properties":{"desc":"Miloševac, crkva Svetog Nikole sagrađena 1906 godine oštećena granatama u periodu 1991-1993","time0":"1.1.1992","object":"crkva","date0":"ne","subtype":"mined","type":"damaged"},"geometry":{"type":"Point","coordinates":[18.3940851688385,44.992225578138196]}},{"type":"Feature","properties":{"desc":"Šamac, crkva Svetog velikomučenika Dimitrija sagrađena 1937 godine, u periodu 91-92 oštećena gelerima granata","object":"crkva","time0":"1.1.1992","koor":"","date0":"ne","type":"damaged","subtype":"mined"},"geometry":{"type":"Point","coordinates":[18.4654238820076,45.06040005913832]}},{"type":"Feature","properties":{"type":"damaged","subtype":"mined","desc":"Šamac, parohijski dom oštećen gelerima granata u vremenu 91-95","object":"dom","time0":"1.1.1992","koor":"","date0":"ne"},"geometry":{"type":"Point","coordinates":[18.465584814548492,45.06070319557684]}},{"type":"Feature","properties":{"desc":"Šamac, crkva Svetog kneza Lazara u proleđe 1992 srušena. Prva crkva koja je srušena u bivšoj Bosni i Hercegovini","object":"crkva","time0":"1.1.1992","date0":"ne","type":"destroyed","subtype":"mined"},"geometry":{"type":"Point","coordinates":[18.46041351556778,45.05215413161462]}},{"type":"Feature","properties":{"type":"destroyed","subtype":"mined","desc":"Bukvik, crkva Svetog proroka Ilije, sagrađena 1903 godine srušena u periodu 91-93","object":"crkva","time0":"1.1.1992","date0":"ne"},"geometry":{"type":"Point","coordinates":[18.669966459274292,44.841066616279136]}},{"type":"Feature","properties":{"type":"destroyed","subtype":"mined","desc":"Bukvik, parohijski dom podignut 1971, srušen u periodu 91-93","object":"dom","time0":"1.1.1992","koor":"","date0":"ne"},"geometry":{"type":"Point","coordinates":[18.670006692409515,44.841338581889126]}},{"type":"Feature","properties":{"type":"damaged","subtype":"mined","desc":"Brčko, crkva Uspenja Presvete Bogorodice osvećena 26.9.1971 godine, oštećena fasada od metaka i gelera granata tokom 92-95 godine","object":"crkva","time0":"1.1.1992","date0":"ne"},"geometry":{"type":"Point","coordinates":[18.807896375656124,44.86449659257454]}},{"type":"Feature","properties":{"koor":"ne","date0":"ne","time0":"1.1.1992","object":"dom","desc":"Brčko, parohijski dom sagrađen 1973. godine, oštećen krov tokom 92-95","subtype":"mined","type":"damaged"},"geometry":{"type":"Point","coordinates":[18.80881905555725,44.8642646593327]}},{"type":"Feature","properties":{"type":"damaged","subtype":"mined","desc":"Vinska, crkva Rođenja Presvete Bogorodice, osvećena 21.9.1933, teško oštećena granatamau vremenu 91-95","object":"crkva","time0":"1.1.1992","koor":"","date0":"ne"},"geometry":{"type":"Point","coordinates":[18.094768077135086,45.064623931113545]}},{"type":"Feature","properties":{"type":"destroyed","subtype":"mined","desc":"Vinska, parohijski dom sagrađen 1971. godine sapqen i porušen","object":"dom","time0":"1.1.1992","koor":"","date0":"ne"},"geometry":{"type":"Point","coordinates":[18.094557523727413,45.06471202379798]}},{"type":"Feature","properties":{"type":"destroyed","subtype":"ruined","desc":"Vinksa, crkva Svetog proroka Ilije, osvećena 1974. godine uništena u razdoblju 91-95","object":"crkva","time0":"1.1.1992","date0":"ne"},"geometry":{"type":"Point","coordinates":[18.09345781803131,45.06775255905524]}},{"type":"Feature","properties":{"type":"damaged","desc":"Visočnik, crkva Uspenja Presvete Bogorodice osvećena 9.8.1939 godine, teško oštećena od strane muslimana","object":"crkva","time0":"16.11.1993","koor":"ne","subtype":"ruined"},"geometry":{"type":"Point","coordinates":[19.381942749023438,44.081912936473316]}},{"type":"Feature","properties":{"type":"damaged","subtype":"ruined","desc":"Visočnik, oštećen je parohijski dom u periodu 92-95 godine","object":"dom","time0":"1.1.1992","koor":"ne","date0":"ne"},"geometry":{"type":"Point","coordinates":[19.381513595581055,44.08182045221025]}}]}