{"type":"FeatureCollection","features":[{"type":"Feature","properties":{"type":"damaged","subtype":"ruined","desc":"Bijelo Polje, crkva Prenosa moštiju Svetoga Nikole, podignuta 1764","object":"crkva","time0":"1.1.1942","koor":"-","date0":"ne"},"geometry":{"type":"Point","coordinates":[18.874189853668213,45.52022167661917]}},{"type":"Feature","properties":{"desc":"Bijelo Polje, crkva Prenosa moštiju Svetoga Nikole, znatno oštećena ","object":"crkva","subtype":"ruined","type":"damaged","time0":"1.1.1992","date0":"ne"},"geometry":{"type":"Point","coordinates":[18.87424886226654,45.520210400759034]}},{"type":"Feature","properties":{"object":"kapela","time0":"1.1.1992","koor":"","date0":"ne","type":"damaged","subtype":"ruined","desc":"Beli Manastir, kapela"},"geometry":{"type":"Point","coordinates":[18.618079125881195,45.76861937623492]}},{"type":"Feature","properties":{"type":"damaged","subtype":"ruined","desc":"Borovo Selo, crkva Svetog arhiđakona Stefana","object":"crkva","time0":"1.1.1992","date0":"ne"},"geometry":{"type":"Point","coordinates":[18.981263637542725,45.403128080951504]}},{"type":"Feature","properties":{"type":"damaged","subtype":"ruined","desc":"Borovo Selo, parohijski dom","object":"dom","time0":"1.1.1992","koor":"","date0":"ne"},"geometry":{"type":"Point","coordinates":[18.980925679206848,45.402928459599]}},{"type":"Feature","properties":{"desc":"Bolman, crkva Svetih apostola Petra i Pavla, iz 18og vijeka, Hrvati oštetili granatiranjem","object":"crkva","time0":"1.1.1992","date0":"ne","subtype":"ruined","type":"damaged"},"geometry":{"type":"Point","coordinates":[18.517150282859802,45.721772446710546]}},{"type":"Feature","properties":{"type":"damaged","subtype":"ruined","desc":"Bračevci, crkva Svetog velikomučenika Dimitrija, sagrađena 1778 godine, opljačkana i izlomljena","object":"crkva","time0":"1.1.1992","date0":"ne"},"geometry":{"type":"Point","coordinates":[18.277323246002197,45.429950019981014]}},{"type":"Feature","properties":{"desc":"Bršadin, crkva Svetog arhanđela Gavrila, sagrađena 1778 godine, opljačkana i oštećena od startne Hrvata","object":"crkva","time0":"1.1.1992","koor":"","date0":"ne","subtype":"ruined","type":"damaged"},"geometry":{"type":"Point","coordinates":[18.90598475933075,45.36127315639576]}},{"type":"Feature","properties":{"type":"damaged","desc":"Budimci, crkva Vaznesenja Gospodnjeg, podignuta 1795 godine, Hrvati oštetili","time0":"1.5.1995","koor":"","date0":"ne","object":"crkva","subtype":"ruined"},"geometry":{"type":"Point","coordinates":[18.32310453057289,45.46106846610576]}},{"type":"Feature","properties":{"type":"destroyed","desc":"Vinkovci, crkva Svete Trojice, podignuta 1794, Hrvati opljačkali, zapalili i minirali Hrvati","object":"crkva","subtype":"mined","time0":"1.10.1991","koor":"","date0":"ne"},"geometry":{"type":"Point","coordinates":[18.8065767288208,45.2882161924333]}},{"type":"Feature","properties":{"type":"damaged","subtype":"mined","desc":"Vukovar, crkva Prenosa moštiju Svetog Nikole, sagrađena 1732-1737, teško oštećena od strane Hrvata","object":"crkva","time0":"1.1.1992","koor":"","date0":"ne"},"geometry":{"type":"Point","coordinates":[19.002337753772736,45.34855908011675]}},{"type":"Feature","properties":{"desc":"Vukovar, crkva Svete Petke, sagrašena 1808-1811 godine, opljačkana i granatirana","object":"crkva","time0":"1.1.1992","koor":"","date0":"ne","subtype":"mined","type":"damaged"},"geometry":{"type":"Point","coordinates":[18.969338536262512,45.35183800375829]}},{"type":"Feature","properties":{"type":"damaged","subtype":"mined","desc":"Vukovar, crkva Svetog Nikole, mauzolej porodice Paunović, Hrvati granatiranjem, teško oštetili","object":"crkva","time0":"1.1.1992","koor":"","date0":"ne"},"geometry":{"type":"Point","coordinates":[19.00283396244049,45.34474835332179]}},{"type":"Feature","properties":{"koor":"ne","date0":"ne","time0":"1.1.1992","desc":"Vukovar, kapela Vaskrsenja Hristovog, na groblju, Hrvati tešk ooštetili granatiranjem","subtype":"mined","type":"damaged","object":"kapela"},"geometry":{"type":"Point","coordinates":[19.001924693584442,45.345834196242635]}},{"type":"Feature","properties":{"desc":"Gaboš, crkva Rođenja Presvete Bogorodice, iz 1810 godine, Hrvati je tokom 1992 godine granatiranjem znatno oštetili","subtype":"mined","type":"damaged","object":"crkva","time0":"1.1.1992","date0":"ne"},"geometry":{"type":"Point","coordinates":[18.737128973007202,45.352644746308734]}},{"type":"Feature","properties":{"desc":"Gaboš, parohijski dom","subtype":"mined","type":"damaged","object":"dom","time0":"1.1.1992","koor":"ne","date0":"ne"},"geometry":{"type":"Point","coordinates":[18.7375608086586,45.352622127515424]}},{"type":"Feature","properties":{"desc":"Tovarnik, crkva Svetog velikomučenika Georgija, sagrađena između 1797 i 1799, teško oštećena granatirawem od strane Hrvata","object":"crkva","time0":"1.1.1992","koor":"","date0":"ne","subtype":"mined","type":"damaged"},"geometry":{"type":"Point","coordinates":[19.15395766496658,45.164417753954815]}},{"type":"Feature","properties":{"type":"damaged","object":"crkva","desc":"Petrovci, crkva Vaznesenja Gospodnjeg, iz 1769 godine, Hrvati granatama napravili velika oštećenja a prethodno opljačkali","time0":"1.1.1992","koor":"","date0":"ne","subtype":"mined"},"geometry":{"type":"Point","coordinates":[18.94602343440056,45.28718113953224]}},{"type":"Feature","properties":{"type":"damaged","subtype":"ruined","desc":"Petrovci, parohijski dom","object":"dom","time0":"1.1.1992","koor":"ne","date0":"ne"},"geometry":{"type":"Point","coordinates":[18.946401625871655,45.2870377214144]}},{"type":"Feature","properties":{"subtype":"mined","type":"damaged","desc":"Darda, crkva Svetog arhangela Mihaila, oštetili Hrvati granatama ","object":"crkva","time0":"1.1.1992","koor":"","date0":"ne"},"geometry":{"type":"Point","coordinates":[18.68794195353985,45.62520985104111]}},{"type":"Feature","properties":{"desc":"Dalj, crkva Svetog Dimitrija, sagrađena 1799 godine, granatirali Hrvati i znatno oštetili","time0":"1.1.1992","object":"crkva","date0":"ne","type":"damaged","subtype":"mined"},"geometry":{"type":"Point","coordinates":[18.986442983150482,45.48422890541399]}},{"type":"Feature","properties":{"desc":"Dalj, parohijski dom","object":"dom","time0":"1.1.1992","date0":"ne","koor":"ne","type":"damaged","subtype":"mined"},"geometry":{"type":"Point","coordinates":[18.98708939552307,45.484315408884285]}},{"type":"Feature","properties":{"type":"damaged","subtype":"ruined","desc":"Dopsin, crkva Svetih apostola Petra i Pavla, iz 1764, opljačkana i izlomljena","object":"crkva","time0":"1.1.1992","date0":"ne"},"geometry":{"type":"Point","coordinates":[18.55967402458191,45.45088509359664]}},{"type":"Feature","properties":{"type":"destroyed","subtype":"mined","desc":"Erdut, crkva Svetog arhangela Gavrila, iz 1757 godine, Hrvati do temelja srušili","object":"crkva","time0":"1.1.1942","koor":"","date0":"ne"},"geometry":{"type":"Point","coordinates":[19.06205177307129,45.526488825842115]}},{"type":"Feature","properties":{"desc":"Erdut, crkva Svetog arhangela Gavrila, iz 1757 godine, Hrvati do znatno oštetili granatama gađajući je iz neposredne blizine, srušen deo krova i severnog zida, zvonik oštećen","object":"crkva","time0":"25.7.1991","date0":"","type":"damaged","subtype":"mined","koor":""},"geometry":{"type":"Point","coordinates":[19.062032997608185,45.52648788629186]}},{"type":"Feature","properties":{"desc":"Jagodnjak, crkva Svetog Nikole, iz 19og vijeka","object":"crkva","time0":"1.1.1992","koor":"","date0":"ne","subtype":"mined","type":"damaged"},"geometry":{"type":"Point","coordinates":[18.57738733291626,45.69984788690008]}},{"type":"Feature","properties":{"type":"damaged","subtype":"mined","desc":"Novi Jankovci, crkva Svetog proroka Ilije, sagrađena 1794 godine, hrvatska vojska teško oštetila","object":"crkva","time0":"1.1.1992","koor":"","date0":"ne"},"geometry":{"type":"Point","coordinates":[18.895542919635773,45.239932630514225]}},{"type":"Feature","properties":{"desc":"Koprivna, crkva Rođenja Presvete Bogorodice, podignuta u srednjem vijeku, obnovljena 1757 godine, teško oštećena od strane Hrvata ","object":"crkva","time0":"1.1.1992","koor":"","date0":"ne","subtype":"ruined","type":"damaged"},"geometry":{"type":"Point","coordinates":[18.60780894756317,45.40431072883583]}},{"type":"Feature","properties":{"type":"damaged","subtype":"ruined","desc":"Kneževo, crkva Svetog velikomučenika Georgija, zadužbina kralja Aleksandra","object":"crkva","time0":"1.1.1992","koor":"","date0":"ne"},"geometry":{"type":"Point","coordinates":[18.64557445049286,45.83965133604371]}},{"type":"Feature","properties":{"desc":"Marinci, crkva Svetog velikomučenika GEorgija, podignuta 1758 godine, opljačkana i teško oštećena od strane Hrvata tokom 91 godine","object":"crkva","time0":"1.1.1992","date0":"ne","type":"damaged","subtype":"mined"},"geometry":{"type":"Point","coordinates":[18.902307450771332,45.33921701769374]}},{"type":"Feature","properties":{"desc":"Markušica, crkva Silaska Svetog Duha, iz 1810 godine","time0":"9.11.1991","object":"crkva","subtype":"mined","type":"damaged"},"geometry":{"type":"Point","coordinates":[18.706626892089844,45.373631089832536]}},{"type":"Feature","properties":{"time0":"8.4.1992","object":"crkva","desc":"Markušica, crkva Silaska Svetog Duha, iz 1810 godine","subtype":"mined","type":"damaged"},"geometry":{"type":"Point","coordinates":[18.706699311733246,45.37361413203011]}},{"type":"Feature","properties":{"type":"damaged","object":"crkva","desc":"Mirkovci, crkva Prenosa moštiju Svetog Nikole, sagrađena u vremenu 1809-1813 godine, teško oštećena ","subtype":"mined","time0":"1.1.1992","date0":"ne"},"geometry":{"type":"Point","coordinates":[18.850441575050354,45.27105093368759]}},{"type":"Feature","properties":{"object":"dom","desc":"Mirkovci, parohijski dom","type":"damaged","subtype":"mined","time0":"1.1.1992","date0":"ne"},"geometry":{"type":"Point","coordinates":[18.85082647204399,45.27105942795289]}},{"type":"Feature","properties":{"date0":"ne","desc":"Mikluševci, crkva Prenosa moštiju Svetog NIkole, iz 1758 godine, opljačkana i oštećena","object":"crkva","time0":"1.1.1992","subtype":"mined","type":"damaged"},"geometry":{"type":"Point","coordinates":[19.08399224281311,45.25072712440275]}},{"type":"Feature","properties":{"date0":"ne","koor":"ne","time0":"1.1.1992","object":"dom","desc":"Mikluševci, parohijski dom","subtype":"mined","type":"destroyed"},"geometry":{"type":"Point","coordinates":[19.08425845205784,45.250610050273174]}},{"type":"Feature","properties":{"time0":"1.1.1992","desc":"Negoslavci, crkva Uspenja Presvete Bogorodice, iz 1758 godine","date0":"ne","object":"crkva","type":"damaged","subtype":"mined"},"geometry":{"type":"Point","coordinates":[18.997887969017025,45.27844801340535]}},{"type":"Feature","properties":{"desc":"Negoslavci, parohijski dom","object":"dom","time0":"1.1.1992","date0":"ne","koor":"ne","type":"damaged","subtype":"mined"},"geometry":{"type":"Point","coordinates":[18.99793893098831,45.278793400811665]}},{"type":"Feature","properties":{"desc":"Negoslavci, crkva Rođenja Svetog Jovana Preteče, iz 1708 godine","time0":"1.1.1992","date0":"ne","object":"crkva","type":"damaged","subtype":"mined"},"geometry":{"type":"Point","coordinates":[18.994528502225876,45.275142190972424]}},{"type":"Feature","properties":{"desc":"Osijek, kapela Pokrova Presvete Bogorodicem iz 1948 godine, opljaškana i granatama znatno oštećena","object":"kapela","time0":"1.1.1992","date0":"ne","subtype":"mined","type":"damaged","koor":"ne"},"geometry":{"type":"Point","coordinates":[18.718652576208115,45.55939352075655]}},{"type":"Feature","properties":{"desc":"Osijek, kapela Prenosa mođtiju Svetog Nikole, iz 1892 godine, opljačkana, i izlomljena","time0":"1.1.1992","date0":"ne","object":"kapela","type":"damaged","subtype":"ruined"},"geometry":{"type":"Point","coordinates":[18.731287121772766,45.560041427368716]}},{"type":"Feature","properties":{"desc":"Osijek, crkva Uspenja Presvete Bogorodice, obnovljena 1966-1979, pljačkana, granatirana, minirana","time0":"1.1.1992","date0":"ne","object":"crkva","type":"damaged","subtype":"mined"},"geometry":{"type":"Point","coordinates":[18.71858686208725,45.55925454851008]}},{"type":"Feature","properties":{"object":"dom","desc":"Osijek, parohijski dom","time0":"1.1.1992","date0":"ne","subtype":"ruined","type":"damaged"},"geometry":{"type":"Point","coordinates":[18.71885374188423,45.55935877772716]}},{"type":"Feature","properties":{"desc":"Osijek, crkva Uspenja Presvete Bogorodice, iz 1743 godine, Hrvati srušili do temelja","time0":"1.1.1942","date0":"ne","subtype":"mined","type":"destroyed","object":"crkva"},"geometry":{"type":"Point","coordinates":[18.718621730804443,45.559253609507266]}},{"type":"Feature","properties":{"type":"damaged","object":"crkva","time0":"1.1.1992","desc":"Ostrovo, crkva Rođenja Svetog Jovana Preteče, građena u vremenu 1810-1815 godine, opljačkana a krov i toranj oštećeni granatama","subtype":"mined","date0":"ne"},"geometry":{"type":"Point","coordinates":[18.79033327102661,45.33914160379443]}},{"type":"Feature","properties":{"type":"damaged","object":"dom","time0":"1.1.1992","subtype":"ruined","desc":"Ostrovo, parohijski dom","date0":"ne"},"geometry":{"type":"Point","coordinates":[18.790389597415924,45.339057705713394]}},{"type":"Feature","properties":{"type":"destroyed","object":"kapela","time0":"1.10.1992","subtype":"mined","desc":"Ostrovo, kapela na gorblju, iz 19og vijeka, hrvatska vojska porušila","date0":"ne"},"geometry":{"type":"Point","coordinates":[18.800571262836456,45.33710916137773]}}]}