{"type":"FeatureCollection","features":[{"type":"Feature","properties":{"type":"damaged","subtype":"ruined","desc":"Babići, crkva Svetog velikomučenika Prokopija j eoštećena, crkvena zvona ukradena ","object":"crkva","time0":"1.1.1992","koor":"ne","date0":"ne"},"geometry":{"type":"Point","coordinates":[17.196215987205505,44.19127056780925]}},{"type":"Feature","properties":{"object":"dom","time0":"1.1.1992","koor":"ne","date0":"ne","desc":"Babići, parohijski dom oštećen i opljačkan","subtype":"ruined","type":"damaged"},"geometry":{"type":"Point","coordinates":[17.196323275566098,44.1912609518636]}},{"type":"Feature","properties":{"type":"damaged","subtype":"ruined","desc":"Bastasi, crkva Svetog proroka Ilije, 1995 godine od strane Hrvata provaljena i oštećena","object":"crkva","time0":"1.1.1992","date0":"ne"},"geometry":{"type":"Point","coordinates":[16.32197678089142,44.3967672572238]}},{"type":"Feature","properties":{"type":"damaged","subtype":"ruined","desc":"Baraći, crkva Svetih apostola Petra i Pavla, provaljena i oštećena od strane Hrvata 95/96 godine","object":"crkva","time0":"1.1.1996","koor":"","date0":"ne"},"geometry":{"type":"Point","coordinates":[16.9551819562912,44.32828814099866]}},{"type":"Feature","properties":{"subtype":"mined","desc":"Benakovac, crkva Svetog kneza Lazara, opljačkana i razorena 1995 godine","object":"crkva","time0":"1.1.1995","koor":"","date0":"ne","type":"destroyed"},"geometry":{"type":"Point","coordinates":[16.303389072418213,44.79966343164249]}},{"type":"Feature","properties":{"object":"crkva","time0":"1.1.1992","date0":"ne","subtype":"mined","type":"destroyed","desc":"Bihać, crka Svete Trojice, u izgradnji, muslimani potpuno razorili"},"geometry":{"type":"Point","coordinates":[15.870676338672638,44.80813407816054]}},{"type":"Feature","properties":{"koor":"ne","object":"dom","time0":"1.1.1992","date0":"ne","type":"damaged","subtype":"ruined","desc":"Bihać, parohijski dom, muslimani oštetili"},"geometry":{"type":"Point","coordinates":[15.87036520242691,44.808335790369384]}},{"type":"Feature","properties":{"koor":"ne","object":"kapela","time0":"1.1.1992","date0":"ne","type":"destroyed","subtype":"mined","desc":"Bihać, kapelu pri parohijskom domu uništili muslimani"},"geometry":{"type":"Point","coordinates":[15.870499312877655,44.80845567559326]}},{"type":"Feature","properties":{"type":"destroyed","subtype":"mined","desc":"Bjelaj, crkva Svetog velikomučenika Georgija, muslimani su uništili 1995 godine","object":"crkva","time0":"1.1.1995","koor":"","date0":"ne"},"geometry":{"type":"Point","coordinates":[16.196579486131668,44.59257304604501]}},{"type":"Feature","properties":{"time0":"1.1.1995","koor":"ne","date0":"ne","desc":"Bjelaj, parohijski dom, značajno oštećen od strane muslimana","subtype":"burned","type":"damaged","object":"dom"},"geometry":{"type":"Point","coordinates":[16.195902228355408,44.59245748809942]}},{"type":"Feature","properties":{"type":"damaged","subtype":"mined","desc":"Bosanska Bojna, crkva Svetog Preobraženja u Gradini, u više navrata granatirana i pretrpjela velika oštećenja","object":"crkva","time0":"1.1.1992","koor":"ne","date0":"ne"},"geometry":{"type":"Point","coordinates":[16.025919914245605,45.17226173647514]}},{"type":"Feature","properties":{"koor":"ne","date0":"ne","time0":"1.1.1992","object":"dom","desc":"Bosanska Bojna, parohijski dom spaljen pa potpuno uništen","subtype":"mined","type":"destroyed"},"geometry":{"type":"Point","coordinates":[16.02578043937683,45.171951628456966]}},{"type":"Feature","properties":{"type":"damaged","subtype":"ruined","desc":"Bosanski Doljani, crkva Svete Trojice, oštećena","object":"crkva","time0":"1.1.1992","koor":"","date0":"ne"},"geometry":{"type":"Point","coordinates":[15.98841726779938,44.68171235913561]}},{"type":"Feature","properties":{"type":"damaged","subtype":"ruined","desc":"Bosanski Milanovac, crkva Rođenja Presvete Bogorodice, od strane muslimana značajno oštećena tokom septembra, oktobra 1995","object":"crkva","time0":"1.10.1995.","koor":"","date0":"ne"},"geometry":{"type":"Point","coordinates":[16.540623754262924,44.76433822653531]}},{"type":"Feature","properties":{"subtype":"burned","type":"damaged","desc":"Bravsko, crkva Svetog proroka Ilije, spaljena od strane muslimana 1995. godine","object":"crkva","time0":"1.1.1995","koor":"","date0":"ne"},"geometry":{"type":"Point","coordinates":[16.580944061279297,44.55239757043476]}},{"type":"Feature","properties":{"subtype":"ruined","type":"damaged","desc":"Bukovača, crkva Rođenja Presvete Bogorodice, oštećena","object":"crkva","time0":"1.1.1995","koor":"","date0":"ne"},"geometry":{"type":"Point","coordinates":[16.42595797777176,44.51392051570827]}},{"type":"Feature","properties":{"subtype":"burned","desc":"Budimlić Japra, crkva Vaznesenja Gospodnjeg, muslimani spalili 1995 godine","object":"crkva","time0":"1.1.1995","koor":"","date0":"ne","type":"damaged"},"geometry":{"type":"Point","coordinates":[16.42769604921341,44.88705428737926]}},{"type":"Feature","properties":{"type":"damaged","subtype":"burned","desc":"Budimlić Japra, parohijski dom, oštećen","object":"dom","time0":"1.1,1995","koor":"ne","date0":"ne"},"geometry":{"type":"Point","coordinates":[16.42808496952057,44.88688895728057]}},{"type":"Feature","properties":{"type":"destroyed","subtype":"mined","desc":"Velika Rujiška, crkva Rođenja Presvete Bogorodice, uništena od strane muslimana 1995 godine","object":"crkva","time0":"1.1.1995","koor":"","date0":"ne"},"geometry":{"type":"Point","coordinates":[16.326370239257812,44.93582300822046]}},{"type":"Feature","properties":{"object":"dom","time0":"1.1.1995","koor":"ne","date0":"ne","subtype":"burned","desc":"Velika Rujiška, parohijski dom, spaljen od strane muslimana","type":"damaged"},"geometry":{"type":"Point","coordinates":[16.325243711471558,44.93633946083429]}},{"type":"Feature","properties":{"subtype":"ruined","desc":"Velika Kladuša, crka Svetog velikomučenika Georgija, oštećena","object":"crkva","time0":"1.1.1995","koor":"","date0":"ne","type":"damaged"},"geometry":{"type":"Point","coordinates":[15.805925130844116,45.18482536364232]}},{"type":"Feature","properties":{"type":"damaged","subtype":"ruined","desc":"Vođenica, crkva Uspenja Presvete Bogorodice, u razdoblju 91-95, skinut krov, zvona odneta, opljačkana i oštećena","object":"crkva","time0":"1.1.1995","koor":"","date0":"ne"},"geometry":{"type":"Point","coordinates":[16.276427507400513,44.638895170660525]}},{"type":"Feature","properties":{"object":"crkva","time0":"1.1.1995","koor":"ne","date0":"ne","desc":"Vranjska, crka, spaljena od strane muslimana u vremenu 91-95","subtype":"burned","type":"damaged"},"geometry":{"type":"Point","coordinates":[16.129775047302246,44.84305973307571]}},{"type":"Feature","properties":{"type":"damaged","object":"crkva","time0":"1.1.1995","date0":"ne","desc":"Vrbljani, crkva Uspenja Presvete Bogorodice, Hrvati su oštetili","subtype":"ruined"},"geometry":{"type":"Point","coordinates":[16.81560516357422,44.35183752487445]}},{"type":"Feature","properties":{"object":"dom","time0":"1.1.1995","date0":"ne","desc":"Vrbljani, parohijski dom, oštetili Hrvati","subtype":"ruined","type":"damaged"},"geometry":{"type":"Point","coordinates":[16.81552469730377,44.35170518673534]}},{"type":"Feature","properties":{"type":"damaged","subtype":"burned","desc":"Vrbica, crkva Svete Trojice, Hrvati spalili 1995 godine, nakon pljačke","object":"crkva","time0":"1.1.1995","koor":"","date0":"ne"},"geometry":{"type":"Point","coordinates":[16.704639494419098,43.99726604380042]}},{"type":"Feature","properties":{"type":"destroyed","subtype":"mined","desc":"Vrbica, parohijski dom su Hrvati uništili 1995 godine","object":"dom ","time0":"1.1.1995","koor":"","date0":"ne"},"geometry":{"type":"Point","coordinates":[16.70484870672226,43.996833832299615]}},{"type":"Feature","properties":{"type":"destroyed","subtype":"mined","desc":"Vrelo, crkva Vaznesenja Gospodnjeg, uništena","object":"crkva","time0":"1.1.1995","koor":"","date0":"ne"},"geometry":{"type":"Point","coordinates":[15.873701870441437,44.92461560214435]}},{"type":"Feature","properties":{"subtype":"ruined","desc":"Vrtoče, crkva Svetog proroka Ilije u vremenu 1991-1995, srušen zvonik i crkva oštećena","type":"damaged","object":"crkva","time0":"1.1.1995","date0":"ne"},"geometry":{"type":"Point","coordinates":[16.176965832710266,44.64151360615937]}},{"type":"Feature","properties":{"type":"damaged","subtype":"mined","desc":"Gata, crkva Svetih apostola Petra i Pavla, oštećena granatiranjem 1995","object":"crkva","time0":"1.1.1995","koor":"","date0":"ne"},"geometry":{"type":"Point","coordinates":[15.809838473796844,44.931998835887626]}},{"type":"Feature","properties":{"subtype":"ruined","desc":"Gerzovo, crkva Svetog Bogojavljenja, teško oštećena o strane Hrvata","date0":"ne","time0":"1.1.1996","object":"crkva","type":"damaged"},"geometry":{"type":"Point","coordinates":[17.002716064453125,44.31295946405676]}},{"type":"Feature","properties":{"date0":"ne","time0":"1.1.1996","koor":"ne","object":"dom","desc":"Gerzovo, parohijski dom uništen spaljivanjem od strane Hrvata","subtype":"burned","type":"destroyed"},"geometry":{"type":"Point","coordinates":[17.002064287662506,44.31313603145533]}}]}