{"type":"FeatureCollection","features":[{"type":"Feature","properties":{"type":"damaged","subtype":"mined","time0":"7.6.1992","desc":"хрвати гранатирају храм посвећен Светој Тројици","object":"crkva"},"geometry":{"type":"Point","coordinates":[17.818633317947388,43.33907080060756]}},{"type":"Feature","properties":{"type":"damaged","subtype":"mined","time0":"8.6.1992","desc":"хрвати гранатирају храм посвећен Светој Тројици","object":"crkva"},"geometry":{"type":"Point","coordinates":[17.818636670708656,43.33907128830351]}},{"type":"Feature","properties":{"type":"destroyed","subtype":"mined","time0":"15.6.1992","desc":"хрвати минирају темеље цркве и потпуно је уништавају","object":"crkva"},"geometry":{"type":"Point","coordinates":[17.818638682365417,43.33907055675957]}},{"type":"Feature","properties":{"type":"destroyed","subtype":"mined","time0":"1.1.1993","desc":"хрвати до темеља порушили цркву Рођења Пресвете Богородице, познату као Стара црква","object":"crkva"},"geometry":{"type":"Point","coordinates":[17.819800078868866,43.338961556615864]}},{"type":"Feature","properties":{"type":"destroyed","object":"crkva","subtype":"burned","time0":"1.1.1993","desc":"minirana pa zapaljena crkva Svetog Vasilija Ostroškog iz 1892, netačan datum"},"geometry":{"type":"Point","coordinates":[17.88970649242401,43.258229247668446]}},{"type":"Feature","properties":{"object":"parohijski dom","desc":"potpuno uništen paljevinom, netačan datum","time0":"1.1.1993","subtype":"burned","type":"destroyed"},"geometry":{"type":"Point","coordinates":[17.88960188627243,43.258008515418496]}},{"type":"Feature","properties":{"type":"damaged","object":"crkvica-kapela","time0":"1.1.1993","desc":"Bijela, netačne koordinate","subtype":"mined"},"geometry":{"type":"Point","coordinates":[17.787981033325195,43.50225440587175]}},{"type":"Feature","properties":{"type":"destroyed","time0":"1.1.1992","desc":"Bradina, crkva Vaznesenja Gospodnjeg, uništena od strane Hrvata, netačan datum. Porušene srbske kuće u naselju","object":"crkva","subtype":"mined"},"geometry":{"type":"Point","coordinates":[18.018782436847687,43.74579129412078]}},{"type":"Feature","properties":{"type":"destroyed","subtype":"mined","time0":"1.1.1992","desc":"Bradina, kapela Svete Ane, netačan datum","object":"kapela"},"geometry":{"type":"Point","coordinates":[18.018589317798615,43.74635709031897]}},{"type":"Feature","properties":{"object":"kapela","desc":"Blace, netačne koordinate, netačan datum","time0":"1.1.1993","subtype":"mined","type":"destroyed"},"geometry":{"type":"Point","coordinates":[18.105318546295166,43.62192591358096]}},{"type":"Feature","properties":{"type":"destroyed","time0":"1.1.1992","desc":"Bijelo polje, netačne koordinate, netačan datum, crkva Vaznesenja Gospodnjeg, muslimani uništili","subtype":"burned","object":"crkva"},"geometry":{"type":"Point","coordinates":[17.818408012390137,43.361709326296044]}},{"type":"Feature","properties":{"desc":"Bogodol, crkva svetih apostola Petra i Pavla, netačan datum, netačne koordinate","object":"crkva","time0":"1.1.1992","subtype":"mined","type":"destroyed"},"geometry":{"type":"Point","coordinates":[17.651231288909912,43.44899336786347]}},{"type":"Feature","properties":{"object":"crkvica-kapela","desc":"Brđani, netačan datum, netačne koordinate","time0":"1.1.1992","subtype":"mined","type":"destroyed"},"geometry":{"type":"Point","coordinates":[18.00632357597351,43.708074350163976]}},{"type":"Feature","properties":{"type":"damaged","subtype":"mined","desc":"Veličani, hrvati granatiraju crkvu Svetih Arhangela i razrušeno je i groblje u blizini kao i kapela Svetih srbskih Novomučenika, netačan datum","object":"crkva","time0":"1.1.1992"},"geometry":{"type":"Point","coordinates":[18.020812869071957,42.8650422683236]}},{"type":"Feature","properties":{"type":"damaged","subtype":"burned","time0":"1.1.1992","object":"crkva","desc":"Glavska, netačan datum, Hrvati zapalili i opljačkali, crkva Svetog arhiđakona Stefana"},"geometry":{"type":"Point","coordinates":[18.264859020709988,42.618906621189524]}},{"type":"Feature","properties":{"type":"destroyed","desc":"selo Hrasno zbrisano sa zemlje, netačan datum, opljačkan i uništen od strane hrvata hram posvećen Svetom Jovnau Krstitelju","object":"crkva","time0":"1.1.1992","subtype":"mined"},"geometry":{"type":"Point","coordinates":[17.9011407494545,42.95061165548713]}},{"type":"Feature","properties":{"type":"damaged","subtype":"ruined","time0":"1.1.1992","desc":"Gornji Poplat, opljačkana i demolirana crkva Svetog arhangela Mihaila","object":"crkva"},"geometry":{"type":"Point","coordinates":[18.035495281219482,43.02021158082207]}}]}