{"type":"FeatureCollection","features":[{"type":"Feature","properties":{"type":"damaged","subtype":"ruined","desc":"Bijelo Polje, crkva Prenosa moštiju Svetoga Nikole, podignuta 1764","object":"crkva","time0":"1.1.1942","koor":"-","date0":"ne"},"geometry":{"type":"Point","coordinates":[18.874189853668213,45.52022167661917]}},{"type":"Feature","properties":{"desc":"Bijelo Polje, crkva Prenosa moštiju Svetoga Nikole, znatno oštećena ","object":"crkva","subtype":"ruined","type":"damaged","time0":"1.1.1992","date0":"ne"},"geometry":{"type":"Point","coordinates":[18.87424886226654,45.520210400759034]}},{"type":"Feature","properties":{"object":"kapela","time0":"1.1.1992","koor":"","date0":"ne","type":"damaged","subtype":"ruined","desc":"Beli Manastir, kapela"},"geometry":{"type":"Point","coordinates":[18.618079125881195,45.76861937623492]}},{"type":"Feature","properties":{"type":"damaged","subtype":"ruined","desc":"Borovo Selo, crkva Svetog arhiđakona Stefana","object":"crkva","time0":"1.1.1992","date0":"ne"},"geometry":{"type":"Point","coordinates":[18.981263637542725,45.403128080951504]}},{"type":"Feature","properties":{"type":"damaged","subtype":"ruined","desc":"Borovo Selo, parohijski dom","object":"dom","time0":"1.1.1992","koor":"","date0":"ne"},"geometry":{"type":"Point","coordinates":[18.980925679206848,45.402928459599]}},{"type":"Feature","properties":{"desc":"Bolman, crkva Svetih apostola Petra i Pavla, iz 18og vijeka, Hrvati oštetili granatiranjem","object":"crkva","time0":"1.1.1992","date0":"ne","subtype":"ruined","type":"damaged"},"geometry":{"type":"Point","coordinates":[18.517150282859802,45.721772446710546]}},{"type":"Feature","properties":{"type":"damaged","subtype":"ruined","desc":"Bračevci, crkva Svetog velikomučenika Dimitrija, sagrađena 1778 godine, opljačkana i izlomljena","object":"crkva","time0":"1.1.1992","date0":"ne"},"geometry":{"type":"Point","coordinates":[18.277323246002197,45.429950019981014]}},{"type":"Feature","properties":{"desc":"Bršadin, crkva Svetog arhanđela Gavrila, sagrađena 1778 godine, opljačkana i oštećena od startne Hrvata","object":"crkva","time0":"1.1.1992","koor":"","date0":"ne","subtype":"ruined","type":"damaged"},"geometry":{"type":"Point","coordinates":[18.90598475933075,45.36127315639576]}},{"type":"Feature","properties":{"type":"damaged","desc":"Budimci, crkva Vaznesenja Gospodnjeg, podignuta 1795 godine, Hrvati oštetili","time0":"1.5.1995","koor":"","date0":"ne","object":"crkva","subtype":"ruined"},"geometry":{"type":"Point","coordinates":[18.32310453057289,45.46106846610576]}},{"type":"Feature","properties":{"type":"destroyed","desc":"Vinkovci, crkva Svete Trojice, podignuta 1794, Hrvati opljačkali, zapalili i minirali Hrvati","object":"crkva","subtype":"mined","time0":"1.10.1991","koor":"","date0":"ne"},"geometry":{"type":"Point","coordinates":[18.8065767288208,45.2882161924333]}},{"type":"Feature","properties":{"type":"damaged","subtype":"mined","desc":"Vukovar, crkva Prenosa moštiju Svetog Nikole, sagrađena 1732-1737, teško oštećena od strane Hrvata","object":"crkva","time0":"1.1.1992","koor":"","date0":"ne"},"geometry":{"type":"Point","coordinates":[19.002337753772736,45.34855908011675]}},{"type":"Feature","properties":{"desc":"Vukovar, crkva Svete Petke, sagrašena 1808-1811 godine, opljačkana i granatirana","object":"crkva","time0":"1.1.1992","koor":"","date0":"ne","subtype":"mined","type":"damaged"},"geometry":{"type":"Point","coordinates":[18.969338536262512,45.35183800375829]}},{"type":"Feature","properties":{"type":"damaged","subtype":"mined","desc":"Vukovar, crkva Svetog Nikole, mauzolej porodice Paunović, Hrvati granatiranjem, teško oštetili","object":"crkva","time0":"1.1.1992","koor":"","date0":"ne"},"geometry":{"type":"Point","coordinates":[19.00283396244049,45.34474835332179]}},{"type":"Feature","properties":{"koor":"ne","date0":"ne","time0":"1.1.1992","desc":"Vukovar, kapela Vaskrsenja Hristovog, na groblju, Hrvati tešk ooštetili granatiranjem","subtype":"mined","type":"damaged","object":"kapela"},"geometry":{"type":"Point","coordinates":[19.001924693584442,45.345834196242635]}},{"type":"Feature","properties":{"desc":"Gaboš, crkva Rođenja Presvete Bogorodice, iz 1810 godine, Hrvati je tokom 1992 godine granatiranjem znatno oštetili","subtype":"mined","type":"damaged","object":"crkva","time0":"1.1.1992","date0":"ne"},"geometry":{"type":"Point","coordinates":[18.737128973007202,45.352644746308734]}},{"type":"Feature","properties":{"desc":"Gaboš, parohijski dom","subtype":"mined","type":"damaged","object":"dom","time0":"1.1.1992","koor":"ne","date0":"ne"},"geometry":{"type":"Point","coordinates":[18.7375608086586,45.352622127515424]}},{"type":"Feature","properties":{"desc":"Tovarnik, crkva Svetog velikomučenika Georgija, sagrađena između 1797 i 1799, teško oštećena granatirawem od strane Hrvata","object":"crkva","time0":"1.1.1992","koor":"","date0":"ne","subtype":"mined","type":"damaged"},"geometry":{"type":"Point","coordinates":[19.15395766496658,45.164417753954815]}}]}