{"type":"FeatureCollection","features":[{"type":"Feature","properties":{"type":"damaged","subtype":"ruined","desc":"Šibenik, Crkva Uspenja Presvete Bogorodice, sagrađena 1810, oštećen polijelej tokom službe","object":"crkva","time0":"1.1.1992","koor":"","date0":"ne"},"geometry":{"type":"Point","coordinates":[15.892014652490614,43.73508084857086]}},{"type":"Feature","properties":{"koor":"ne","date0":"ne","type":"damaged","subtype":"ruined","object":"dom","time0":"1.1.1992","desc":"Šibenik, eparhijska rezidencija, opjačna i oštećena mitraljeskom vatorm"},"geometry":{"type":"Point","coordinates":[15.896320939064024,43.735464574119185]}},{"type":"Feature","properties":{"koor":"ne","date0":"ne","type":"damaged","subtype":"robbed","time0":"1.1.1992","object":"dom","desc":"Šibenik, parohijski dom, opljačkan"},"geometry":{"type":"Point","coordinates":[15.8964604139328,43.735367673960255]}},{"type":"Feature","properties":{"type":"damaged","subtype":"ruined","desc":"Baljci, crkva Svetog Jovana Krstitelja, podignuta 1730 godine, oštećena","object":"crkva","time0":"1.1.1992","koor":"","date0":"ne"},"geometry":{"type":"Point","coordinates":[16.308597922325134,43.8243372940207]}},{"type":"Feature","properties":{"type":"damaged","subtype":"ruined","desc":"Benkovac, crkva Rođenja svetog Jovana Krstitelja, podignuta 1730 godine, na mjestu starije iz 1590 godine, oštećena 1995 godine u avgustu","object":"crkva","time0":"1.8.1995"},"geometry":{"type":"Point","coordinates":[15.622427165508268,44.0314200878914]}},{"type":"Feature","properties":{"object":"dom","time0":"1.8.1995","koor":"ne","date0":"ne","desc":"Benkovac, parohijski dom iz 16og vijeka, oštetili Hrvati u avgustu 1995 godine","subtype":"ruined","type":"damaged"},"geometry":{"type":"Point","coordinates":[15.622373521327974,44.03121374898391]}},{"type":"Feature","properties":{"type":"damaged","subtype":"mined","desc":"Gornje Biljane, crkva Svetog velikomučenika Georgija, gradnja počela krajem 14 og vijeka a završena 1537 godine, oštećena granatama","object":"crkva","time0":"1.1.1992","koor":"","date0":"ne"},"geometry":{"type":"Point","coordinates":[15.534710884094238,44.098315045503846]}},{"type":"Feature","properties":{"koor":"ne","date0":"ne","object":"crkva","time0":"1.1.1995","subtype":"ruined","desc":"Gornji Bilišani, crkva Rođenja svetog Jovana Preteče, sagrađena 1860 godine, oštećena","type":"damaged"},"geometry":{"type":"Point","coordinates":[15.764329433441162,44.17152380286209]}},{"type":"Feature","properties":{"desc":"Biovičino Selo, crkva Svetih apostola Petra i Pavla, podignuta 1524 godine, obnovljena 1710.","object":"crkva","time0":"1.8.1995","date0":"ne","subtype":"ruined","type":"damaged"},"geometry":{"type":"Point","coordinates":[15.892705321311949,44.03845639317074]}},{"type":"Feature","properties":{"type":"damaged","subtype":"ruined","desc":"Biovičino Selo, parohijski dom","object":"crkva","time0":"1.8.1995","koor":"ne","date0":"ne"},"geometry":{"type":"Point","coordinates":[15.892986953258513,44.03819994618032]}},{"type":"Feature","properties":{"type":"damaged","subtype":"mined","desc":"Bratiškovci, crkva Svetog Nikole, podignuta 1592, granatirali Hrvati tokom 91-93","object":"crkva","time0":"1.1.1992","koor":"","date0":"ne"},"geometry":{"type":"Point","coordinates":[15.8989816904068,43.88860293224059]}},{"type":"Feature","properties":{"type":"damaged","subtype":"robbed","desc":"Bribir, crkva Svetih Joakima i Ane, iz 1574 godine, opljačkana i oštećena","object":"crkva","time0":"1.1.1992","koor":"","date0":"ne"},"geometry":{"type":"Point","coordinates":[15.842979848384857,43.92564582314605]}},{"type":"Feature","properties":{"desc":"Broćanac, crkva Svetih apostola Petra i Pavla, iz 18 vojeka, Hrvati srušili u vremenu izmešu 91 i 93 godine","object":"crkva","time0":"1.1.1992","date0":"ne","subtype":"mined","type":"destroyed"},"geometry":{"type":"Point","coordinates":[16.430600881576538,43.600761844935896]}},{"type":"Feature","properties":{"type":"damaged","subtype":"ruined","desc":"Golubić, crkva Svetog arhiđakona Stefana, iz 1462 godine, teško oštećena","object":"crkva","time0":"1.8.1995","date0":"ne"},"geometry":{"type":"Point","coordinates":[16.214377284049988,44.10778743522589]}},{"type":"Feature","properties":{"type":"damaged","subtype":"mined","desc":"Glavina Donja, crkva Uspenja Presvete Bogorodice, podignuta 1722, obnavljana 1884 godiine, minirana posle ponoći i time teško oštećena","object":"crkva","time0":"19.10.1991"},"geometry":{"type":"Point","coordinates":[17.195963859558105,43.443349978308426]}},{"type":"Feature","properties":{"type":"destroyed","subtype":"mined","desc":"Glavina Donja, crkva Uspenja Presvete Bogorodice, podignuta 1722, obnavljaan 1884 godine, srušena","object":"crkva","time0":"1.1.1992","koor":"","date0":"ne"},"geometry":{"type":"Point","coordinates":[17.19600409269333,43.4433402411565]}},{"type":"Feature","properties":{"subtype":"ruined","desc":"Kosovo, crkva Svetog mučenika Lazara , podignut 1889, opljačkan i oštećen","object":"crkva","time0":"1.8.1995","koor":"","date0":"ne","type":"damaged"},"geometry":{"type":"Point","coordinates":[16.213384866714478,43.95066363197643]}},{"type":"Feature","properties":{"type":"damaged","subtype":"ruined","desc":"Drniš, crkva Uspenja Presvete Bogorodice,  iz 1618 godine, oštećen zvonik i krov, unutrašnjost izlomljena","object":"crkva","time0":"1.1.1992","date0":"ne"},"geometry":{"type":"Point","coordinates":[16.154867112636566,43.86069878595537]}},{"type":"Feature","properties":{"type":"damaged","subtype":"ruined","time0":"1.8.1995","koor":"ne","date0":"ne","object":"crkva","desc":"Drniš, crkva Svetog arhanđela Mihaila, iz 1852, oštećena"},"geometry":{"type":"Point","coordinates":[16.159273982048035,43.85690426714671]}},{"type":"Feature","properties":{"time0":"1.8.1995","koor":"","date0":"ne","object":"dom","type":"damaged","subtype":"robbed","desc":"Drniš, parohijski dom, oštećen"},"geometry":{"type":"Point","coordinates":[16.15785241127014,43.857987334857754]}},{"type":"Feature","properties":{"type":"damaged","desc":"Žagrović, crkva Svetog Nikole, iz 1537 godine, izlomljen","subtype":"ruined","object":"crkva","time0":"1.8.1995","koor":"","date0":"ne"},"geometry":{"type":"Point","coordinates":[16.18063509464264,44.07159619633119]}},{"type":"Feature","properties":{"subtype":"robbed","type":"damaged","desc":"Žagrović, parohijski dom","object":"dom","time0":"1.8.1995","koor":"ne","date0":"ne"},"geometry":{"type":"Point","coordinates":[16.181294918060303,44.068223692864805]}},{"type":"Feature","properties":{"type":"damaged","subtype":"ruined","desc":"Žegar, crkva Svetog velikomučenika Georgij, podignut 1610, obnovljen 1897, izlomljen","object":"crkva","time0":"1.8.1995","koor":"","date0":"ne"},"geometry":{"type":"Point","coordinates":[15.857992172241211,44.15923692427925]}},{"type":"Feature","properties":{"date0":"ne","koor":"ne","time0":"1.8.1995","object":"dom","subtype":"burned","type":"damaged","desc":"Žegar, parohijski dom"},"geometry":{"type":"Point","coordinates":[15.857391357421875,44.1565852702753]}},{"type":"Feature","properties":{"date0":"ne","type":"damaged","subtype":"robbed","desc":"Zadar, crkva Svetog proroka Ilije, iz 1563, obnovljena 1773 godine pa 1969/70 godine","object":"crkva","time0":"1.1.1992"},"geometry":{"type":"Point","coordinates":[15.22356927394867,44.11624543160594]}},{"type":"Feature","properties":{"object":"kapela","time0":"1.1.1992","koor":"ne","date0":"ne","subtype":"ruined","type":"damaged","desc":"Zadar, kapela Svetog arhangela Mihaila, iz 1886 godine"},"geometry":{"type":"Point","coordinates":[15.258121490478514,44.10366969384811]}},{"type":"Feature","properties":{"koor":"ne","date0":"ne","time0":"1.1.1992","object":"crkva","desc":"Zemunik donji, crkva Svetog Save, podignuta uoči drugog svjetskog rata","subtype":"mined","type":"estroyed"},"geometry":{"type":"Point","coordinates":[15.3827503323555,44.11173734693305]}},{"type":"Feature","properties":{"subtype":"mined","desc":"Islam grčki, crkva Svetog velikomučenika Georgija, iz 1675, obnovljena 1712, zadužbina hajduka Janković Stojana, grobno mesto porodica Janković i Desnica, Hravti granatirali u januaru 1993","object":"crkva","time0":"1.1.1993","koor":"","date0":"ne","type":"damaged"},"geometry":{"type":"Point","coordinates":[15.457039475440979,44.17060035568469]}},{"type":"Feature","properties":{"desc":"Ivoševac, crkva Svetog Jovana Krstitelja, iz 19 og vijeka, izlomljena","subtype":"ruined","type":"damaged","time0":"1.8.1995","object":"crkva","koor":"","date0":"ne"},"geometry":{"type":"Point","coordinates":[15.974287390708923,44.01495507072061]}},{"type":"Feature","properties":{"subtype":"mined","desc":"Jagodnja, crkva Svetog Simeona, iz 18.og vijeka, oštećena granatama od strane Hrvata","object":"crkva","time0":"1.1.1992","koor":"","date0":"ne","type":"damaged"},"geometry":{"type":"Point","coordinates":[15.52139237523079,44.01332895765152]}},{"type":"Feature","properties":{"desc":"Karin, crkva Svete Nedelje, iz 1985 godine, iništili Hrvati eksplozivom","object":"crkva","time0":"23.8.1996","koor":"","date0":"ne","subtype":"mined","type":"destroyed"},"geometry":{"type":"Point","coordinates":[15.635226666927338,44.131569577077705]}},{"type":"Feature","properties":{"desc":"Karin, crkva svetih Kiriaka i Julite, oštećena i oskrnavljena ","object":"crkva","time0":"1.1.1996","koor":"","date0":"ne","type":"damaged","subtype":"ruined"},"geometry":{"type":"Point","coordinates":[15.625664591789246,44.10744847389818]}},{"type":"Feature","properties":{"desc":"Kanjani, crkva Svete Petke, podignuta 1782 godine, onovljena 1888, opljačkana i oštećena","object":"crkva","time0":"1.1.1996","koor":"","date0":"ne","subtype":"ruined","type":"damaged"},"geometry":{"type":"Point","coordinates":[16.238683462142944,43.86256694656009]}},{"type":"Feature","properties":{"desc":"Kašić, crkva Svetog Ilije, iz 1872 godine, teško oštećena od strane Hrvata","subtype":"mined","type":"damaged","object":"crkva","time0":"1.1.1996","koor":"","date0":"ne"},"geometry":{"type":"Point","coordinates":[15.471641421318056,44.1515356373603]}},{"type":"Feature","properties":{"desc":"Knin, crkva Pokrova Presvete Bogorodice, iz 1872 godine, srušili Amerikanci bombardovanjem","time0":"1.1.1944","object":"crkva","type":"destroyed","subtype":"mined","date0":"ne"},"geometry":{"type":"Point","coordinates":[16.195770800113678,44.03312476689547]}},{"type":"Feature","properties":{"type":"damaged","subtype":"mined","time0":"1.9.1995","desc":"Knin, crkva Pokrova Presvete Bogorodice, obnovljena 1971 godine, oštećena od strane Hrvata","object":"crkva","date0":"ne"},"geometry":{"type":"Point","coordinates":[16.195824444293976,44.03309584175571]}},{"type":"Feature","properties":{"type":"damaged","subtype":"ruined","desc":"Knin, crkva Pokrova Presvete Bogorodice, oštećena kamenovanjem","object":"crkva","time0":"24.8.2006"},"geometry":{"type":"Point","coordinates":[16.19576007127762,44.033080415008726]}},{"type":"Feature","properties":{"desc":"Kistanje, crkva Svetog Nikole, iz 1536 godine, oštetili Nemci miniranjem","date0":"ne","type":"damaged","subtype":"mined","object":"crkva","time0":"1.1.1944"},"geometry":{"type":"Point","coordinates":[15.931860208511353,43.99585652102629]}},{"type":"Feature","properties":{"desc":"Kistanje, crkva Svetih Kirila i Metodija, iz 1891, granatama oštetili Hrvati ","time0":"1.8.1995","object":"crkva","koor":"","date0":"ne","subtype":"mined","type":"destroyed"},"geometry":{"type":"Point","coordinates":[15.961801707744597,43.979801421564545]}},{"type":"Feature","properties":{"type":"damaged","time0":"1.8.1995","object":"crkva","desc":"Kistanje, crkva Svetog Nikole, iz 1536 godine, oštetili Hrvati","subtype":"ruined","date0":"ne"},"geometry":{"type":"Point","coordinates":[15.931916534900665,43.99584590847595]}},{"type":"Feature","properties":{"desc":"Konjevrati, crkva Svetog Dimitrija, iz 1864 godine, opljačkana i oštećena","object":"crkva","time0":"1.8.1991","subtype":"ruined","type":"damaged","date0":"ne"},"geometry":{"type":"Point","coordinates":[15.991474986076355,43.781819120949464]}},{"type":"Feature","properties":{"desc":"Kožlovac, crkva Svete Nedelje, oštećena","type":"damaged","time0":"1.8.1995","object":"crkva","koor":"","date0":"ne","subtype":"ruined"},"geometry":{"type":"Point","coordinates":[15.686784088611603,43.99474605205855]}},{"type":"Feature","properties":{"type":"damaged","subtype":"ruined","desc":"Krička, crkva Velikomučenika Georgija, iz 1744 godine, oštećena","time0":"1.1.1992","object":"crkva","date0":"ne"},"geometry":{"type":"Point","coordinates":[16.21015816926956,43.836064922623756]}},{"type":"Feature","properties":{"date0":"ne","desc":"Krička, parohijski dom, opustošen 27 i 28..3.1992","subtype":"robbed","type":"damaged","object":"dom","time0":"27.3.1992"},"geometry":{"type":"Point","coordinates":[16.209517121315002,43.83464673926474]}},{"type":"Feature","properties":{"type":"damaged","subtype":"mined","desc":"Lišane Tinjske, crkva Svete Trojice, iz 1854 godine, Hrvati granatirali 1993 godine","object":"crkva","time0":"1.1.1993","koor":"","date0":"ne"},"geometry":{"type":"Point","coordinates":[15.481456965208054,44.025065677026824]}},{"type":"Feature","properties":{"desc":"Koljane, crkva Rođenja Presvete Bogorodice u manastiru Dragoviću, oštećena više put aizmešu 91 i 93 ","object":"crkva","time0":"1.1.1992","date0":"ne","subtype":"ruined","type":"damaged"},"geometry":{"type":"Point","coordinates":[16.511699482798576,43.86381863943093]}},{"type":"Feature","properties":{"subtype":"ruined","type":"damaged","object":"crkva","time0":"1.8.1995","date0":"ne","desc":"Manastir Krka, crkva Svetog arhangela Mihaila"},"geometry":{"type":"Point","coordinates":[15.990040004253387,43.962098052205334]}},{"type":"Feature","properties":{"subtype":"ruined","type":"damaged","object":"dom","time0":"1.8.1995","date0":"ne","koor":"ne","desc":"Manastir Krka, trpezarija"},"geometry":{"type":"Point","coordinates":[15.990281403064728,43.9621173587204]}},{"type":"Feature","properties":{"subtype":"ruined","type":"damaged","object":"dom","time0":"1.8.1995","date0":"ne","koor":"ne","desc":"Manastir Krka, konak"},"geometry":{"type":"Point","coordinates":[15.989881753921507,43.962215821849625]}},{"type":"Feature","properties":{"subtype":"ruined","type":"damaged","object":"dom","time0":"1.8.1995","date0":"ne","koor":"ne","desc":"Manastir Krka, zgrada Bogoslovije"},"geometry":{"type":"Point","coordinates":[15.989667177200317,43.96237992670237]}},{"type":"Feature","properties":{"desc":"Manastir Krupa, crkva Uspenja Presvete Bogorodice, iz 1317 godine","object":"crkva","time0":"1.9.1995","date0":"ne","subtype":"ruined","type":"damaged"},"geometry":{"type":"Point","coordinates":[15.887308716773987,44.19201868357111]}},{"type":"Feature","properties":{"desc":"Manastir Krupa, biblioteka","object":"dom","time0":"1.9.1995","koor":"ne","date0":"ne","subtype":"ruined","type":"damaged"},"geometry":{"type":"Point","coordinates":[15.88744819164276,44.19202060673564]}},{"type":"Feature","properties":{"desc":"Manastir Krupa, konak","object":"dom","time0":"1.9.1995","koor":"ne","date0":"ne","subtype":"ruined","type":"damaged"},"geometry":{"type":"Point","coordinates":[15.887276530265806,44.191893677742165]}},{"type":"Feature","properties":{"desc":"Manastir Krupa, riznica","object":"dom","time0":"1.9.1995","koor":"ne","date0":"ne","subtype":"ruined","type":"damaged"},"geometry":{"type":"Point","coordinates":[15.887488424777983,44.19187059971398]}},{"type":"Feature","properties":{"koor":"ne","date0":"ne","desc":"Medviđa, crkva Rođenja Presvete Bogorodice, iz 19og vijeka","subtype":"burned","type":"destroyed","object":"crkva","time0":"1.9.1995"},"geometry":{"type":"Point","coordinates":[15.790722370147705,44.09616919779773]}},{"type":"Feature","properties":{"subtype":"mined","type":"damaged","desc":"Miranje, crkva Svetog arhangela Mihaila, iz 1497 godine,, provaljena i opljačkana, tokom 93/94 Hrvati ju granatirali","object":"crkva","time0":"1.1.1993","koor":"","date0":"ne"},"geometry":{"type":"Point","coordinates":[15.584055483341215,43.99889645616851]}},{"type":"Feature","properties":{"desc":"Nos Kalik, crkva Svetog Nikole, podignuta 1896 godine, pretrpela velika oštećenja","time0":"1.9.1995","date0":"ne","object":"crkva","subtype":"ruined","type":"damaged"},"geometry":{"type":"Point","coordinates":[15.993534922599792,43.81718078007082]}},{"type":"Feature","properties":{"type":"damaged","subtype":"ruined","desc":"Oćestovo, crkva Svete Nedelje, građena od 1929 do 1960 godine","object":"crkva","time0":"1.9.1995","date0":"ne"},"geometry":{"type":"Point","coordinates":[16.127039194107056,44.05953523883726]}},{"type":"Feature","properties":{"desc":"Obrovac, crkva Svete Trojice sagrađena 1906 na mjestu starije iz 1756 godine, grnatirana od strane Hrvata","object":"crkva","subtype":"mined","type":"damaged","date0":"ne","time0":"1.1.1993"},"geometry":{"type":"Point","coordinates":[15.680326670408249,44.199573351276655]}},{"type":"Feature","properties":{"desc":"Obrovac, crkva Svete Trojice sagrađena 1906 na mjestu starije iz 1756 godine, izlomljena od strane Hrvata","object":"crkva","subtype":"ruined","type":"damaged","date0":"ne","time0":"1.9.1995"},"geometry":{"type":"Point","coordinates":[15.680384337902067,44.199573351276655]}},{"type":"Feature","properties":{"desc":"Rudele, kapela izlomljena","subtype":"ruined","type":"damaged","object":"kapela","time0":"1.9.1995","date0":"ne"},"geometry":{"type":"Point","coordinates":[15.99360466003418,44.005132128910326]}},{"type":"Feature","properties":{"type":"damaged","subtype":"mined","desc":"Smilčić, crkva Svetog arhangela Mihaila, gotovo uništena granatama tokom 1993,1994 godine","object":"crkva","time0":"1.1.1993","koor":"","date0":"ne"},"geometry":{"type":"Point","coordinates":[15.50686687231064,44.125272121307304]}},{"type":"Feature","properties":{"object":"dom","time0":"1.8.1992","koor":"ne","date0":"ne","desc":"Smilčić, parohijski dom, ozbiljn oštećen granatama od strane Hrvata","subtype":"mined","type":"damaged"},"geometry":{"type":"Point","coordinates":[15.506716668605804,44.12544925244378]}},{"type":"Feature","properties":{"type":"destroyed","subtype":"mined","desc":"Smoković, crkva Svetog velikomučenika Georgija, izgrađena 1567 godine, Hrvati granatam srušili do temelja u januaru 1993 godine","object":"crkva","time0":"1.1.1993","date0":"ne"},"geometry":{"type":"Point","coordinates":[15.35189151763916,44.132185617404865]}},{"type":"Feature","properties":{"desc":"Smoković, parohijski dom, oštetili Hrvati granatama tokom 92 i 93 godine","object":"dom","time0":"1.1.1993","date0":"ne","koor":"ne","type":"damaged","subtype":"mined"},"geometry":{"type":"Point","coordinates":[15.352334082126617,44.13196230352875]}},{"type":"Feature","properties":{"type":"damaged","subtype":"mined","desc":"Skradin, iz 1876 godine, granatirana tokom 1992 godine","date0":"ne","time0":"1.1.1992","object":"crkva"},"geometry":{"type":"Point","coordinates":[15.922341048717497,43.82004213390607]}},{"type":"Feature","properties":{"subtype":"mined","type":"destroyed","date0":"ne","time0":"1.4.1993","object":"crkva","desc":"Skradin, crkva Svetog Spiridona, iz 1876 godine, potpuno srušena"},"geometry":{"type":"Point","coordinates":[15.92237055301666,43.820021813648715]}},{"type":"Feature","properties":{"date0":"ne","time0":"1.1.1993","desc":"Skradin, crkva Svete Petke, iz 1895 godine, opljačkana i oštećena","object":"crkva","subtype":"ruined","type":"damaged"},"geometry":{"type":"Point","coordinates":[15.919800996780396,43.821225535059476]}},{"type":"Feature","properties":{"object":"dom","desc":"Skradin, parohijski dom, opljačkan i oštećen u periodu 1991-1993","time0":"1.1.1993","koor":"ne","date0":"ne","subtype":"ruined","type":"damaged"},"geometry":{"type":"Point","coordinates":[15.920997262001036,43.820420476482205]}},{"type":"Feature","properties":{"object":"kapela","time0":"1.1.1992","koor":"","date0":"ne","type":"damaged","subtype":"ruined","desc":"Split, kapela Svetog Save, ispisana i porazbijana"},"geometry":{"type":"Point","coordinates":[16.437665820121765,43.50934156666279]}},{"type":"Feature","properties":{"type":"destroyed","subtype":"mined","desc":"Zelovo, crkva Svetog proroka Ilije, poodignut 1884 godine, potpuno srušena od strane Hrvata tokom 91-93","object":"crkva","time0":"1.1.1992","koor":"","date0":"ne"},"geometry":{"type":"Point","coordinates":[16.535040736198425,43.72529307796396]}},{"type":"Feature","properties":{"object":"crkva","date0":"ne","time0":"1.1.1992","type":"damaged","subtype":"ruined","desc":"Tribanj, crkva Svetog arhangela Mihaila, iz 1865 godine, tokom 91-93 provaljena i oštećena "},"geometry":{"type":"Point","coordinates":[15.339832305908201,44.338765293420664]}},{"type":"Feature","properties":{"object":"dom","koor":"ne","date0":"ne","time0":"1.1.1992","type":"damaged","subtype":"robbed","desc":"Tribanj, parohijski dom, poskidana vrata i prozori"},"geometry":{"type":"Point","coordinates":[15.339790731668472,44.33898590551249]}},{"type":"Feature","properties":{"object":"kapela","date0":"ne","time0":"1.1.1992","type":"damaged","subtype":"ruined","desc":"Tribanj, kapela Svete Trojice, iz 1830 godine, obnovljena 1925 godine, tokom 91-93 opljačkana i oštećena"},"geometry":{"type":"Point","coordinates":[15.377985388040544,44.328652695218416]}},{"type":"Feature","properties":{"type":"destroyed","subtype":"mined","time0":"1.1.1993","date0":"ne","koor":"","desc":"Crno, crkva Svetih apostola Petra i Pavla, sagrađena početkom 20og vijeka, na mjestu ranije iz 117og vijeka","object":"crkva"},"geometry":{"type":"Point","coordinates":[15.290147066116333,44.1128244411051]}},{"type":"Feature","properties":{"type":"damaged","time0":"1.1.1992","date0":"ne","object":"crkva","subtype":"mined","desc":"Krivodol, crkva Svetog Vasilija Ostroškog, iz 1983, u manastiru Crnogorci, pucano iz vatrenog oružja i bacana bomba"},"geometry":{"type":"Point","coordinates":[17.121505737304688,43.442251617689486]}},{"type":"Feature","properties":{"time0":"1.12.1992","subtype":"burned","type":"damaged","desc":"Krivodol, crkva Svetog Vasilija Ostroškog, u manastiru Crnogorci, zapaljena","object":"crkva","date0":"ne"},"geometry":{"type":"Point","coordinates":[17.121516466140744,43.44223993289487]}},{"type":"Feature","properties":{"desc":"Ceranja, crkva Svetog proroka Ilije, iz 1712, ozbiljno oštećen granatiranjem tokom 91-93","subtype":"mined","type":"damaged","object":"crkva","time0":"1.1.1992","koor":"","date0":"ne"},"geometry":{"type":"Point","coordinates":[15.603611469268799,43.969032548788505]}}]}