{"type":"FeatureCollection","features":[{"type":"Feature","properties":{"object":"crkva","desc":"Mušutište, crkva Svete Trojice, u istoimenom manastiru, iz 14og vojeka, u drugoj polovini juna 1999 izlomljena i opljačkana","type":"damaged","time0":"1.7.1999","date0":"ne","subtype":"ruined"},"geometry":{"type":"Point","coordinates":[20.890789926052094,42.303645324843764]}},{"type":"Feature","properties":{"object":"konak","time0":"10.7.1999","koor":"ne","type":"destroyed","subtype":"burned","desc":"Mušutište, konak manastira Svete Trojice, do temlja spaljeni manastriski konaci"},"geometry":{"type":"Point","coordinates":[20.89089587330818,42.30335272393911]}},{"type":"Feature","properties":{"object":"crkva","time0":"10.7.1999","type":"destroyed","subtype":"mined","desc":"Mušutište, crkva Svete Trojice, uništena eksplozivom","date0":""},"geometry":{"type":"Point","coordinates":[20.890806019306183,42.303633422460614]}},{"type":"Feature","properties":{"object":"damaged","date0":"14.6.1999","type":"Mušutište, crkva Bogorodice Odigitrije, izlomljena, oskrnavljena i opljačkana od Šiptara iz kraja","time0":"crkva","desc":"ruined"},"geometry":{"type":"Point","coordinates":[20.8961221575737,42.30261873602489]}},{"type":"Feature","properties":{"time0":"dom","object":"damaged","desc":"bunrned","type":"Mušutište, parohijski dom, opljačkan i zapaljen","date0":"14.6.1999"},"geometry":{"type":"Point","coordinates":[20.89628040790558,42.30236084634797]}},{"type":"Feature","properties":{"object":"destroyed","type":"Mušutište, crkva Bogorodice Odigitrije, potpuno uništena eksplozivom","date0":"1.7.1999","time0":"crkva","desc":"mined"},"geometry":{"type":"Point","coordinates":[20.896157026290894,42.30261873602489]}},{"type":"Feature","properties":{"type":"Koriša, "},"geometry":{"type":"Point","coordinates":[20.799704790115356,42.251103167504986]}},{"type":"Feature","properties":{"type":"Koriša, "},"geometry":{"type":"Point","coordinates":[20.79976916313171,42.251079342880345]}},{"type":"Feature","properties":{"type":"Koriša, "},"geometry":{"type":"Point","coordinates":[20.799736976623535,42.251079342880345]}}]}