{"type":"FeatureCollection","features":[{"type":"Feature","properties":{"type":"damaged","subtype":"ruined","desc":"Šibenik, Crkva Uspenja Presvete Bogorodice, sagrađena 1810, oštećen polijelej tokom službe","object":"crkva","time0":"1.1.1992","koor":"","date0":"ne"},"geometry":{"type":"Point","coordinates":[15.892014652490614,43.73508084857086]}},{"type":"Feature","properties":{"koor":"ne","date0":"ne","type":"damaged","subtype":"ruined","object":"dom","time0":"1.1.1992","desc":"Šibenik, eparhijska rezidencija, opjačna i oštećena mitraljeskom vatorm"},"geometry":{"type":"Point","coordinates":[15.896320939064024,43.735464574119185]}},{"type":"Feature","properties":{"koor":"ne","date0":"ne","type":"damaged","subtype":"robbed","time0":"1.1.1992","object":"dom","desc":"Šibenik, parohijski dom, opljačkan"},"geometry":{"type":"Point","coordinates":[15.8964604139328,43.735367673960255]}},{"type":"Feature","properties":{"type":"damaged","subtype":"ruined","desc":"Baljci, crkva Svetog Jovana Krstitelja, podignuta 1730 godine, oštećena","object":"crkva","time0":"1.1.1992","koor":"","date0":"ne"},"geometry":{"type":"Point","coordinates":[16.308597922325134,43.8243372940207]}},{"type":"Feature","properties":{"type":"damaged","subtype":"ruined","desc":"Benkovac, crkva Rođenja svetog Jovana Krstitelja, podignuta 1730 godine, na mjestu starije iz 1590 godine, oštećena 1995 godine u avgustu","object":"crkva","time0":"1.8.1995"},"geometry":{"type":"Point","coordinates":[15.622427165508268,44.0314200878914]}},{"type":"Feature","properties":{"object":"dom","time0":"1.8.1995","koor":"ne","date0":"ne","desc":"Benkovac, parohijski dom iz 16og vijeka, oštetili Hrvati u avgustu 1995 godine","subtype":"ruined","type":"damaged"},"geometry":{"type":"Point","coordinates":[15.622373521327974,44.03121374898391]}},{"type":"Feature","properties":{"type":"damaged","subtype":"mined","desc":"Gornje Biljane, crkva Svetog velikomučenika Georgija, gradnja počela krajem 14 og vijeka a završena 1537 godine, oštećena granatama","object":"crkva","time0":"1.1.1992","koor":"","date0":"ne"},"geometry":{"type":"Point","coordinates":[15.534710884094238,44.098315045503846]}},{"type":"Feature","properties":{"koor":"ne","date0":"ne","object":"crkva","time0":"1.1.1995","subtype":"ruined","desc":"Gornji Bilišani, crkva Rođenja svetog Jovana Preteče, sagrađena 1860 godine, oštećena","type":"damaged"},"geometry":{"type":"Point","coordinates":[15.764329433441162,44.17152380286209]}},{"type":"Feature","properties":{"desc":"Biovičino Selo, crkva Svetih apostola Petra i Pavla, podignuta 1524 godine, obnovljena 1710.","object":"crkva","time0":"1.8.1995","date0":"ne","subtype":"ruined","type":"damaged"},"geometry":{"type":"Point","coordinates":[15.892705321311949,44.03845639317074]}},{"type":"Feature","properties":{"type":"damaged","subtype":"ruined","desc":"Biovičino Selo, parohijski dom","object":"crkva","time0":"1.8.1995","koor":"ne","date0":"ne"},"geometry":{"type":"Point","coordinates":[15.892986953258513,44.03819994618032]}},{"type":"Feature","properties":{"type":"damaged","subtype":"mined","desc":"Bratiškovci, crkva Svetog Nikole, podignuta 1592, granatirali Hrvati tokom 91-93","object":"crkva","time0":"1.1.1992","koor":"","date0":"ne"},"geometry":{"type":"Point","coordinates":[15.8989816904068,43.88860293224059]}},{"type":"Feature","properties":{"type":"damaged","subtype":"robbed","desc":"Bribir, crkva Svetih Joakima i Ane, iz 1574 godine, opljačkana i oštećena","object":"crkva","time0":"1.1.1992","koor":"","date0":"ne"},"geometry":{"type":"Point","coordinates":[15.842979848384857,43.92564582314605]}},{"type":"Feature","properties":{"desc":"Broćanac, crkva Svetih apostola Petra i Pavla, iz 18 vojeka, Hrvati srušili u vremenu izmešu 91 i 93 godine","object":"crkva","time0":"1.1.1992","date0":"ne","subtype":"mined","type":"destroyed"},"geometry":{"type":"Point","coordinates":[16.430600881576538,43.600761844935896]}},{"type":"Feature","properties":{"type":"damaged","subtype":"ruined","desc":"Golubić, crkva Svetog arhiđakona Stefana, iz 1462 godine, teško oštećena","object":"crkva","time0":"1.8.1995","date0":"ne"},"geometry":{"type":"Point","coordinates":[16.214377284049988,44.10778743522589]}},{"type":"Feature","properties":{"type":"damaged","subtype":"mined","desc":"Glavina Donja, crkva Uspenja Presvete Bogorodice, podignuta 1722, obnavljana 1884 godiine, minirana posle ponoći i time teško oštećena","object":"crkva","time0":"19.10.1991"},"geometry":{"type":"Point","coordinates":[17.195963859558105,43.443349978308426]}},{"type":"Feature","properties":{"type":"destroyed","subtype":"mined","desc":"Glavina Donja, crkva Uspenja Presvete Bogorodice, podignuta 1722, obnavljaan 1884 godine, srušena","object":"crkva","time0":"1.1.1992","koor":"","date0":"ne"},"geometry":{"type":"Point","coordinates":[17.19600409269333,43.4433402411565]}},{"type":"Feature","properties":{"subtype":"ruined","desc":"Kosovo, crkva Svetog mučenika Lazara , podignut 1889, opljačkan i oštećen","object":"crkva","time0":"1.8.1995","koor":"","date0":"ne","type":"damaged"},"geometry":{"type":"Point","coordinates":[16.213384866714478,43.95066363197643]}},{"type":"Feature","properties":{"type":"damaged","subtype":"ruined","desc":"Drniš, crkva Uspenja Presvete Bogorodice,  iz 1618 godine, oštećen zvonik i krov, unutrašnjost izlomljena","object":"crkva","time0":"1.1.1992","date0":"ne"},"geometry":{"type":"Point","coordinates":[16.154867112636566,43.86069878595537]}},{"type":"Feature","properties":{"type":"damaged","subtype":"ruined","time0":"1.8.1995","koor":"ne","date0":"ne","object":"crkva","desc":"Drniš, crkva Svetog arhanđela Mihaila, iz 1852, oštećena"},"geometry":{"type":"Point","coordinates":[16.159273982048035,43.85690426714671]}},{"type":"Feature","properties":{"time0":"1.8.1995","koor":"","date0":"ne","object":"dom","type":"damaged","subtype":"robbed","desc":"Drniš, parohijski dom, oštećen"},"geometry":{"type":"Point","coordinates":[16.15785241127014,43.857987334857754]}},{"type":"Feature","properties":{"type":"damaged","desc":"Žagrović, crkva Svetog Nikole, iz 1537 godine, izlomljen","subtype":"ruined","object":"crkva","time0":"1.8.1995","koor":"","date0":"ne"},"geometry":{"type":"Point","coordinates":[16.18063509464264,44.07159619633119]}},{"type":"Feature","properties":{"subtype":"robbed","type":"damaged","desc":"Žagrović, parohijski dom","object":"dom","time0":"1.8.1995","koor":"ne","date0":"ne"},"geometry":{"type":"Point","coordinates":[16.181294918060303,44.068223692864805]}},{"type":"Feature","properties":{"type":"damaged","subtype":"ruined","desc":"Žegar, crkva Svetog velikomučenika Georgij, podignut 1610, obnovljen 1897, izlomljen","object":"crkva","time0":"1.8.1995","koor":"","date0":"ne"},"geometry":{"type":"Point","coordinates":[15.857992172241211,44.15923692427925]}},{"type":"Feature","properties":{"date0":"ne","koor":"ne","time0":"1.8.1995","object":"dom","subtype":"burned","type":"damaged","desc":"Žegar, parohijski dom"},"geometry":{"type":"Point","coordinates":[15.857391357421875,44.1565852702753]}},{"type":"Feature","properties":{"date0":"ne","type":"damaged","subtype":"robbed","desc":"Zadar, crkva Svetog proroka Ilije, iz 1563, obnovljena 1773 godine pa 1969/70 godine","object":"crkva","time0":"1.1.1992"},"geometry":{"type":"Point","coordinates":[15.22356927394867,44.11624543160594]}},{"type":"Feature","properties":{"object":"kapela","time0":"1.1.1992","koor":"ne","date0":"ne","subtype":"ruined","type":"damaged","desc":"Zadar, kapela Svetog arhangela Mihaila, iz 1886 godine"},"geometry":{"type":"Point","coordinates":[15.258121490478514,44.10366969384811]}},{"type":"Feature","properties":{"koor":"ne","date0":"ne","time0":"1.1.1992","object":"crkva","desc":"Zemunik donji, crkva Svetog Save, podignuta uoči drugog svjetskog rata","subtype":"mined","type":"estroyed"},"geometry":{"type":"Point","coordinates":[15.3827503323555,44.11173734693305]}},{"type":"Feature","properties":{"subtype":"mined","desc":"Islam grčki, crkva Svetog velikomučenika Georgija, iz 1675, obnovljena 1712, zadužbina hajduka Janković Stojana, grobno mesto porodica Janković i Desnica, Hravti granatirali u januaru 1993","object":"crkva","time0":"1.1.1993","koor":"","date0":"ne","type":"damaged"},"geometry":{"type":"Point","coordinates":[15.457039475440979,44.17060035568469]}},{"type":"Feature","properties":{"desc":"Ivoševac, crkva Svetog Jovana Krstitelja, iz 19 og vijeka, izlomljena","subtype":"ruined","type":"damaged","time0":"1.8.1995","object":"crkva","koor":"","date0":"ne"},"geometry":{"type":"Point","coordinates":[15.974287390708923,44.01495507072061]}},{"type":"Feature","properties":{"subtype":"mined","desc":"Jagodnja, crkva Svetog Simeona, iz 18.og vijeka, oštećena granatama od strane Hrvata","object":"crkva","time0":"1.1.1992","koor":"","date0":"ne","type":"damaged"},"geometry":{"type":"Point","coordinates":[15.52139237523079,44.01332895765152]}},{"type":"Feature","properties":{"desc":"Karin, crkva Svete Nedelje, iz 1985 godine, iništili Hrvati eksplozivom","object":"crkva","time0":"23.8.1996","koor":"","date0":"ne","subtype":"mined","type":"destroyed"},"geometry":{"type":"Point","coordinates":[15.635226666927338,44.131569577077705]}},{"type":"Feature","properties":{"desc":"Karin, crkva svetih Kiriaka i Julite, oštećena i oskrnavljena ","object":"crkva","time0":"1.1.1996","koor":"","date0":"ne","type":"damaged","subtype":"ruined"},"geometry":{"type":"Point","coordinates":[15.625664591789246,44.10744847389818]}},{"type":"Feature","properties":{"desc":"Kanjane"},"geometry":{"type":"Point","coordinates":[16.238683462142944,43.86256694656009]}}]}