{"type":"FeatureCollection","features":[{"type":"Feature","properties":{"type":"damaged","subtype":"ruined","desc":"Bijelo Polje, crkva Prenosa moštiju Svetoga Nikole, podignuta 1764","object":"crkva","time0":"1.1.1942","koor":"-","date0":"ne"},"geometry":{"type":"Point","coordinates":[18.874189853668213,45.52022167661917]}},{"type":"Feature","properties":{"desc":"Bijelo Polje, crkva Prenosa moštiju Svetoga Nikole, znatno oštećena ","object":"crkva","subtype":"ruined","type":"damaged","time0":"1.1.1992","date0":"ne"},"geometry":{"type":"Point","coordinates":[18.87424886226654,45.520210400759034]}},{"type":"Feature","properties":{"object":"kapela","time0":"1.1.1992","koor":"","date0":"ne","type":"damaged","subtype":"ruined","desc":"Beli Manastir, kapela"},"geometry":{"type":"Point","coordinates":[18.618079125881195,45.76861937623492]}},{"type":"Feature","properties":{"type":"damaged","subtype":"ruined","desc":"Borovo Selo, crkva Svetog arhiđakona Stefana","object":"crkva","time0":"1.1.1992","date0":"ne"},"geometry":{"type":"Point","coordinates":[18.981263637542725,45.403128080951504]}},{"type":"Feature","properties":{"type":"damaged","subtype":"ruined","desc":"Borovo Selo, parohijski dom","object":"dom","time0":"1.1.1992","koor":"","date0":"ne"},"geometry":{"type":"Point","coordinates":[18.980925679206848,45.402928459599]}}]}