{"type":"FeatureCollection","features":[{"type":"Feature","properties":{"type":"damaged","subtype":"ruined","desc":"Šibenik, Crkva Uspenja Presvete Bogorodice, sagrađena 1810, oštećen polijelej tokom službe","object":"crkva","time0":"1.1.1992","koor":"","date0":"ne"},"geometry":{"type":"Point","coordinates":[15.892014652490614,43.73508084857086]}},{"type":"Feature","properties":{"koor":"ne","date0":"ne","type":"damaged","subtype":"ruined","object":"dom","time0":"1.1.1992","desc":"Šibenik, eparhijska rezidencija, opjačna i oštećena mitraljeskom vatorm"},"geometry":{"type":"Point","coordinates":[15.896320939064024,43.735464574119185]}},{"type":"Feature","properties":{"koor":"ne","date0":"ne","type":"damaged","subtype":"robbed","time0":"1.1.1992","object":"dom","desc":"Šibenik, parohijski dom, opljačkan"},"geometry":{"type":"Point","coordinates":[15.8964604139328,43.735367673960255]}},{"type":"Feature","properties":{"type":"damaged","subtype":"ruined","desc":"Baljci, crkva Svetog Jovana Krstitelja, podignuta 1730 godine, oštećena","object":"crkva","time0":"1.1.1992","koor":"","date0":"ne"},"geometry":{"type":"Point","coordinates":[16.308597922325134,43.8243372940207]}},{"type":"Feature","properties":{"type":"damaged","subtype":"ruined","desc":"Benkovac, crkva Rođenja svetog Jovana Krstitelja, podignuta 1730 godine, na mjestu starije iz 1590 godine, oštećena 1995 godine u avgustu","object":"crkva","time0":"1.8.1995"},"geometry":{"type":"Point","coordinates":[15.622427165508268,44.0314200878914]}},{"type":"Feature","properties":{"object":"dom","time0":"1.8.1995","koor":"ne","date0":"ne","desc":"Benkovac, parohijski dom iz 16og vijeka, oštetili Hrvati u avgustu 1995 godine","subtype":"ruined","type":"damaged"},"geometry":{"type":"Point","coordinates":[15.622373521327974,44.03121374898391]}},{"type":"Feature","properties":{"type":"damaged","subtype":"mined","desc":"Gornje Biljane, crkva Svetog velikomučenika Georgija, gradnja počela krajem 14 og vijeka a završena 1537 godine, oštećena granatama","object":"crkva","time0":"1.1.1992","koor":"","date0":"ne"},"geometry":{"type":"Point","coordinates":[15.534710884094238,44.098315045503846]}},{"type":"Feature","properties":{"koor":"ne","date0":"ne","object":"crkva","time0":"1.1.1995","subtype":"ruined","desc":"Gornji Bilišani, crkva Rođenja svetog Jovana Preteče, sagrađena 1860 godine, oštećena","type":"damaged"},"geometry":{"type":"Point","coordinates":[15.764329433441162,44.17152380286209]}}]}