{"type":"FeatureCollection","features":[{"type":"Feature","properties":{"type":"damaged","subtype":"mined","time0":"7.6.1992","desc":"Mostar, хрвати гранатирају храм посвећен Светој Тројици","object":"crkva"},"geometry":{"type":"Point","coordinates":[17.818633317947388,43.33907080060756]}},{"type":"Feature","properties":{"type":"damaged","subtype":"mined","time0":"8.6.1992","desc":"Mostar, хрвати гранатирају храм посвећен Светој Тројици","object":"crkva"},"geometry":{"type":"Point","coordinates":[17.818636670708656,43.33907128830351]}},{"type":"Feature","properties":{"type":"destroyed","subtype":"mined","time0":"15.6.1992","desc":"Mostar, хрвати минирају темеље цркве и потпуно је уништавају","object":"crkva"},"geometry":{"type":"Point","coordinates":[17.818638682365417,43.33907055675957]}},{"type":"Feature","properties":{"type":"destroyed","subtype":"mined","time0":"1.1.1993","desc":"Mostar, хрвати до темеља порушили цркву Рођења Пресвете Богородице, познату као Стара црква","object":"crkva"},"geometry":{"type":"Point","coordinates":[17.819800078868866,43.338961556615864]}},{"type":"Feature","properties":{"type":"destroyed","object":"crkva","subtype":"burned","time0":"1.1.1993","desc":"Blagaj, minirana pa zapaljena crkva Svetog Vasilija Ostroškog iz 1892, netačan datum"},"geometry":{"type":"Point","coordinates":[17.88970649242401,43.258229247668446]}},{"type":"Feature","properties":{"object":"parohijski dom","desc":"Blagaj, potpuno uništen paljevinom, netačan datum","time0":"1.1.1993","subtype":"burned","type":"destroyed"},"geometry":{"type":"Point","coordinates":[17.88960188627243,43.258008515418496]}},{"type":"Feature","properties":{"type":"damaged","object":"crkvica-kapela","time0":"1.1.1993","desc":"Bijela, netačne koordinate","subtype":"mined"},"geometry":{"type":"Point","coordinates":[17.787981033325195,43.50225440587175]}},{"type":"Feature","properties":{"type":"destroyed","time0":"1.1.1992","desc":"Bradina, crkva Vaznesenja Gospodnjeg, uništena od strane Hrvata, netačan datum. Porušene srbske kuće u naselju","object":"crkva","subtype":"mined"},"geometry":{"type":"Point","coordinates":[18.018782436847687,43.74579129412078]}},{"type":"Feature","properties":{"type":"destroyed","subtype":"mined","time0":"1.1.1992","desc":"Bradina, kapela Svete Ane, netačan datum","object":"kapela"},"geometry":{"type":"Point","coordinates":[18.018589317798615,43.74635709031897]}},{"type":"Feature","properties":{"object":"kapela","desc":"Blace, netačne koordinate, netačan datum","time0":"1.1.1993","subtype":"mined","type":"destroyed"},"geometry":{"type":"Point","coordinates":[18.105318546295166,43.62192591358096]}},{"type":"Feature","properties":{"type":"destroyed","time0":"1.1.1992","desc":"Bijelo polje, netačne koordinate, netačan datum, crkva Vaznesenja Gospodnjeg, muslimani uništili","subtype":"burned","object":"crkva"},"geometry":{"type":"Point","coordinates":[17.818408012390137,43.361709326296044]}},{"type":"Feature","properties":{"desc":"Bogodol, crkva svetih apostola Petra i Pavla, netačan datum, netačne koordinate","object":"crkva","time0":"1.1.1992","subtype":"mined","type":"destroyed"},"geometry":{"type":"Point","coordinates":[17.651231288909912,43.44899336786347]}},{"type":"Feature","properties":{"object":"crkvica-kapela","desc":"Brđani, netačan datum, netačne koordinate","time0":"1.1.1992","subtype":"mined","type":"destroyed"},"geometry":{"type":"Point","coordinates":[18.00632357597351,43.708074350163976]}},{"type":"Feature","properties":{"type":"damaged","subtype":"mined","desc":"Veličani, hrvati granatiraju crkvu Svetih Arhangela i razrušeno je i groblje u blizini kao i kapela Svetih srbskih Novomučenika, netačan datum","object":"crkva","time0":"1.1.1992"},"geometry":{"type":"Point","coordinates":[18.020812869071957,42.8650422683236]}},{"type":"Feature","properties":{"type":"damaged","subtype":"burned","time0":"1.1.1992","object":"crkva","desc":"Glavska, netačan datum, Hrvati zapalili i opljačkali, crkva Svetog arhiđakona Stefana"},"geometry":{"type":"Point","coordinates":[18.264859020709988,42.618906621189524]}},{"type":"Feature","properties":{"type":"destroyed","desc":"selo Hrasno zbrisano sa zemlje, netačan datum, opljačkan i uništen od strane hrvata hram posvećen Svetom Jovnau Krstitelju","object":"crkva","time0":"1.1.1992","subtype":"mined"},"geometry":{"type":"Point","coordinates":[17.9011407494545,42.95061165548713]}},{"type":"Feature","properties":{"type":"damaged","subtype":"ruined","time0":"1.1.1992","desc":"Gornji Poplat, opljačkana i demolirana crkva Svetog arhangela Mihaila, netačan datum, netačne koordinate","object":"crkva"},"geometry":{"type":"Point","coordinates":[18.035495281219482,43.02021158082207]}},{"type":"Feature","properties":{"object":"kapela","desc":"Donje Selo, porušena kapela, netačan datum","time0":"1.1.1992","subtype":"mined","type":"destroyed"},"geometry":{"type":"Point","coordinates":[17.946974337100983,43.662747355414446]}},{"type":"Feature","properties":{"type":"damaged","time0":"1.1.1992","subtype":"ruined","desc":"Dobrič kod Lištice, Hrvati oštetili crkvu Svete velikomiučenice Nedelje, netačan datum, netačne koordinate","object":"crkva"},"geometry":{"type":"Point","coordinates":[17.672710418701172,43.365026281405505]}},{"type":"Feature","properties":{"desc":"Dubrovnik, crkva Blagoveštenja Presvete Bogorodice, oštećen krov pogođen granatama","subtype":"ruined","type":"damaged","time0":"3.4.1992","object":"crkva"},"geometry":{"type":"Point","coordinates":[18.108774572610855,42.64087077313539]}},{"type":"Feature","properties":{"type":"damaged","object":"crkva","desc":"Dubrovnik, crkva Blagoveštenja Presvete Bogorodice, kamenovan ulaz","time0":"7.12.1992","subtype":"ruined"},"geometry":{"type":"Point","coordinates":[18.108798712491986,42.6408658404585]}},{"type":"Feature","properties":{"type":"damaged","subtype":"ruined","desc":"Dubrovnik, crkva Blagoveštenja Presvete Bogorodice, kamenovan ulaz","object":"crkva","time0":"24.12.1992"},"geometry":{"type":"Point","coordinates":[18.10877524316311,42.64084857608633]}},{"type":"Feature","properties":{"time0":"5.9.1996","desc":"Dubrovnik, crkva Blagoveštenja Presvete Bogorodice, bačena bomba pred ulaz ulaz","object":"crkva","subtype":"ruined","type":"damaged"},"geometry":{"type":"Point","coordinates":[18.108771219849586,42.640823912689214]}},{"type":"Feature","properties":{"type":"damaged","subtype":"mined","time0":"27.4.1992","desc":"Dubrovnik, Hrvati su minirali glavna vrata na porti crkve Svetog arhangela Mihaila, na groblju Bonino, sagra]ene 1837, netačne koordinate ","object":"crkva"},"geometry":{"type":"Point","coordinates":[18.097545504570007,42.64588414372492]}},{"type":"Feature","properties":{"type":"damaged","subtype":"ruined","time0":"1.1.1992","desc":"Dubrovnik, geleri ostetili krov i fasadu na crkvi-kapeli Svetog Georgija na Posatu, netačan datum, netačne koordinate","object":"crkvica-kapela"},"geometry":{"type":"Point","coordinates":[18.107292652130127,42.64279054128382]}},{"type":"Feature","properties":{"type":"destroyed","object":"parohijski dom","desc":"Dubrovnik, Hrvati su tokom 91 i 92 spalili staru crkvenu kuću preko puta saborne crkve, nekada Vladičanski konak, od zgrade ostali samo zidovi, netačan datum, netačne koordinate","time0":"1.1.1992","subtype":"burned"},"geometry":{"type":"Point","coordinates":[18.108680695295334,42.640761267616575]}},{"type":"Feature","properties":{"type":"damaged","subtype":"ruined","desc":"Duvno, hram iz 1864 posvećen Svetom Nikoli demoliran od strane Hrvata, netačan datum","object":"crkva","time0":"1.1.1992"},"geometry":{"type":"Point","coordinates":[17.222182452678677,43.723998259019524]}},{"type":"Feature","properties":{"type":"destroyed","subtype":"mined","time0":"1.1.1992","desc":"Začula, hrvatska vojsak do temelja uništila crkvu Svetog proraok Jeremije (Svete Paraskeve), netačan datum, netačne koordinate","object":"crkva"},"geometry":{"type":"Point","coordinates":[18.15986394882202,42.72276828884909]}},{"type":"Feature","properties":{"type":"destroyed","subtype":"mined","time0":"1.1.1992","desc":"Zaplanik, hrvatska vojska je u periodu 1991-1995 spalila pa potom minirala crkvu Vavedenja Presvete Bogorodice, a koristeći je kao toalet, teško oskrnavili, netačan datum","object":"crkva"},"geometry":{"type":"Point","coordinates":[18.153056502342224,42.701262777161865]}},{"type":"Feature","properties":{"subtype":"burned","type":"destroyed","time0":"1.1.1992","desc":"Zukići, srbsko selo uništeno 1992, a kapela potpuno srušena","object":"kapela"},"geometry":{"type":"Point","coordinates":[17.999446392059326,43.730654260933335]}},{"type":"Feature","properties":{"type":"damaged","subtype":"ruined","time0":"1.1.1992","desc":"Idbar, oštećena kapela 1992 godine, netačan datum, netačne koordinate","object":"kapela"},"geometry":{"type":"Point","coordinates":[17.880828380584717,43.641851934940156]}},{"type":"Feature","properties":{"type":"damaged","subtype":"burned","time0":"1.6.1992","desc":"Konjic, muslimani i hravti oštetili zvonik na crkvi Svetog Vasiliija Velikog, sagrađenoj 1886 oskrnavili je, pokrali ikone oštetili ikonostas, crkvene knjige spalili. netačna datum","object":"crkva"},"geometry":{"type":"Point","coordinates":[17.95902818441391,43.653519295551774]}},{"type":"Feature","properties":{"object":"kapela","time0":"1.6.1992","desc":"Konjic, kapela na groblju","type":"damaged","subtype":"burned","koor":"","datum":""},"geometry":{"type":"Point","coordinates":[17.96465277671814,43.64790181661098]}},{"type":"Feature","properties":{"type":"destroyed","desc":"Klepci, crkva Preobraženja Gospodnjeg podignuta 1857, srušena do temelja od strane hrvatske vojske 1992, netačan datum","object":"crkva","time0":"1.1.1992","subtype":"mined"},"geometry":{"type":"Point","coordinates":[17.726475298404694,43.0898678543766]}},{"type":"Feature","properties":{"desc":"Klepci, Hrvatske vojne snage ruše spomenik posvećen žrtvama iz prvog i drugog svjetskog rata","object":"spomenik","time0":"1.1.1992","subtype":"mined","type":"destroyed"},"geometry":{"type":"Point","coordinates":[17.718259692192078,43.09496044958658]}},{"type":"Feature","properties":{"object":"crkva","desc":"Kremena, crkva Svetog Spiridona,, nova je podignuta na starim temeljima 1851 u junu 92 oštećena pa potom i spaljena, iste godine oštećeno i srbsko groblje","time0":"1.6.1992","subtype":"burned","type":"damaged"},"geometry":{"type":"Point","coordinates":[17.497669458389282,42.97152816780857]}},{"type":"Feature","properties":{"desc":"Lokve, novosagrađena kapela, netačan datum, netačne koordinate","object":"kapela","time0":"1.1.1992","subtype":"ruined","type":"destroyed"},"geometry":{"type":"Point","coordinates":[17.82080054283142,43.158384543983814]}},{"type":"Feature","properties":{"desc":"Ljubuški, crkva Svetog arhangela Mihaila, podignuta 1862, zapaljen, miniran i srušen do temelja, netačan datum","object":"crkva","time0":"1.1.1992","type":"destroyed","subtype":"mined"},"geometry":{"type":"Point","coordinates":[17.561495304107666,43.198297456820164]}},{"type":"Feature","properties":{"type":"damaged","subtype":"burned","time0":"1.1.1992","object":"crkva","desc":"Žitomislić, crkva Blagovesti Presvete Bogorodice obnovljena 1563 godine na temeljima stare crkve. U junu 92 Hrvati su manastir zapalili, datum netačan"},"geometry":{"type":"Point","coordinates":[17.793683409690857,43.204385959661685]}},{"type":"Feature","properties":{"type":"destroyed","subtype":"mined","time0":"1.1.1993","desc":"Žitomislić, manastir srušen do temelja, netačan datum","object":"manastir"},"geometry":{"type":"Point","coordinates":[17.793598920106888,43.204393780083834]}},{"type":"Feature","properties":{"object":"manastir","desc":"Zavala, crkva Vavedenja Presvete Bogorodice iz 1514, živopisana 1619, hrvatska vojsak oskrnavila i oštetila u periodu 91-95, netačan datum","time0":"1.1.1991","subtype":"ruined","type":"damaged"},"geometry":{"type":"Point","coordinates":[17.979815304279327,42.85002945657213]}},{"type":"Feature","properties":{"object":"konak","desc":"Zavala, konaci teško oštećeni od strane Hrvata, netačan datum","time0":"1.1.1991","subtype":"ruined","type":"damaged","datum":""},"geometry":{"type":"Point","coordinates":[17.97967180609703,42.84995473238366]}},{"type":"Feature","properties":{"object":"kapela","type":"destroyed","subtype":"ruined","time0":"1.1.1991","desc":"Zavala, manastirska kapela uništena od strane Hrvata, netalan datum, netačne koordinate","koor":"ne","datum":"ne"},"geometry":{"type":"Point","coordinates":[17.979954108595848,42.84992572757561]}},{"type":"Feature","properties":{"desc":"Metković, crkva Svetog velikomučenika Georgija sagrađena 1849 ba temeqima stare crkve, hrvatska vojska u maju 92 zapalila pa minirala i tom prilikom groblje znatno oštetila","object":"crkva","datum":"ne","time0":"1.6.1992","subtype":"mined","type":"destroyed"},"geometry":{"type":"Point","coordinates":[17.6514995098114,43.05155405310484]}},{"type":"Feature","properties":{"datum":"ne","desc":"Orašje, crkva Svetog Jovana Krstitelja u periodu 92-93 granatirana","type":"damaged","subtype":"mined","time0":"1.1.1992","object":"crkva"},"geometry":{"type":"Point","coordinates":[18.26279103755951,42.667925552643595]}},{"type":"Feature","properties":{"desc":"Orah, hrvatska vojska je granatirala crkvu Rođenja Presvete Bogorodice","object":"crkva","datum":"ne","koor":"ne","time0":"1.1.1992","subtype":"mined","type":"damaged"},"geometry":{"type":"Point","coordinates":[18.181064128875732,42.701306142544915]}},{"type":"Feature","properties":{"desc":"Opuzen, Hrvati su spalili crkvu Uspenja Presvete Bogorodice sagrađenu 1714 ","object":"crkva","koor":"ne","datum":"ne","time0":"1.1.1992","subtype":"burned","type":"damaged"},"geometry":{"type":"Point","coordinates":[17.561323642730713,43.01541086985243]}},{"type":"Feature","properties":{"type":"destroyed","koor":"","datum":"ne","object":"crkva","desc":"Opličići, crkva Pokrova Presvete Bogorodice podignuta na temeljima stare crkve 1872. Srušen do temelja  u periodu 92'95. Porušen je i parohijski i Svetosavski dom","time0":"1.1.1992","subtype":"mined"},"geometry":{"type":"Point","coordinates":[17.813424468040466,43.11737850080615]}},{"type":"Feature","properties":{"desc":"Ostrožac, oštećena kapela u periodu 91-95","object":"kapela","datum":"ne","koor":"ne","time0":"1.1.1992","subtype":"ruined","type":"damaged"},"geometry":{"type":"Point","coordinates":[17.82843947410583,43.68491180031955]}},{"type":"Feature","properties":{"type":"damaged","desc":"Ošanići, crkva Svetih apostola Petra i Pavla iz 1480","subtype":"robbed","time0":"1.1.1992","object":"crkva","koor":"","datum":"ne"},"geometry":{"type":"Point","coordinates":[17.938686311244965,43.09507600741032]}},{"type":"Feature","properties":{"koor":"ne","datum":"ne","object":"crkva","desc":"Podosoje (visoravan Bobani), crkva podignuta u skorije vrijeme srušena","time0":"1.1.1992","subtype":"mined","type":"destroyed"},"geometry":{"type":"Point","coordinates":[18.037147521972656,42.75633997707593]}},{"type":"Feature","properties":{"type":"damaged","subtype":"mined","time0":"1.1.1992","desc":"Poljice, crkvica Svetog Nikole iz 19 vijeka oštećena granatama hrvatske vojske u periodu 91-93","object":"crkva","koor":"","datum":"ne"},"geometry":{"type":"Point","coordinates":[18.098924160003662,42.839967424519095]}},{"type":"Feature","properties":{"desc":"Poljice, mala crkva Svetog Jovana Krstitelja iz 19 vijeka oštećena granatama hrvatske vojske u periodu 91-93","object":"crkva","koor":"ne","datum":"ne","time0":"1.1.1992","subtype":"mined","type":"damaged"},"geometry":{"type":"Point","coordinates":[18.075127601623535,42.815079154609705]}},{"type":"Feature","properties":{"object":"kapela","type":"destroyed","subtype":"mined","time0":"1.1.1992","desc":"Prebilovci, tokom 92 hrvatska vojska je granatirala a potom minirala spomen kapelu srbskim novomučenicima postradalim u drugom svjetskom ratu","datum":"ne"},"geometry":{"type":"Point","coordinates":[17.74015188217163,43.093838156328665]}},{"type":"Feature","properties":{"object":"kapela","koor":"ne","datum":"ne","type":"destroyed","subtype":"ruined","time0":"1.1.1992","desc":"Prebilovci, tokom 92 uništena kapela"},"geometry":{"type":"Point","coordinates":[17.741332054138184,43.092960677116295]}},{"type":"Feature","properties":{"koor":"ne","datum":"ne","desc":"Prosjek, crkva Vozdviženija časnog Krsta oštetila hrvatska vojska 91-93","object":"crkva","time0":"1.1.1992","subtype":"ruined","type":"damaged"},"geometry":{"type":"Point","coordinates":[18.115826100111008,42.75691011719408]}},{"type":"Feature","properties":{"desc":"Ravno, crkva Svete Pedesetnice iz 1900 godine znatno oštećena, opljačkana i oskrnavljena u periodu 91-95","object":"crkva","koor":"ne","datum":"ne","time0":"1.1.1992","subtype":"ruined","type":"damaged"},"geometry":{"type":"Point","coordinates":[17.964588403701782,42.886860420733626]}},{"type":"Feature","properties":{"desc":"Rapti, crkva Vozdviženja časnog Krsta znatno oštećena kao i groblje tokom 1992 godine","type":"damaged","object":"crkva","koor":"","datum":"ne","time0":"1.1.1992","subtype":"ruined"},"geometry":{"type":"Point","coordinates":[18.06900680065155,42.787535373360186]}}]}