{"type":"FeatureCollection","features":[{"type":"Feature","properties":{"type":"damaged","subtype":"ruined","desc":"Pakrac, crkva SveteTrojice, građena na temeljima starije u vremenu 1757'1768 godine,","object":"crkva","time0":"1.1.1992","koor":"","date0":"ne"},"geometry":{"type":"Point","coordinates":[17.195341587066647,45.435186398773645]}},{"type":"Feature","properties":{"type":"damaged","subtype":"ruined","desc":"Pakrac, vladičanski dvor, iz 1732 godine","object":"dom","time0":"1.1.1992","koor":"","date0":"ne"},"geometry":{"type":"Point","coordinates":[17.194794416427612,45.43492289743169]}},{"type":"Feature","properties":{"koor":"ne","date0":"ne","time0":"1.1.1992","object":"crkva","desc":"Batinjani, crkva Svetog velikomučenika Dimitrija, iz 1739 godine, uništena van ratnih dejstava","subtype":"mined","type":"destroyed"},"geometry":{"type":"Point","coordinates":[17.25751519203186,45.617286850150045]}},{"type":"Feature","properties":{"type":"damaged","subtype":"burned","desc":"Bijela, crkva Svetih arhangela Mihaila i Gavrila, iz 1751 godine","time0":"1.1.1992","object":"crkva","date0":"ne"},"geometry":{"type":"Point","coordinates":[17.300838232040405,45.56037758466717]}},{"type":"Feature","properties":{"type":"damaged","subtype":"burned","desc":"Bijela, parohijski dom","object":"dom","time0":"1.1.1992","koor":"ne","date0":"ne"},"geometry":{"type":"Point","coordinates":[17.301836013793945,45.560358804982876]}},{"type":"Feature","properties":{"desc":"Bebrina, crkva Svetog kneza Lazara, srušili Hrvati do temelja","time0":"1.8.1991","koor":"ne","date0":"ne","object":"crkva","subtype":"mined","type":"destroyed"},"geometry":{"type":"Point","coordinates":[17.828975915908813,45.096314324780586]}},{"type":"Feature","properties":{"type":"damaged","subtype":"ruined","desc":"Bodegraj, crkva Upenja Presvete Bogorodice, dozidan zvonik na nekadašnji parohijski dom,","object":"crkva","time0":"1.5.1995","koor":"","date0":"ne"},"geometry":{"type":"Point","coordinates":[17.173218727111816,45.27262329491032]}},{"type":"Feature","properties":{"subtype":"mined","type":"destroyed","desc":"Brodski zdenci, crkva Rođenja Presvete Bogorodice, sagrađena 1926 godine, Hrvati minirali tokom 93e godine","object":"crkva","time0":"1.1.1993","koor":"","date0":"ne"},"geometry":{"type":"Point","coordinates":[17.94794261455536,45.25678254909094]}},{"type":"Feature","properties":{"subtype":"ruined","object":"crkva","time0":"1.1.1992","date0":"ne","desc":"Veliki Bastaji, crkva Svetog velikomučenika Georgija, iz 1756 godine","type":"damaged"},"geometry":{"type":"Point","coordinates":[17.32116937637329,45.64520324979313]}},{"type":"Feature","properties":{"subtype":"mined","object":"dom","time0":"1.1.1992","koor":"ne","date0":"ne","desc":"Veliki Bastaji, parohijski dom","type":"destroyed"},"geometry":{"type":"Point","coordinates":[17.321011126041412,45.64445694275251]}},{"type":"Feature","properties":{"type":"damaged","subtype":"ruined","desc":"Vrbovljani, ,kapela Svetog Save ustanovljenu u parohijskom domu, Hrvati opljačkali i oštetili","time0":"1.5.1995","date0":"ne","object":"kapela"},"geometry":{"type":"Point","coordinates":[17.169200778007507,45.24790783676758]}},{"type":"Feature","properties":{"date0":"ne","time0":"1.1.1942","object":"crkva","subtype":"mined","type":"destroyed","desc":"Voćin, crkva Svetih 318 Bogonosnih otaca, iz 1790 godine, Hrvati spalili"},"geometry":{"type":"Point","coordinates":[17.539072036743164,45.61155893105435]}},{"type":"Feature","properties":{"date0":"","time0":"13.12.1991","koor":"","object":"crkva","subtype":"mined","type":"destroyed","desc":"Voćin, crkva Svetih 318 Bogonosnih otaca, obnovljena 1976, Hrvati minirali"},"geometry":{"type":"Point","coordinates":[17.539125680923462,45.61155330228406]}},{"type":"Feature","properties":{"koor":"ne","date0":"","object":"dom","subtype":"mined","type":"destroyed","desc":"Voćin, parohijski dom","time0":"13.12.1991"},"geometry":{"type":"Point","coordinates":[17.53928929567337,45.611729670151526]}},{"type":"Feature","properties":{"type":"damaged","subtype":"robbed","desc":"Gazije, crkva Svete Trojice, iz 1754 godine, nestalo 8 ikona, fasada oštećena vatrenim oružjem ","object":"crkva","time0":"1.1.1992","koor":"","date0":"ne"},"geometry":{"type":"Point","coordinates":[17.95178085565567,45.48930041708364]}},{"type":"Feature","properties":{"desc":"Gorice, crkva Vaznesenja Gospodnjeg, ","subtype":"burned","type":"destroyed","object":"crkva","time0":"1.1.1992","koor":"","date0":"ne"},"geometry":{"type":"Point","coordinates":[17.286424040794373,45.22002844754816]}},{"type":"Feature","properties":{"koor":"ne","date0":"ne","desc":"Gornji Rajić, crkva Svetog Save, opljačkana i izlomljena","time0":"1.5.1995","object":"crkva","subtype":"ruined","type":"damaged"},"geometry":{"type":"Point","coordinates":[17.10494041442871,45.313830798340405]}},{"type":"Feature","properties":{"koor":"ne","date0":"ne","time0":"1.1.1942","desc":"Gornja Bukovica, crkva Svetog proroka Ilija, iz 1795 godine, Hrvati srušili","object":"crkva","subtype":"mined","type":"destroyed"},"geometry":{"type":"Point","coordinates":[17.773196697235104,45.66134205057207]}},{"type":"Feature","properties":{"koor":"ne","date0":"ne","desc":"Gornja Bukovica, crkva Svetog proroka Ilija, obnovljena 1989 godine","object":"crkva","time0":"1.1.1992","subtype":"mined","type":"destroyed"},"geometry":{"type":"Point","coordinates":[17.764838933944702,45.661889428335094]}},{"type":"Feature","properties":{"object":"crkva","time0":"1.1.1992","desc":"Gornji Miholjac, crkva Silaska Svetog Duha, iz 1793 godine, na mestu starije crkve","subtype":"ruined","type":"damaged","koor":"","date0":"ne"},"geometry":{"type":"Point","coordinates":[17.65991896390915,45.76158960356045]}},{"type":"Feature","properties":{"object":"dom","time0":"1.1.1992","koor":"ne","date0":"ne","desc":"Gornji Miholjac, parohijski dom, hrvati srušili van ratnih dejstava","type":"destroyed","subtype":"mined"},"geometry":{"type":"Point","coordinates":[17.659336924552914,45.76172807449706]}},{"type":"Feature","properties":{"desc":"Donji Grahovljani, crkva Svetih apostola Petra i Pavla, Hrvati teško oštetili, ","object":"crkva","time0":"1.1.1992","koor":"","date0":"ne","subtype":"ruined","type":"damaged"},"geometry":{"type":"Point","coordinates":[17.26454794406891,45.49677052189719]}},{"type":"Feature","properties":{"desc":"Donji Grahovljani, parohijski dom","subtype":"mined","type":"destroyed","object":"dom","time0":"1.1.1992","koor":"ne","date0":"ne"},"geometry":{"type":"Point","coordinates":[17.254036366939545,45.49381493817879]}},{"type":"Feature","properties":{"type":"destroyed","subtype":"mined","desc":"Gradište, parohijski dom, sagrađen 1990, porušen van ratnih dejstava","object":"dom","time0":"1.1.1992","date0":"ne","koor":"ne"},"geometry":{"type":"Point","coordinates":[17.942991256713867,45.404062148851466]}},{"type":"Feature","properties":{"date0":"ne","desc":"Gređani, crkva Svete Paraskeve, sagrađena 1750 godine na temeljima starije, Hrvati srušili","type":"destroyed","subtype":"mined","object":"crkva","time0":"1.1.1942"},"geometry":{"type":"Point","coordinates":[17.17928320169449,45.21463798827234]}},{"type":"Feature","properties":{"date0":"ne","desc":"Gređani, crkva Svete paraskeve, obnovljena 1975 godine","object":"crkva","time0":"1.5.1992","subtype":"ruined","type":"damaged"},"geometry":{"type":"Point","coordinates":[17.17933416366577,45.21466444112526]}},{"type":"Feature","properties":{"object":"dom","koor":"ne","date0":"ne","time0":"1.5.1992","type":"damaged","desc":"Gređani, parohijski dom","subtype":"ruined"},"geometry":{"type":"Point","coordinates":[17.17965066432953,45.21452083977587]}},{"type":"Feature","properties":{"desc":"Daruvar, crkva Svetih otaca Prvog Vaseljenskog Sabora, sagrađena 1756 godine na temeljima ranije crkve, neznatno oštećena","type":"damaged","subtype":"ruined","object":"crkva","time0":"1.1.1992","koor":"","date0":"ne"},"geometry":{"type":"Point","coordinates":[17.224266529083252,45.59391371473447]}},{"type":"Feature","properties":{"desc":"Dobrović, crkva Vaznesenja Gospodnjeg, iz 1749 godine, Hrvati srušili","object":"crkva","time0":"1.1.1942","koor":"ne","date0":"ne","subtype":"mined","type":"destroyed"},"geometry":{"type":"Point","coordinates":[17.851468920707703,45.66149576678565]}},{"type":"Feature","properties":{"subtype":"mined","desc":"Dobrović, parohijski dom sa kapelom je miniran","object":"kapela","time0":"1.1.1992","koor":"ne","date0":"ne","type":"damaged"},"geometry":{"type":"Point","coordinates":[17.851431369781494,45.66134954893374]}},{"type":"Feature","properties":{"desc":"Doljani, crkva Svetog proroka Ilije, sagrađena 1805 godine, na temeljima starije crkve","object":"crkva","time0":"1.1.1992","koor":"","date0":"ne","subtype":"burned","type":"damaged"},"geometry":{"type":"Point","coordinates":[17.219175696372986,45.564484550825846]}},{"type":"Feature","properties":{"koor":"ne","date0":"ne","subtype":"mined","type":"damaged","desc":"Doljani, parohijski dom","object":"dom","time0":"1.1.1992"},"geometry":{"type":"Point","coordinates":[17.21906840801239,45.5641916084511]}},{"type":"Feature","properties":{"desc":"Dijelka, crkva Svetog velikomučenika kneza Lazara, srušili Hrvati","object":"crkva","time0":"1.1.1942","date0":"ne","type":"destroyed","subtype":"mined"},"geometry":{"type":"Point","coordinates":[17.48153328895569,45.9143455871076]}},{"type":"Feature","properties":{"desc":"Dijelka, parohijski dom sa kapelom i zvonikom, srušili Hrvati","object":"kapela","time0":"1.1.1992","koor":"ne","date0":"ne","subtype":"mined","type":"damaged"},"geometry":{"type":"Point","coordinates":[17.4818953871727,45.91360473996668]}},{"type":"Feature","properties":{"desc":"Donji Rajić, crkva Preobraženja Gospodnjeg, iz 1813 godine, srušili Hrvati tokom 1941","object":"crkva","time0":"1.1.1942","koor":"","date0":"ne","subtype":"mined","type":"destroyed"},"geometry":{"type":"Point","coordinates":[17.115438580513,45.302382346960286]}},{"type":"Feature","properties":{"desc":"Donji Rajić, crkva Preobraženja Gospodnjeg, obnovljena 1990 godine, oštećena pucnjavom tokom 1991 godine","object":"crkva","time0":"1.1.1992","date0":"ne","type":"damaged","subtype":"ruined"},"geometry":{"type":"Point","coordinates":[17.115489542484283,45.302414418680954]}},{"type":"Feature","properties":{"desc":"Donji Rajić, crkva Preobraženja Gospodnjeg, Hrvati izlomili crkvu i zapalili","object":"crkva","time0":"1.1.1992","date0":"ne","type":"damaged","subtype":"burned"},"geometry":{"type":"Point","coordinates":[17.115425169467926,45.30235782151457]}},{"type":"Feature","properties":{"desc":"Donji Bobićevci, crkva Svetog Haralampija, iz 18og vijeka, oštećena granatama","object":"crkva","time0":"1.1.1992","date0":"ne","subtype":"mined","type":"damaged"},"geometry":{"type":"Point","coordinates":[17.258888483047482,45.22825768987298]}},{"type":"Feature","properties":{"desc":"Donji Čaglić, crkva Svetog Nikole, iz 1757 godine, Hrvati spalili 1942 godine","object":"crkva","time0":"1.1.1942","koor":"","date0":"ne","subtype":"burned","type":"damaged"},"geometry":{"type":"Point","coordinates":[17.154829502105713,45.384096852183994]}},{"type":"Feature","properties":{"type":"damaged","subtype":"mined","desc":"Donji Čaglić, crkva Svetog Nikole, obnovljena 1990 godine, Hrvati teško oštetili granatiranjem","object":"crkva","time0":"1.1.1992","date0":"ne"},"geometry":{"type":"Point","coordinates":[17.15487778186798,45.384068594407964]}},{"type":"Feature","properties":{"type":"damaged","subtype":"mined","desc":"Donji Čaglić, crkva Svetog Nikole, obnovljena 1994 godine, Hrvati granatirali","object":"crkva","time0":"1.5.1995","date0":"ne"},"geometry":{"type":"Point","coordinates":[17.154754400253296,45.384110039141326]}},{"type":"Feature","properties":{"desc":"Dragović, crkva Svetog Save, podignuta 1940 godine","type":"damaged","subtype":"ruined","object":"crkva","time0":"1.1.1992","date0":"ne"},"geometry":{"type":"Point","coordinates":[17.276081442832947,45.470025491247604]}},{"type":"Feature","properties":{"date0":"ne","desc":"Jasenovac, crkva Rođenja Svetog Jovana Krstitelja, iz 1775 godine, srušili Hrvati 1941 godine","time0":"1.1.1942","type":"destroyed","subtype":"ruined","object":"crkva"},"geometry":{"type":"Point","coordinates":[16.911842823028564,45.27169083144666]}},{"type":"Feature","properties":{"date0":"ne","time0":"1.1.1992","desc":"Jasenovac, crkva Rođenja Svetog Jovana Krstitelja, obnovljena 1984, Hravti oštetili","object":"crkva","subtype":"ruined","type":"damaged"},"geometry":{"type":"Point","coordinates":[16.911889761686325,45.27170970737719]}},{"type":"Feature","properties":{"date0":"ne","time0":"1.1.1992","desc":"Jasenovac, crkva Rođenja Svetog Jovana Krstitelja, granatirana","object":"crkva","subtype":"mined","type":"damaged"},"geometry":{"type":"Point","coordinates":[16.91187635064125,45.27167667449463]}},{"type":"Feature","properties":{"koor":"ne","date0":"ne","time0":"1.5.1995","desc":"Jasenovac, parohijski dom","object":"dom","subtype":"burned","type":"damaged"},"geometry":{"type":"Point","coordinates":[16.911821365356445,45.27147187019357]}},{"type":"Feature","properties":{"desc":"Jazavica, kapela Svete Petke, iz 19og vijeka, opljačkana i izlomljena od strane Hrvata","object":"kapela","time0":"4.10.1991","koor":"","date0":"","subtype":"ruined","type":"damaged"},"geometry":{"type":"Point","coordinates":[17.054834067821503,45.31957961792968]}},{"type":"Feature","properties":{"desc":"Katinac, crkva Svetih apostola Petra i Pavla, podignuta 1750 godine, opljačkana i izlomljena krajem 91 godine","object":"crkva","time0":"1.1.1992","date0":"ne","subtype":"ruined","type":"damaged"},"geometry":{"type":"Point","coordinates":[17.40671843290329,45.65522492749224]}},{"type":"Feature","properties":{"desc":"Koreničani, crkva Svetog Nikole,","object":"crkva","time0":"1.1.1992","koor":"","date0":"ne","subtype":"mined","type":"damaged"},"geometry":{"type":"Point","coordinates":[17.37394854426384,45.637755672713844]}},{"type":"Feature","properties":{"desc":"Klokočevik, crkva Svete Trojice, sagrađena u vremenu 1756-1760 godine, Hrvati srušili","time0":"1.1.1942","date0":"ne","object":"crkva","subtype":"mined","type":"destroyed"},"geometry":{"type":"Point","coordinates":[18.144175708293915,45.22335164816069]}},{"type":"Feature","properties":{"time0":"1.11.1992","date0":"ne","object":"crkva","desc":"Klokočevik, crkva Svete Trojice, podignuta nova 1988 godine, Hrvati srušili van ratnih dejstava","subtype":"mined","type":"destroyed"},"geometry":{"type":"Point","coordinates":[18.14424142241478,45.22334975896027]}},{"type":"Feature","properties":{"desc":"Kreštelovac, crkva Uspenja Presvete Bogorodice, u narodu zvana Svetinja, sagrađenja 1754 godine, oskrnavljena","object":"crkva","time0":"1.1.1992","date0":"ne","subtype":"ruined","type":"damaged"},"geometry":{"type":"Point","coordinates":[17.07204043865204,45.57923860762162]}},{"type":"Feature","properties":{"desc":"Kusonje, crkva Svetog velikomučenika Georgija, iz 1734 godine, Hrvati zapalili zajedno sa 460 Srba u njoj","subtype":"burned","type":"damaged","time0":"13.8.1942","koor":"","date0":"","object":"crkva"},"geometry":{"type":"Point","coordinates":[17.226245999336243,45.461011086895525]}},{"type":"Feature","properties":{"desc":"Kusonje, crkva Svetog velikomučenika Georgija, pord zabrane obnovljena 1987, hram izlomljen i oskrnavljen","subtype":"ruined","type":"damaged","object":"crkva","time0":"1.1.1992","date0":"ne"},"geometry":{"type":"Point","coordinates":[17.2261843085289,45.460982867590396]}},{"type":"Feature","properties":{"object":"dom","time0":"1.1.1992","koor":"","date0":"ne","desc":"Kusonje, parohijski dom, oštećen granatama","subtype":"mined","type":"damaged"},"geometry":{"type":"Point","coordinates":[17.22530722618103,45.46092266635888]}},{"type":"Feature","properties":{"object":"crkva","time0":"1.12.1992","desc":"Kukunjevac, crkva Svete Petke, sagrađena 1782 godinem na temeljima starije crkve, grantirana pa minirana","subtype":"mined","type":"destroyed","date0":"ne"},"geometry":{"type":"Point","coordinates":[17.098987251520157,45.44461705450892]}},{"type":"Feature","properties":{"object":"dom","time0":"1.12.1992","desc":"Kukunjevac, parohijski dom, ,minirali Hrvati u decembru 1991 godine","subtype":"mined","type":"damaged","date0":"ne"},"geometry":{"type":"Point","coordinates":[17.09764078259468,45.445331205796734]}},{"type":"Feature","properties":{"type":"destroyed","desc":"Kućanci, crkva Svetih apostola Petra i Pavla, sagrađena 1828 godine na mjestu starije iz 1748 godine.","time0":"20.12.1991","object":"crkva","subtype":"mined"},"geometry":{"type":"Point","coordinates":[18.134007453918457,45.656002962156116]}},{"type":"Feature","properties":{"desc":"Bodegraj, crkva Uspenja Presvete Bogorodice, sagrađena 1790 godine, do temelja srušili Hrvati iz Borovca 1941 godine, da bi podigli sebi zgradu u Borovcu","object":"crkva","time0":"1.1.1942","date0":"ne","subtype":"ruined","type":"destroyed"},"geometry":{"type":"Point","coordinates":[17.1735768020153,45.27393230430724]}},{"type":"Feature","properties":{"desc":"Lovska, crkva Svetog Teodora Tirona, iz 17746 godine, granatirali Hrvati i teško oštećena","object":"crkva","time0":"1.10.1991","subtype":"mined","type":"damaged"},"geometry":{"type":"Point","coordinates":[17.040202617645264,45.40413747623496]}},{"type":"Feature","properties":{"date0":"ne","object":"dom","desc":"Lovska, parohijski dom, oštećen granatiranjem","subtype":"mined","type":"damaged","time0":"1.10.1991"},"geometry":{"type":"Point","coordinates":[17.03953742980957,45.40384934845043]}},{"type":"Feature","properties":{"desc":"Lisičine, crkva Svetog velikomučenika Georgija, sagrašena 1869 godine, na mjestu starije iz 1748 godine, obnovljena 1990 godine, porušena krajem 1991.","object":"crkva","time0":"1.1.1992","koor":"","date0":"ne","type":"destroyed","subtype":"mined"},"geometry":{"type":"Point","coordinates":[17.514899969100952,45.657622739403315]}},{"type":"Feature","properties":{"time0":"1.1.1992","object":"dom","desc":"Lisičine, parohijski dom, porušili Hrvati","type":"destroyed","subtype":"mined","date0":"ne"},"geometry":{"type":"Point","coordinates":[17.514425218105316,45.658057671610365]}},{"type":"Feature","properties":{"desc":"Londžica, parohijski dom, miniran","time0":"1.9.1993","date0":"ne","object":"dom","subtype":"mined","type":"damaged"},"geometry":{"type":"Point","coordinates":[18.038257956504822,45.412373919623974]}},{"type":"Feature","properties":{"desc":"Donji Bokri, crkva Vavedenja Presvete Bogorodice, u manastiru Pakra, osnovan 1556 godine, dok crkva potiče iz 1765 godine, Hrvati provalili, opljačkali i izlomili","object":"crkva","time0":"1.1.1992","date0":"ne","subtype":"ruined","type":"damaged"},"geometry":{"type":"Point","coordinates":[17.337074875831604,45.55380806816991]}},{"type":"Feature","properties":{"type":"damaged","subtype":"ruined","desc":"Donja Vrijeska, crkva Svete Ane, u manastiru Svete Ane, sagrađena 1412 godine kao pavlinski manastir, da bi u 17om vijeku bila dodeljena pravoslavnim monasima, manastir oštećen krajme 91 godine","object":"crkva","time0":"1.1.1992","koor":"","date0":"ne"},"geometry":{"type":"Point","coordinates":[17.269990146160126,45.65171520062707]}},{"type":"Feature","properties":{"desc":"Donja Vrijeska, crkva Svete Ane, u manastiru Svete Ane, u maju 95 hrvatska vojska izlomila crkvu","subtype":"ruined","type":"damaged","object":"crkva","time0":"1.5.1995","koor":"","date0":"ne"},"geometry":{"type":"Point","coordinates":[17.269896268844604,45.65171520062707]}},{"type":"Feature","properties":{"object":"crkva","subtype":"mined","desc":"Mašić, crkva Svetog Ilije, iz 19og vijeka, Hrvati granatirali pošetkom 91 godine","time0":"1.1.1992","koor":"","date0":"ne","type":"damaged"},"geometry":{"type":"Point","coordinates":[17.328035831451416,45.2666998151464]}},{"type":"Feature","properties":{"koor":"ne","date0":"ne","type":"damaged","subtype":"ruined","desc":"Mašićka Šagovina, kapela Vaznesenja Gospodnjeg, sa pošetka 20og vijeka, oštećena u avgustu/septembru 1991 godine","time0":"1.9.1991","object":"kapela"},"geometry":{"type":"Point","coordinates":[17.281333208084103,45.309714979391686]}},{"type":"Feature","properties":{"subtype":"ruined","type":"damaged","desc":"Mašićka Šagovina, kapela Svetog velikomučenika Georgija iz 19og vijeka, oštećena u avgustu/septembru 1991 godine","object":"kapela","time0":"1.9.1991","koor":"ne","date0":"ne"},"geometry":{"type":"Point","coordinates":[17.281191051006317,45.31031860124004]}},{"type":"Feature","properties":{"desc":"Medinci, crkva Svete Parskeve, iz 1747 godine, Hrvati srušili 1942 godine","time0":"1.1.1942","date0":"ne","object":"crkva","subtype":"mined","type":"destroyed"},"geometry":{"type":"Point","coordinates":[17.750011682510372,45.73710291468801]}},{"type":"Feature","properties":{"date0":"ne","object":"crkva","desc":"Medinci, crkva Svete Parskeve, ponovo sagrađena 1972 godine, oštećena granatiranjem","time0":"1.1.1992","subtype":"ruined","type":"damaged"},"geometry":{"type":"Point","coordinates":[17.750065326690674,45.73711040289666]}},{"type":"Feature","properties":{"object":"crkva","time0":"1.1.1942","date0":"ne","desc":"Medari, crkva Preobraženja Gospodnjeg, iz 1777 godine, Hrvati zapalili","type":"damaged","subtype":"burned"},"geometry":{"type":"Point","coordinates":[17.28906601667404,45.26638455845865]}},{"type":"Feature","properties":{"object":"crkva","time0":"1.1.1992","date0":"ne","desc":"Medari, crkva Preobraženja Gospodnjeg, teško oštećena granatama","type":"damaged","subtype":"ruined"},"geometry":{"type":"Point","coordinates":[17.289178669452667,45.266365680757104]}},{"type":"Feature","properties":{"type":"damaged","subtype":"ruined","desc":"Medari, parohijski dom, teško oštećen","object":"dom","time0":"1.1.1992","date0":"ne"},"geometry":{"type":"Point","coordinates":[17.2885724902153,45.26642986491672]}},{"type":"Feature","properties":{"desc":"Mikleuš, crkva Svete Trojice, sagrađena 1747 godine, Hrvati minirali ","time0":"1.4.1992","koor":"","date0":"ne","object":"crkva","subtype":"mined","type":"damaged"},"geometry":{"type":"Point","coordinates":[17.807762324810025,45.61338637527896]}},{"type":"Feature","properties":{"desc":"Mikleuš, parohijski dom, opljačkan i izlomljen","object":"dom","time0":"1.4.1992","date0":"ne","subtype":"ruined","type":"damaged"},"geometry":{"type":"Point","coordinates":[17.807365357875824,45.61334603706042]}},{"type":"Feature","properties":{"time0":"7.7.1941","date0":"","desc":"Nova Gradiška, crkva Svete Trojice, sagrađena 1738 godine, Hrati srušili do temelja","object":"crkva","subtype":"mined","type":"destroyed"},"geometry":{"type":"Point","coordinates":[17.38232910633087,45.259091635150945]}},{"type":"Feature","properties":{"time0":"1.4.1992","type":"destroyed","date0":"ne","desc":"Nova Gradiška, crkva Svete Trojice, sagrađena 1982 godine, mineri iz ZAgreba morali čak devet puta da je miniraju da bi uklonili i najmanji trag njenog postojanja","object":"crkva","subtype":"mined"},"geometry":{"type":"Point","coordinates":[17.382296919822693,45.259093523163266]}},{"type":"Feature","properties":{"desc":"Nova Gradiška, crkva Prenosa moštiju Svetog Nikole , sagrađena na groblju 1818 godine, Hrvati srušili","object":"crkva","time0":"1.1.1992","date0":"ne","subtype":"mined","type":"destroyed"},"geometry":{"type":"Point","coordinates":[17.3733651638031,45.26368498339995]}},{"type":"Feature","properties":{"desc":"Novo Topolje, crkva Svetog proroka Ilije, Hrvati srušili 1941 godine","object":"crkva","time0":"1.1.1942","date0":"ne","subtype":"mined","type":"destroyed"},"geometry":{"type":"Point","coordinates":[18.240981996059418,45.20746692189949]}},{"type":"Feature","properties":{"desc":"Novo Topolje, crkva Svetog proroka Ilije. nova crkva podignuta 1988 godine, znatno oštećena","object":"crkva","time0":"1.1.1992","date0":"ne","subtype":"ruined","type":"damaged"},"geometry":{"type":"Point","coordinates":[18.24096590280533,45.20744991434329]}},{"type":"Feature","properties":{"type":"destroyed","desc":"Obradovci, crkva Svete Paraskeve, sagrađena 1774 godine, gotovo uništena","object":"crkva","time0":"1.1.1942","date0":"ne","subtype":"mined"},"geometry":{"type":"Point","coordinates":[17.946856319904327,45.619444283444444]}},{"type":"Feature","properties":{"date0":"","time0":"27.11.1991","desc":"Obradovci, crkva Svete Paraskeve, Hrvati opljačkali pa minirali i teško oštetili","object":"crkva","subtype":"mined","type":"damaged"},"geometry":{"type":"Point","coordinates":[17.946907281875607,45.619442407451565]}},{"type":"Feature","properties":{"object":"crkva","time0":"1.1.1942","date0":"ne","desc":"Okučani, crkva Svetog velikomučenika Dimitrija, ","subtype":"ruined","type":"destroyed"},"geometry":{"type":"Point","coordinates":[17.201841920614243,45.25988742678171]}},{"type":"Feature","properties":{"object":"crkva","time0":"1.1.1992","date0":"ne","desc":"Okučani, crkva Svetog velikomučenika Dimitrija, novi hram podignut 1969 godine, oštećen 1991 godine ","type":"damaged","subtype":"ruined"},"geometry":{"type":"Point","coordinates":[17.201855331659317,45.25995445024134]}},{"type":"Feature","properties":{"object":"crkva","time0":"1.1.1995","date0":"ne","desc":"Okučani, crkva Svetog velikomučenika Dimitrija, provaljena i izlomljena ","type":"damaged","subtype":"ruined"},"geometry":{"type":"Point","coordinates":[17.201862037181854,45.25992801846389]}},{"type":"Feature","properties":{"object":"crkva","time0":"1.1.1997","date0":"ne","desc":"Okučani, crkva Svetog velikomučenika Dimitrija, oskrnavljena","type":"damaged","subtype":"ruined"},"geometry":{"type":"Point","coordinates":[17.201876789331436,45.25990253066682]}},{"type":"Feature","properties":{"desc":"Okučani, parohijski dom","subtype":"burned","type":"damaged","object":"dom","time0":"1.1.1997","date0":"ne"},"geometry":{"type":"Point","coordinates":[17.201414108276367,45.25956930026745]}},{"type":"Feature","properties":{"desc":"Gornja Obrijež, crkva Svetog Jovana Bogoslova, iz 1747 godine, provaljena i izlomljena 1991 godine","time0":"1.1.1992","date0":"ne","object":"crkva","type":"damaged","subtype":"ruined"},"geometry":{"type":"Point","coordinates":[17.159375846385952,45.48940007514108]}},{"type":"Feature","properties":{"desc":"Orahovica, konake manastira zapalili partizani 1943","object":"dom","time0":"1.1.1943","koor":"","date0":"ne","subtype":"burned","type":"damaged"},"geometry":{"type":"Point","coordinates":[17.877910137176514,45.4876325287077]}},{"type":"Feature","properties":{"date0":"","koor":"ne","desc":"Orahovica, crkva Svetog Rođenja Presvete Bogorodice, građena u vremenu 1758-17762 godine, Hrvati je srušili na Božić 1942 godine","object":"crkva","subtype":"mined","type":"destroyed","time0":"7.1.1942"},"geometry":{"type":"Point","coordinates":[17.88227140903473,45.532052567230465]}},{"type":"Feature","properties":{"date0":"ne","koor":"ne","desc":"Orahovica, kapela u parohijskom domu, minirana","time0":"1.1.1992","object":"kapela","type":"damaged","subtype":"mined"},"geometry":{"type":"Point","coordinates":[17.882236540317535,45.53246216912796]}},{"type":"Feature","properties":{"desc":"Oljasi, parohijski dom i kapelaSvete Petke uređena u domu, oštečeni granatama","object":"kapela","time0":"1.1.1992","koor":"ne","date0":"ne","subtype":"mined","type":"damaged"},"geometry":{"type":"Point","coordinates":[17.578811645507812,45.41153413607668]}},{"type":"Feature","properties":{"type":"destroyed","subtype":"mined","desc":"Podravska Slatina, crkva Svetih apostola Petra i Pavla, Hrvati srušili 1941 godine","object":"crkva","date0":"ne","time0":"1.1.1942"},"geometry":{"type":"Point","coordinates":[17.699299156665802,45.70190847988677]}},{"type":"Feature","properties":{"type":"damaged","subtype":"mined","desc":"Podravska Slatina, oštećena u granatiranju","object":"crkva","date0":"ne","time0":"1.1.1992"},"geometry":{"type":"Point","coordinates":[17.699419856071472,45.701904733422985]}},{"type":"Feature","properties":{"type":"damaged","subtype":"ruined","desc":"Podravska Slatina, provaljena i izlomljena","object":"crkva","date0":"ne","time0":"1.1.1995"},"geometry":{"type":"Point","coordinates":[17.699344754219055,45.701904733422985]}},{"type":"Feature","properties":{"type":"damaged","subtype":"mined","desc":"Podravska Slatina, parohijski dom , oštećen granatama","object":"dom","date0":"ne","time0":"1.1.1992","koor":"ne"},"geometry":{"type":"Point","coordinates":[17.699425220489502,45.701736142292624]}},{"type":"Feature","properties":{"desc":"Poljane, kapela, teško oštećena tokom 1991 godine","object":"kapela","time0":"1.1.1992","date0":"ne","subtype":"mined","type":"damaged"},"geometry":{"type":"Point","coordinates":[17.314681112766266,45.238786208815775]}},{"type":"Feature","properties":{"desc":"Pušina, ošteđen zvonik","object":"kapela","time0":"1.1.1992","koor":"","date0":"ne","subtype":"ruined","type":"damaged"},"geometry":{"type":"Point","coordinates":[17.761199176311493,45.55899913916082]}},{"type":"Feature","properties":{"desc":"Ratkovac, crkva Pokrova Presvete Bogorodice, iz 1800 godine, sagrađena na mestu starije crkve, granatirana pa opljačkana i izlomljena","time0":"1.5.1995","object":"crkva","koor":"","date0":"ne","subtype":"ruined","type":"damaged"},"geometry":{"type":"Point","coordinates":[17.2530198097229,45.27920861786138]}},{"type":"Feature","properties":{"desc":"Ratkovica, crkva Svetog Velikomučenika Dimitrija, sagrađena 1874 godine, Hrvati srušili 1941 godine ","type":"destroyed","subtype":"mined","object":"crkva","time0":"1.1.1942","date0":"ne"},"geometry":{"type":"Point","coordinates":[17.720129191875454,45.22917953262609]}},{"type":"Feature","properties":{"desc":"Ratkovica, crkva Svetog Velikomučenika Dimitrija, noovi hram podignut na mjestu stare crkve 1980 godine, miniran u decembru 1991 godine","object":"crkva","time0":"1.1.1992","date0":"ne","subtype":"mined","type":"damaged"},"geometry":{"type":"Point","coordinates":[17.72011175751686,45.22917858812272]}},{"type":"Feature","properties":{"desc":"Donji Rogolji, crkva Svetog Velikomučenika Georgija, iz 19og vijeka, opljačkana i oštećena ","time0":"1.5.1995","object":"crkva","type":"damaged","subtype":"ruined","date0":"ne"},"geometry":{"type":"Point","coordinates":[17.21381664276123,45.35185119823829]}},{"type":"Feature","properties":{"desc":"Donji Rogolji, crkva Svetog Velikomučenika Georgija, iz 19og vijeka, opljačkana","time0":"1.1.1997","object":"crkva","type":"damaged","subtype":"robbed","date0":"ne"},"geometry":{"type":"Point","coordinates":[17.21382737159729,45.35184931331279]}},{"type":"Feature","properties":{"date0":"ne","desc":"Slavonska Požega, crkva Svetog velikomučenika Georgija, iz 1730 godine, Hrvati srušili 1941 godine","object":"crkva","time0":"1.1.1942","subtype":"mined","type":"destroyed"},"geometry":{"type":"Point","coordinates":[17.672493159770966,45.331469600081725]}},{"type":"Feature","properties":{"date0":"ne","object":"crkva","time0":"1.1.1992","desc":"Slavonska Požega, crkva Svetog velikomučenika Georgija, nova crkva na temelju stare sagrađena 1990 godine","subtype":"mined","type":"damaged"},"geometry":{"type":"Point","coordinates":[17.672570943832394,45.33147148568586]}},{"type":"Feature","properties":{"koor":"ne","date0":"ne","object":"kapela","time0":"1.1.1992","desc":"Slavonska Požega, kapela u parohijskom domu, ","subtype":"burned","type":"damaged"},"geometry":{"type":"Point","coordinates":[17.67278015613556,45.331573308216655]}},{"type":"Feature","properties":{"koor":"ne","date0":"ne","time0":"1.1.1942","type":"destroyed","subtype":"mined","desc":"Slavonski Brod, crkva Svetog velikomučenika Georgija, iz 1802 godine, Hrvati srušili 1941 godine","object":"crkva"},"geometry":{"type":"Point","coordinates":[18.024498224258423,45.15681100943612]}},{"type":"Feature","properties":{"date0":"ne","time0":"1.1.1992","type":"destroyed","subtype":"mined","desc":"Slavonski Brod, crkva Svetog velikomučenika Georgija, podignutu 50ak metara dalje od prethodne1990 godine, Hrvati minirali","object":"crkva"},"geometry":{"type":"Point","coordinates":[18.024302423000336,45.157274403080116]}},{"type":"Feature","properties":{"type":"destroyed","subtype":"mined","desc":"Slavonski Kobaš, crkva Svetog velikomučenika Georgija, sagrađena 1779 godine, Hrvati uništili 1941 godine","object":"crkva","time0":"1.1.1942","date0":"ne"},"geometry":{"type":"Point","coordinates":[17.73543655872345,45.100447505160204]}},{"type":"Feature","properties":{"type":"destroyed","subtype":"mined","desc":"Slavonski Kobaš, crkva Svetog velikomučenika Georgija, sagrađena na mestu stare 1962 godine, Hrvati u jesen 1993 godine minirali, ostao samo deo zidova","object":"crkva","time0":"1.1.1993","date0":"ne"},"geometry":{"type":"Point","coordinates":[17.735476791858673,45.10042478579266]}},{"type":"Feature","properties":{"time0":"1.1.1992","koor":"ne","date0":"ne","desc":"Sirač, crkva Uspenja Presvete Bogorodice, sagrađenu 1751 godine, Hrvati srušili do temelja u vremenu 91-92","object":"crkva","subtype":"mined","type":"destroyed"},"geometry":{"type":"Point","coordinates":[17.25704044103622,45.52818186990797]}},{"type":"Feature","properties":{"type":"destroyed","subtype":"mined","desc":"Stari Slatnik, crkva Svetog kneza Lazara, Hrvati srušili do temelja 1941 godine","object":"crkva","time0":"1.1.1942","date0":"ne"},"geometry":{"type":"Point","coordinates":[17.842605561017987,45.17440881000147]}},{"type":"Feature","properties":{"subtype":"mined","type":"damaged","time0":"1.1.1992","date0":"ne","desc":"Stari Slatnik, crkva Svetog kneza Lazara. na mestu stare podignuta nova 1985 godine, minirana u lelto 1991 godine kada je teško oštećena","object":"crkva"},"geometry":{"type":"Point","coordinates":[17.84265249967575,45.17440975541453]}},{"type":"Feature","properties":{"koor":"ne","date0":"ne","desc":"Subotska, crkva Svetog arhangela Gavrila, iz 18og vijeka, Hrvati teško oštetili","time0":"1.1.1992","object":"crkva","subtype":"mined","type":"damaged"},"geometry":{"type":"Point","coordinates":[17.12902396917343,45.3804100350466]}},{"type":"Feature","properties":{"type":"damaged","subtype":"mined","desc":"Toranj, crkva Svetog Pantelejmona, podignuta 1931 godine, Hrvati znatno oštetili","object":"crkva","time0":"1.1.1992","date0":"ne"},"geometry":{"type":"Point","coordinates":[17.11617887020111,45.484403792727605]}},{"type":"Feature","properties":{"type":"damaged","subtype":"ruined","desc":"Toranj, stara crkva Svetog Pantelejmona, oštećena tokom 91-92","object":"crkva","time0":"1.1.1992","koor":"","date0":"ne"},"geometry":{"type":"Point","coordinates":[17.08450734615326,45.48772278774177]}},{"type":"Feature","properties":{"desc":"Trnava, crkva Vaznesenja Gospodnjeg, Hrvati granatirali tokom 91-92 godine i znatno oštetili","object":"crkva","time0":"1.1.1992","date0":"ne","subtype":"mined","type":"damaged"},"geometry":{"type":"Point","coordinates":[18.254725635051727,45.26102492688781]}},{"type":"Feature","properties":{"time0":"1.1.1942","date0":"ne","desc":"Trnjani, crkva Rođenja Presvete Bogorodice, Hrvati srušili 1941 godine","object":"crkva","type":"destroyed","subtype":"mined"},"geometry":{"type":"Point","coordinates":[18.143762648105618,45.18700882642796]}},{"type":"Feature","properties":{"time0":"27.8.1992","object":"crkva","type":"destroyed","subtype":"mined","desc":"Trnjani, crkva Rođenja Presvete Bogorodice, Hrvati srušili"},"geometry":{"type":"Point","coordinates":[18.143727779388428,45.186980470305194]}},{"type":"Feature","properties":{"desc":"Uljanik, crkva Rođenja Svetog Jovana Preteče, iz 1760 godine, provaljena i avgustu 1991","object":"crkva","subtype":"robbed","type":"damaged","time0":"1.8.1991","date0":"ne"},"geometry":{"type":"Point","coordinates":[17.023921608924866,45.53321748223577]}},{"type":"Feature","properties":{"desc":"Uljanik, opljačkan i izlomljen","object":"dom","time0":"1.8.1991","date0":"ne","subtype":"robbed","type":"damaged"},"geometry":{"type":"Point","coordinates":[17.023149132728577,45.5337567169796]}},{"type":"Feature","properties":{"type":"destroyed","subtype":"mined","desc":"Uštica, crkva Svetog cara Konstantina i Jelene, iz 1810 godine, Hrvati minirali i teško oštetili 1941 godine","object":"crkva","time0":"1.1.1941","date0":"ne","koor":"ne"},"geometry":{"type":"Point","coordinates":[16.910372972488403,45.26400969432481]}},{"type":"Feature","properties":{"date0":"ne","koor":"ne","desc":"Uštica, parohijski dom i kapelu Svetog cara Konstantina i carice Jelene, oštećeni granatama","time0":"1.1.1992","object":"kapela","subtype":"mined","type":"damaged"},"geometry":{"type":"Point","coordinates":[16.91043198108673,45.26399081583351]}},{"type":"Feature","properties":{"desc":"Crkveni Vrhovci, crkva Uspenja Presvete Bogorodice, iz 1778 godine, Hrvati srušili 91-92 godine","time0":"1.1.1992","date0":"ne","type":"destroyed","subtype":"mined","object":"crkva","koor":""},"geometry":{"type":"Point","coordinates":[17.654327899217606,45.28915498889424]}},{"type":"Feature","properties":{"desc":"Širinci, kapela Svetog jevanđeliste Marka, sagrađena u 19om vijeku, porušena 1991 godine od strane Hrvata","object":"kapela","time0":"1.1.1992","koor":"ne","date0":"ne","subtype":"mined","type":"destroyed"},"geometry":{"type":"Point","coordinates":[17.252545058727264,45.322138862118464]}},{"type":"Feature","properties":{"desc":"Šnjegavić, crkva pokrova Presvete Bogorodice, sagređena 1764 godine, hrvati potpuno uništili","object":"crkva","time0":"1.1.1992","koor":"ne","date0":"ne","subtype":"mined","type":"destroyed"},"geometry":{"type":"Point","coordinates":[17.44019776582718,45.37681906635008]}},{"type":"Feature","properties":{"koor":"ne","date0":"ne","time0":"1.1.1992","desc":"Šnjegavić, parohijski dom uništen paljevinom","object":"dom","subtype":"burned","type":"destroyed"},"geometry":{"type":"Point","coordinates":[17.440494149923325,45.376708846757175]}}]}