{
  "type": "FeatureCollection",
  "features": [
    {
      "type": "Feature",
      "properties": {
        "old_name_gr": "21η Απριλίου",
        "old_name_en": "21 Apriliou",
        "new_name_gr": "Καλλιθέα",
        "new_name_en": "Kallithea",
        "old_name_alternative": "",
        "new_name_alternative": "",
        "prefecture": "THESSALONIKI",
        "province": "THESSALONIKI",
        "renaming_date": "21/5/1975",
        "official_journal": "96/1975",
        "community_or_municipality": "Community",
        "name_of_community_or_municipality": "Thermi",
        "source_url": "https://pandektis.ekt.gr/pandektis/handle/10442/34731",
        "latitude": null,
        "longitude": null
      },
      "geometry": null
    },
    {
      "type": "Feature",
      "properties": {
        "old_name_gr": "Αατλή",
        "old_name_en": "Aatli",
        "new_name_gr": "Καβαλλάρης",
        "new_name_en": "Kavallaris",
        "old_name_alternative": "",
        "new_name_alternative": "",
        "prefecture": "KILKIS",
        "province": "KILKIS",
        "renaming_date": "20/8/1927",
        "official_journal": "179/1927",
        "community_or_municipality": "Community",
        "name_of_community_or_municipality": "Mouries",
        "source_url": "https://pandektis.ekt.gr/pandektis/handle/10442/170807",
        "latitude": null,
        "longitude": null
      },
      "geometry": null
    },
    {
      "type": "Feature",
      "properties": {
        "old_name_gr": "Άχαψη",
        "old_name_en": "Achapsi",
        "new_name_gr": "Γαλήνη",
        "new_name_en": "Galini",
        "old_name_alternative": "",
        "new_name_alternative": "",
        "prefecture": "KYKLADES",
        "province": "NAXOS",
        "renaming_date": "20/9/1955",
        "official_journal": "287/1955",
        "community_or_municipality": "Community",
        "name_of_community_or_municipality": "Galini",
        "source_url": "https://pandektis.ekt.gr/pandektis/handle/10442/172348",
        "latitude": null,
        "longitude": null
      },
      "geometry": null
    },
    {
      "type": "Feature",
      "properties": {
        "old_name_gr": "Αχατλάρ",
        "old_name_en": "Achatlar",
        "new_name_gr": "Μικροχώρι",
        "new_name_en": "Mikrochori",
        "old_name_alternative": "",
        "new_name_alternative": "",
        "prefecture": "KAVALA",
        "province": "PANGAIO",
        "renaming_date": "15/11/1926",
        "official_journal": "413/1926",
        "community_or_municipality": "Community",
        "name_of_community_or_municipality": "Mesoropi",
        "source_url": "https://pandektis.ekt.gr/pandektis/handle/10442/171421",
        "latitude": null,
        "longitude": null
      },
      "geometry": null
    },
    {
      "type": "Feature",
      "properties": {
        "old_name_gr": "Αχλάδι",
        "old_name_en": "Achladi",
        "new_name_gr": "Αγία Παρασκευή",
        "new_name_en": "Agia Paraskevi",
        "old_name_alternative": "",
        "new_name_alternative": "",
        "prefecture": "LASITHI",
        "province": "SITEIA",
        "renaming_date": "13/6/1963",
        "official_journal": "91/1963",
        "community_or_municipality": "Community",
        "name_of_community_or_municipality": "Agia Triada",
        "source_url": "https://pandektis.ekt.gr/pandektis/handle/10442/28528",
        "latitude": null,
        "longitude": null
      },
      "geometry": null
    }
  ]
}